{
"type": "FeatureCollection",
"name": "predios_2026_geojson",
"crs": { "type": "name", "properties": { "name": "urn:ogc:def:crs:IGNF::WGS84G" } },
"features": [
{ "type": "Feature", "properties": { "Nom_Layer": "7000-17", "HV2": "https://pucobre.sharepoint.com/:f:/s/PropiedadSuperficial/EpE3EG7d2NxMgxHYHzY3Pu8BUT6hzmW_PrIQ_aX7HUWaOw?e=UEArfv", "datos_PS2026_csv_FID": "0", "datos_PS2026_csv_PROPIET": "SOC. PUNTA DEL COBRE S.A.", "datos_PS2026_csv_INMUEBLE": "T ERRENO LAS CRUCES", "datos_PS2026_csv_INSCRIP": "FJ. 3802 N 2058 AÑO 1998", "datos_PS2026_csv_Nom_Layer": null, "datos_PS2026_csv_SECTOR": "QUEBRADA LAS CRUCES", "datos_PS2026_csv_SUPERF": "305,794256", "datos_PS2026_csv_DESTINO": "TRANQUE LAS CRUCES", "datos_PS2026_csv_TIPO": "SIN CERCO O CIERRE", "datos_PS2026_csv_UNIDAD": "PSJ", "datos_PS2026_csv_HV2": "https://pucobre.sharepoint.com/:f:/s/PropiedadSuperficial/EpE3EG7d2NxMgxHYHzY3Pu8BUT6hzmW_PrIQ_aX7HUWaOw?e=UEArfv", "datos_PS2026_csv_area": "305,7942561", "datos_PS2026_csv_REGION": "ATACAMA" }, "geometry": { "type": "MultiPolygon", "coordinates": [ [ [ [ -70.322314558746598, -27.439913582230883, 0.0 ], [ -70.316008543246824, -27.445614762902743, 0.0 ], [ -70.316115668998478, -27.454640116779572, 0.0 ], [ -70.307313741387816, -27.454723000060824, 0.0 ], [ -70.307345674003784, -27.457430613380868, 0.0 ], [ -70.33769772929648, -27.457142429564314, 0.0 ], [ -70.337648720836825, -27.453081058879309, 0.0 ], [ -70.322314558746598, -27.439913582230883, 0.0 ] ] ] ] } },
{ "type": "Feature", "properties": { "Nom_Layer": "8000-88", "HV2": "https://pucobre.sharepoint.com/:f:/s/PropiedadSuperficial/Et1DPh9DrQFHi56t2EZCOssBoPQfwj9Lmr0TQiIzP8aAzg?e=FdIkEv", "datos_PS2026_csv_FID": "1", "datos_PS2026_csv_PROPIET": "SOC. PUNTA DEL COBRE S.A.", "datos_PS2026_csv_INMUEBLE": "TERRENO PIMASA", "datos_PS2026_csv_INSCRIP": "FJ. 68 VTA. N 65 AÑO 2007", "datos_PS2026_csv_Nom_Layer": null, "datos_PS2026_csv_SECTOR": "COLINDANTE A PLANTA BIOCOBRE", "datos_PS2026_csv_SUPERF": "5,108503", "datos_PS2026_csv_DESTINO": "APOYO BIOCOBRE", "datos_PS2026_csv_TIPO": "CON CERCO O CIERRE", "datos_PS2026_csv_UNIDAD": "PBC", "datos_PS2026_csv_HV2": "https://pucobre.sharepoint.com/:f:/s/PropiedadSuperficial/Et1DPh9DrQFHi56t2EZCOssBoPQfwj9Lmr0TQiIzP8aAzg?e=FdIkEv", "datos_PS2026_csv_area": "5,108503144", "datos_PS2026_csv_REGION": "ATACAMA" }, "geometry": { "type": "MultiPolygon", "coordinates": [ [ [ [ -70.244391113706357, -27.38694509895279, 0.0 ], [ -70.243500571211257, -27.38548689284325, 0.0 ], [ -70.24054678524692, -27.386666117583204, 0.0 ], [ -70.241289490665167, -27.387499714108841, 0.0 ], [ -70.241463962571686, -27.387401229976653, 0.0 ], [ -70.241679914847126, -27.387380097035532, 0.0 ], [ -70.241829615155524, -27.387343094430737, 0.0 ], [ -70.24193725993895, -27.387327697972239, 0.0 ], [ -70.242293993092559, -27.387299106885557, 0.0 ], [ -70.242538677393313, -27.387383059483181, 0.0 ], [ -70.242622837985962, -27.38750459920437, 0.0 ], [ -70.242755984426324, -27.387545997636018, 0.0 ], [ -70.242910179280756, -27.387576596825227, 0.0 ], [ -70.243180917406093, -27.387562253771232, 0.0 ], [ -70.243365017654199, -27.38755250028175, 0.0 ], [ -70.243541504312859, -27.387591612350793, 0.0 ], [ -70.243624288616118, -27.387529069296626, 0.0 ], [ -70.243663112304375, -27.387459171275363, 0.0 ], [ -70.243670104429825, -27.387400654344347, 0.0 ], [ -70.243728008497271, -27.387290977548908, 0.0 ], [ -70.243907612898781, -27.387213620459864, 0.0 ], [ -70.244075750740194, -27.387127186643166, 0.0 ], [ -70.244201853072127, -27.387062348012702, 0.0 ], [ -70.244391113706357, -27.38694509895279, 0.0 ] ] ] ] } },
{ "type": "Feature", "properties": { "Nom_Layer": "7180-3", "HV2": "https://pucobre.sharepoint.com/:f:/s/PropiedadSuperficial/Env6E5D5Yz1Fp5jUiRqheeUBZ2IS83AXUCRpPdSuO2G8sA?e=hB3pc4", "datos_PS2026_csv_FID": "2", "datos_PS2026_csv_PROPIET": "SOC. PUNTA DEL COBRE S.A.", "datos_PS2026_csv_INMUEBLE": "TERRENO BIOCOBRE NORTE", "datos_PS2026_csv_INSCRIP": "FJ. 36 VTA. N 32 AÑO 2008", "datos_PS2026_csv_Nom_Layer": null, "datos_PS2026_csv_SECTOR": "ANTIGUOS RIPIOS BIOCOBRE", "datos_PS2026_csv_SUPERF": "16,604741", "datos_PS2026_csv_DESTINO": "AREA DEPOSITO DE RIPIOS", "datos_PS2026_csv_TIPO": "CON CERCO O CIERRE", "datos_PS2026_csv_UNIDAD": "PBC", "datos_PS2026_csv_HV2": "https://pucobre.sharepoint.com/:f:/s/PropiedadSuperficial/Env6E5D5Yz1Fp5jUiRqheeUBZ2IS83AXUCRpPdSuO2G8sA?e=hB3pc4", "datos_PS2026_csv_area": "16,60474052", "datos_PS2026_csv_REGION": "ATACAMA" }, "geometry": { "type": "MultiPolygon", "coordinates": [ [ [ [ -70.240374267901728, -27.368973932776093, 0.0 ], [ -70.234362545632933, -27.372054320402814, 0.0 ], [ -70.234390328243705, -27.374558178113816, 0.0 ], [ -70.235592679412278, -27.374547539538064, 0.0 ], [ -70.235573099093301, -27.372784649345849, 0.0 ], [ -70.237190698665344, -27.372770321099093, 0.0 ], [ -70.237423326895367, -27.372741236833679, 0.0 ], [ -70.237663602047135, -27.372732140634639, 0.0 ], [ -70.238215391846964, -27.372664138814958, 0.0 ], [ -70.238505634202951, -27.372580235402864, 0.0 ], [ -70.239062314707724, -27.372389785145426, 0.0 ], [ -70.23933957787392, -27.372303813540633, 0.0 ], [ -70.239626207331426, -27.372176112496838, 0.0 ], [ -70.239786507676612, -27.372064619287126, 0.0 ], [ -70.239915358616088, -27.371935244180435, 0.0 ], [ -70.239989605591177, -27.371793036429477, 0.0 ], [ -70.240119798172046, -27.371610539129861, 0.0 ], [ -70.240097158692379, -27.371306231107393, 0.0 ], [ -70.240044861568762, -27.371171001648335, 0.0 ], [ -70.239962466250859, -27.371075579350272, 0.0 ], [ -70.241311948448555, -27.370288567321055, 0.0 ], [ -70.240374267901728, -27.368973932776093, 0.0 ] ] ] ] } },
{ "type": "Feature", "properties": { "Nom_Layer": "6000-125", "HV2": "https://pucobre.sharepoint.com/:f:/s/PropiedadSuperficial/EmmlIIAT-gdFjNoczQV--8ABmnB6IHVT1mxU2m3DDU-VrQ?e=iEJH5T", "datos_PS2026_csv_FID": "3", "datos_PS2026_csv_PROPIET": "SOC. PUNTA DEL COBRE S.A.", "datos_PS2026_csv_INMUEBLE": "LOTES A", "datos_PS2026_csv_INSCRIP": "FJ. 1326 N 1315 AÑO 1997", "datos_PS2026_csv_Nom_Layer": null, "datos_PS2026_csv_SECTOR": "QDA. PAIPOTE KM 14", "datos_PS2026_csv_SUPERF": "3,305631", "datos_PS2026_csv_DESTINO": "PLANTA BIOCOBRE", "datos_PS2026_csv_TIPO": "CON CERCO O CIERRE", "datos_PS2026_csv_UNIDAD": "PBC", "datos_PS2026_csv_HV2": "https://pucobre.sharepoint.com/:f:/s/PropiedadSuperficial/EmmlIIAT-gdFjNoczQV--8ABmnB6IHVT1mxU2m3DDU-VrQ?e=iEJH5T", "datos_PS2026_csv_area": "3,305631236", "datos_PS2026_csv_REGION": "ATACAMA" }, "geometry": { "type": "MultiPolygon", "coordinates": [ [ [ [ -70.237190698665344, -27.372770321099093, 0.0 ], [ -70.235573099093301, -27.372784649345849, 0.0 ], [ -70.235597158945325, -27.374950826201747, 0.0 ], [ -70.236285182953068, -27.374661088681208, 0.0 ], [ -70.236459535164613, -27.374422714317721, 0.0 ], [ -70.236591855888619, -27.374382047926471, 0.0 ], [ -70.236634412024884, -27.37422378426448, 0.0 ], [ -70.236855619874177, -27.374221824221635, 0.0 ], [ -70.236945032859538, -27.374299975174164, 0.0 ], [ -70.237034007326258, -27.374338680790142, 0.0 ], [ -70.237122894468371, -27.374377342139702, 0.0 ], [ -70.237211429847278, -27.374376557388857, 0.0 ], [ -70.237255654093104, -27.374376165377477, 0.0 ], [ -70.237343311459384, -27.374296445025493, 0.0 ], [ -70.237712265431725, -27.374209956504949, 0.0 ], [ -70.237694292156277, -27.374017054114145, 0.0 ], [ -70.23769253567545, -27.37385918309203, 0.0 ], [ -70.237558459229362, -27.373741934485583, 0.0 ], [ -70.237292063568589, -27.373665352883918, 0.0 ], [ -70.237202650877464, -27.373587202137902, 0.0 ], [ -70.237113238311892, -27.373509051329552, 0.0 ], [ -70.23702347363286, -27.37339140943158, 0.0 ], [ -70.237022157270047, -27.373273028613305, 0.0 ], [ -70.236931867417141, -27.373115942130511, 0.0 ], [ -70.236930112085702, -27.372958071042294, 0.0 ], [ -70.237062870026648, -27.372956894519472, 0.0 ], [ -70.23715052645997, -27.372877174305199, 0.0 ], [ -70.237190698665344, -27.372770321099093, 0.0 ] ] ] ] } },
{ "type": "Feature", "properties": { "Nom_Layer": "6000-125", "HV2": "https://pucobre.sharepoint.com/:f:/s/PropiedadSuperficial/EmmlIIAT-gdFjNoczQV--8ABmnB6IHVT1mxU2m3DDU-VrQ?e=iEJH5T", "datos_PS2026_csv_FID": "3", "datos_PS2026_csv_PROPIET": "SOC. PUNTA DEL COBRE S.A.", "datos_PS2026_csv_INMUEBLE": "LOTES A", "datos_PS2026_csv_INSCRIP": "FJ. 1326 N 1315 AÑO 1997", "datos_PS2026_csv_Nom_Layer": null, "datos_PS2026_csv_SECTOR": "QDA. PAIPOTE KM 14", "datos_PS2026_csv_SUPERF": "3,305631", "datos_PS2026_csv_DESTINO": "PLANTA BIOCOBRE", "datos_PS2026_csv_TIPO": "CON CERCO O CIERRE", "datos_PS2026_csv_UNIDAD": "PBC", "datos_PS2026_csv_HV2": "https://pucobre.sharepoint.com/:f:/s/PropiedadSuperficial/EmmlIIAT-gdFjNoczQV--8ABmnB6IHVT1mxU2m3DDU-VrQ?e=iEJH5T", "datos_PS2026_csv_area": "3,305631236", "datos_PS2026_csv_REGION": "ATACAMA" }, "geometry": { "type": "MultiPolygon", "coordinates": [ [ [ [ -70.235597158945325, -27.374950826201747, 0.0 ], [ -70.235688410359828, -27.383164240443676, 0.0 ], [ -70.236461203847014, -27.382858196555954, 0.0 ], [ -70.23692751607139, -27.382687046269119, 0.0 ], [ -70.237625501373842, -27.38230512404915, 0.0 ], [ -70.237669547207091, -27.382054184308817, 0.0 ], [ -70.238201070035672, -27.381787976920705, 0.0 ], [ -70.238225716573993, -27.381548242341573, 0.0 ], [ -70.238082891279802, -27.381340748601573, 0.0 ], [ -70.237941083174817, -27.381216777041612, 0.0 ], [ -70.23747207788783, -27.381137405298162, 0.0 ], [ -70.235958133357798, -27.380137936121749, 0.0 ], [ -70.235821069791285, -27.380024743865764, 0.0 ], [ -70.235819214060996, -27.379857742437778, 0.0 ], [ -70.236051901061444, -27.379730452091383, 0.0 ], [ -70.23684446504592, -27.379431137753198, 0.0 ], [ -70.236981626788562, -27.379137674619383, 0.0 ], [ -70.236980233610211, -27.379012412343343, 0.0 ], [ -70.237072042055672, -27.378844625724529, 0.0 ], [ -70.237351935041801, -27.378758613068861, 0.0 ], [ -70.237866833198709, -27.378754047043959, 0.0 ], [ -70.237913665812755, -27.37875363164645, 0.0 ], [ -70.238050359313831, -27.378418428468599, 0.0 ], [ -70.238047106037016, -27.378126164901254, 0.0 ], [ -70.23795074031284, -27.377876515460564, 0.0 ], [ -70.237851965041671, -27.377418126247765, 0.0 ], [ -70.237851036003647, -27.377334648055751, 0.0 ], [ -70.237939589011191, -27.376874597281855, 0.0 ], [ -70.238079178856353, -27.37538016276536, 0.0 ], [ -70.23787324403753, -27.375121610481521, 0.0 ], [ -70.237778739356926, -27.375038917162453, 0.0 ], [ -70.237497839911143, -27.375041407959284, 0.0 ], [ -70.237310138286219, -27.375001328801101, 0.0 ], [ -70.237029325770564, -27.375003817881812, 0.0 ], [ -70.236841624352252, -27.374963738085487, 0.0 ], [ -70.236654387080847, -27.374965397161574, 0.0 ], [ -70.236373487701144, -27.374967885689799, 0.0 ], [ -70.236186250389608, -27.374969544138217, 0.0 ], [ -70.235952182006372, -27.374971617038025, 0.0 ], [ -70.235597158945325, -27.374950826201747, 0.0 ] ] ] ] } },
{ "type": "Feature", "properties": { "Nom_Layer": "6000-124", "HV2": "https://pucobre.sharepoint.com/:f:/s/PropiedadSuperficial/El13gu3hzBZEmKsiwihZfqgBCFEEqzQIm8HBp9Yc0QwDzA?e=uLbUVk", "datos_PS2026_csv_FID": "5", "datos_PS2026_csv_PROPIET": "SOC. PUNTA DEL COBRE S.A.", "datos_PS2026_csv_INMUEBLE": "LOTE A", "datos_PS2026_csv_INSCRIP": "FJ. 1627 N 1585 AÑO 1997", "datos_PS2026_csv_Nom_Layer": null, "datos_PS2026_csv_SECTOR": "QDA. PAIPOTE KM 14", "datos_PS2026_csv_SUPERF": "22,17848", "datos_PS2026_csv_DESTINO": "PLANTA BIOCOBRE", "datos_PS2026_csv_TIPO": "CON CERCO O CIERRE", "datos_PS2026_csv_UNIDAD": "PBC", "datos_PS2026_csv_HV2": "https://pucobre.sharepoint.com/:f:/s/PropiedadSuperficial/El13gu3hzBZEmKsiwihZfqgBCFEEqzQIm8HBp9Yc0QwDzA?e=uLbUVk", "datos_PS2026_csv_area": "22,17848023", "datos_PS2026_csv_REGION": "ATACAMA" }, "geometry": { "type": "MultiPolygon", "coordinates": [ [ [ [ -70.2472455456071, -27.379486892852277, 0.0 ], [ -70.245115847351371, -27.380733527102791, 0.0 ], [ -70.247196697103533, -27.385950368050278, 0.0 ], [ -70.251345266514079, -27.385281365481429, 0.0 ], [ -70.2472455456071, -27.379486892852277, 0.0 ] ] ] ] } },
{ "type": "Feature", "properties": { "Nom_Layer": "6000-124", "HV2": "https://pucobre.sharepoint.com/:f:/s/PropiedadSuperficial/El13gu3hzBZEmKsiwihZfqgBCFEEqzQIm8HBp9Yc0QwDzA?e=uLbUVk", "datos_PS2026_csv_FID": "5", "datos_PS2026_csv_PROPIET": "SOC. PUNTA DEL COBRE S.A.", "datos_PS2026_csv_INMUEBLE": "LOTE A", "datos_PS2026_csv_INSCRIP": "FJ. 1627 N 1585 AÑO 1997", "datos_PS2026_csv_Nom_Layer": null, "datos_PS2026_csv_SECTOR": "QDA. PAIPOTE KM 14", "datos_PS2026_csv_SUPERF": "22,17848", "datos_PS2026_csv_DESTINO": "PLANTA BIOCOBRE", "datos_PS2026_csv_TIPO": "CON CERCO O CIERRE", "datos_PS2026_csv_UNIDAD": "PBC", "datos_PS2026_csv_HV2": "https://pucobre.sharepoint.com/:f:/s/PropiedadSuperficial/El13gu3hzBZEmKsiwihZfqgBCFEEqzQIm8HBp9Yc0QwDzA?e=uLbUVk", "datos_PS2026_csv_area": "22,17848023", "datos_PS2026_csv_REGION": "ATACAMA" }, "geometry": { "type": "MultiPolygon", "coordinates": [ [ [ [ -70.244965197444003, -27.380825137100075, 0.0 ], [ -70.238938491741521, -27.384444280862507, 0.0 ], [ -70.23539059710204, -27.383663340971808, 0.0 ], [ -70.239981806335322, -27.387323526022655, 0.0 ], [ -70.24104248568176, -27.387223830087567, 0.0 ], [ -70.240581434794279, -27.386686334150902, 0.0 ], [ -70.243500571211257, -27.38548689284325, 0.0 ], [ -70.244118347911311, -27.386474311305832, 0.0 ], [ -70.246994980167869, -27.385997303807567, 0.0 ], [ -70.244965197444003, -27.380825137100075, 0.0 ] ] ] ] } },
{ "type": "Feature", "properties": { "Nom_Layer": "6000-133 LTB", "HV2": "https://pucobre.sharepoint.com/:f:/s/PropiedadSuperficial/EprSy421TQZDg-cxgFNOLVYBHFW9fleOz0rPxlPKKzzCcg?e=VsbpUN", "datos_PS2026_csv_FID": "7", "datos_PS2026_csv_PROPIET": "SOC. PUNTA DEL COBRE S.A.", "datos_PS2026_csv_INMUEBLE": "LOTE B", "datos_PS2026_csv_INSCRIP": "FJ. 6180 VTA. N 1736 AÑO 2011", "datos_PS2026_csv_Nom_Layer": null, "datos_PS2026_csv_SECTOR": "SIERRA LADRILLOS", "datos_PS2026_csv_SUPERF": "23,7983", "datos_PS2026_csv_DESTINO": "PLANTA BIOCOBRE", "datos_PS2026_csv_TIPO": "CON CERCO O CIERRE", "datos_PS2026_csv_UNIDAD": "PBC", "datos_PS2026_csv_HV2": "https://pucobre.sharepoint.com/:f:/s/PropiedadSuperficial/EprSy421TQZDg-cxgFNOLVYBHFW9fleOz0rPxlPKKzzCcg?e=VsbpUN", "datos_PS2026_csv_area": "23,79830011", "datos_PS2026_csv_REGION": "ATACAMA" }, "geometry": { "type": "MultiPolygon", "coordinates": [ [ [ [ -70.249155983728684, -27.39110856640329, 0.0 ], [ -70.248834599184406, -27.391344314202414, 0.0 ], [ -70.249535727154154, -27.393157811170159, 0.0 ], [ -70.247660737636579, -27.394017828536523, 0.0 ], [ -70.24724334352095, -27.392658605091636, 0.0 ], [ -70.246242869944268, -27.393335577595707, 0.0 ], [ -70.245070845574006, -27.394711724450463, 0.0 ], [ -70.245432002221705, -27.396201046196829, 0.0 ], [ -70.246816481862851, -27.39869366230953, 0.0 ], [ -70.250770722034844, -27.396667769232515, 0.0 ], [ -70.249155983728684, -27.39110856640329, 0.0 ] ] ] ] } },
{ "type": "Feature", "properties": { "Nom_Layer": "6000-133 LTA", "HV2": "https://pucobre.sharepoint.com/:f:/s/PropiedadSuperficial/EprSy421TQZDg-cxgFNOLVYBHFW9fleOz0rPxlPKKzzCcg?e=VsbpUN", "datos_PS2026_csv_FID": "8", "datos_PS2026_csv_PROPIET": "SOC. PUNTA DEL COBRE S.A.", "datos_PS2026_csv_INMUEBLE": "LOTE A", "datos_PS2026_csv_INSCRIP": "FJ. 6179 VTA. N 1735 AÑO 2011", "datos_PS2026_csv_Nom_Layer": null, "datos_PS2026_csv_SECTOR": "SIERRA LADRILLOS", "datos_PS2026_csv_SUPERF": "48,92706", "datos_PS2026_csv_DESTINO": "PLANTA BIOCOBRE", "datos_PS2026_csv_TIPO": "CON CERCO O CIERRE", "datos_PS2026_csv_UNIDAD": "PBC", "datos_PS2026_csv_HV2": " https://pucobre.sharepoint.com/:f:/s/PropiedadSuperficial/EprSy421TQZDg-cxgFNOLVYBHFW9fleOz0rPxlPKKzzCcg?e=VsbpUN", "datos_PS2026_csv_area": "48,92706025", "datos_PS2026_csv_REGION": "ATACAMA" }, "geometry": { "type": "MultiPolygon", "coordinates": [ [ [ [ -70.253563071245537, -27.387448415300575, 0.0 ], [ -70.249353072188711, -27.390963993668255, 0.0 ], [ -70.251441228794022, -27.396324227404431, 0.0 ], [ -70.258771857832016, -27.392561167067704, 0.0 ], [ -70.257917416877234, -27.391472686143569, 0.0 ], [ -70.255971604086824, -27.389391205160766, 0.0 ], [ -70.254743096483196, -27.388484458778478, 0.0 ], [ -70.253563071245537, -27.387448415300575, 0.0 ] ] ] ] } },
{ "type": "Feature", "properties": { "Nom_Layer": "3215-1", "HV2": "https://pucobre.sharepoint.com/:f:/s/PropiedadSuperficial/Et1Anwp3mo1Kp2hcRDofLrgBfTFM4L8nXoEslvuETzWcDg?e=sqmyMj", "datos_PS2026_csv_FID": "9", "datos_PS2026_csv_PROPIET": "CLUB DEPORTIVO PUCOBRE", "datos_PS2026_csv_INMUEBLE": "LOTE A", "datos_PS2026_csv_INSCRIP": "FS. 6014 Nº 3020 AÑO 2010\n", "datos_PS2026_csv_Nom_Layer": null, "datos_PS2026_csv_SECTOR": "FUNDO LA FLORIDA", "datos_PS2026_csv_SUPERF": "5,081702", "datos_PS2026_csv_DESTINO": "CANCHAS DEPORTIVAS", "datos_PS2026_csv_TIPO": "CON CERCO O CIERRE", "datos_PS2026_csv_UNIDAD": "OTROS", "datos_PS2026_csv_HV2": "https://pucobre.sharepoint.com/:f:/s/PropiedadSuperficial/Et1Anwp3mo1Kp2hcRDofLrgBfTFM4L8nXoEslvuETzWcDg?e=sqmyMj", "datos_PS2026_csv_area": "5,081701795", "datos_PS2026_csv_REGION": "ATACAMA" }, "geometry": { "type": "MultiPolygon", "coordinates": [ [ [ [ -70.270108719261216, -27.423519445780979, 0.0 ], [ -70.268437180621731, -27.422081245093665, 0.0 ], [ -70.268347578996938, -27.422070634297967, 0.0 ], [ -70.266881881967507, -27.422408831521391, 0.0 ], [ -70.266548258235034, -27.422797080965971, 0.0 ], [ -70.269605809750971, -27.424805975034047, 0.0 ], [ -70.269808254685387, -27.424288104092675, 0.0 ], [ -70.269612471325118, -27.424227165229258, 0.0 ], [ -70.269717649021658, -27.423958098653969, 0.0 ], [ -70.269913176419479, -27.424019691097385, 0.0 ], [ -70.270108719261216, -27.423519445780979, 0.0 ] ] ] ] } },
{ "type": "Feature", "properties": { "Nom_Layer": "7000-23", "HV2": "https://pucobre.sharepoint.com/:f:/s/PropiedadSuperficial/EvfR0HVCK8dMmBvzO6TkWWAB-gpmCZq8--jA5mxRCglZrw?e=uWHN6G", "datos_PS2026_csv_FID": "10", "datos_PS2026_csv_PROPIET": "SOC. PUNTA DEL COBRE S.A.", "datos_PS2026_csv_INMUEBLE": "LOTE B", "datos_PS2026_csv_INSCRIP": "FJ. 368 VTA. N 310 AÑO 1997", "datos_PS2026_csv_Nom_Layer": null, "datos_PS2026_csv_SECTOR": "QUEBRADA EL BUITRE", "datos_PS2026_csv_SUPERF": "42,688383", "datos_PS2026_csv_DESTINO": "PLANTA SAN JOSE", "datos_PS2026_csv_TIPO": "CON CERCO O CIERRE", "datos_PS2026_csv_UNIDAD": "PSJ", "datos_PS2026_csv_HV2": "https://pucobre.sharepoint.com/:f:/s/PropiedadSuperficial/EvfR0HVCK8dMmBvzO6TkWWAB-gpmCZq8--jA5mxRCglZrw?e=uWHN6G", "datos_PS2026_csv_area": "42,68838326", "datos_PS2026_csv_REGION": "ATACAMA" }, "geometry": { "type": "MultiPolygon", "coordinates": [ [ [ [ -70.295170307723183, -27.478711233570358, 0.0 ], [ -70.285804449542084, -27.478798050386601, 0.0 ], [ -70.276559135038454, -27.478883103558505, 0.0 ], [ -70.283460372857519, -27.479668165184528, 0.0 ], [ -70.283222160750441, -27.481326205996968, 0.0 ], [ -70.287399054711997, -27.482433833618888, 0.0 ], [ -70.28750208162505, -27.482246447030217, 0.0 ], [ -70.287748078005635, -27.481556073454072, 0.0 ], [ -70.287794674567422, -27.481327945892904, 0.0 ], [ -70.287808954282312, -27.481228329113623, 0.0 ], [ -70.287898728065585, -27.480880422183443, 0.0 ], [ -70.287937402084069, -27.48070862818447, 0.0 ], [ -70.287979085937167, -27.480603065465605, 0.0 ], [ -70.288037026561682, -27.48051169462169, 0.0 ], [ -70.288079599862755, -27.480482616046299, 0.0 ], [ -70.288111724443553, -27.480477538041011, 0.0 ], [ -70.288209043533726, -27.480543568398009, 0.0 ], [ -70.288301277439572, -27.48063354964356, 0.0 ], [ -70.288368399584073, -27.480867276667063, 0.0 ], [ -70.288391119379412, -27.481106656216721, 0.0 ], [ -70.288300741411675, -27.481569394838658, 0.0 ], [ -70.288199186141298, -27.48187759822553, 0.0 ], [ -70.288107487634164, -27.482150061792037, 0.0 ], [ -70.288305148330721, -27.482011078688227, 0.0 ], [ -70.288451824267852, -27.481865062572005, 0.0 ], [ -70.288538433605396, -27.481776325776437, 0.0 ], [ -70.288768490000635, -27.481574470221005, 0.0 ], [ -70.288992499763751, -27.481344242020025, 0.0 ], [ -70.2891828668199, -27.481096729439614, 0.0 ], [ -70.289207438841146, -27.481062279905156, 0.0 ], [ -70.289350300177958, -27.480691961854308, 0.0 ], [ -70.289428556668327, -27.480383121285119, 0.0 ], [ -70.289480396364056, -27.480173084741207, 0.0 ], [ -70.289514826991478, -27.479907576436979, 0.0 ], [ -70.289535086031108, -27.479710668929179, 0.0 ], [ -70.289544239368922, -27.479482660714865, 0.0 ], [ -70.289554699648448, -27.479353483230721, 0.0 ], [ -70.289569861568324, -27.479254110946592, 0.0 ], [ -70.2895970249279, -27.479171664573954, 0.0 ], [ -70.289989237675471, -27.479272662987832, 0.0 ], [ -70.290292171471236, -27.479313007691321, 0.0 ], [ -70.290354706063027, -27.479321220968156, 0.0 ], [ -70.290777658206494, -27.479441215419634, 0.0 ], [ -70.290862786245896, -27.479466152189744, 0.0 ], [ -70.291109774898629, -27.479516196326809, 0.0 ], [ -70.291013991071779, -27.479702882943876, 0.0 ], [ -70.290950482972548, -27.479981036939805, 0.0 ], [ -70.29088935920052, -27.480172186338827, 0.0 ], [ -70.290893118280806, -27.480233146132978, 0.0 ], [ -70.29095825273636, -27.480321852604749, 0.0 ], [ -70.291007426076462, -27.480315195911505, 0.0 ], [ -70.291061541720623, -27.480255583304348, 0.0 ], [ -70.291110340942097, -27.480220507100945, 0.0 ], [ -70.291178929496198, -27.480174529435114, 0.0 ], [ -70.29131847922045, -27.480055842087637, 0.0 ], [ -70.291396249737218, -27.480121500909881, 0.0 ], [ -70.29143903616891, -27.48018149147757, 0.0 ], [ -70.291540339112075, -27.48025740257685, 0.0 ], [ -70.291615276517064, -27.480315098552392, 0.0 ], [ -70.291582186252228, -27.480376090125429, 0.0 ], [ -70.291424777468791, -27.480493768911618, 0.0 ], [ -70.291309468692589, -27.480581161193747, 0.0 ], [ -70.290783645834978, -27.481060722059482, 0.0 ], [ -70.290508734345323, -27.481311832571663, 0.0 ], [ -70.290333682571003, -27.481527243443303, 0.0 ], [ -70.290110791341107, -27.481710412520194, 0.0 ], [ -70.289793887967718, -27.48178739389051, 0.0 ], [ -70.289730511292902, -27.481801314705152, 0.0 ], [ -70.289526496963262, -27.481892054727464, 0.0 ], [ -70.289408231887805, -27.481979733967098, 0.0 ], [ -70.289228631702827, -27.482180539205974, 0.0 ], [ -70.289092878400766, -27.482356095557314, 0.0 ], [ -70.288939108904131, -27.482552133469518, 0.0 ], [ -70.288638588777545, -27.482887144430737, 0.0 ], [ -70.288413613756987, -27.483135584871242, 0.0 ], [ -70.288267205168481, -27.483244252013435, 0.0 ], [ -70.288063819242595, -27.483360104788311, 0.0 ], [ -70.287815218710264, -27.483430624208026, 0.0 ], [ -70.287798071377864, -27.483645909320451, 0.0 ], [ -70.287763509018504, -27.483834744337507, 0.0 ], [ -70.28606125012476, -27.483859466324397, 0.0 ], [ -70.28597349464124, -27.484551223691636, 0.0 ], [ -70.286856200398816, -27.484531496826008, 0.0 ], [ -70.288164802808396, -27.484940520372032, 0.0 ], [ -70.289018924260958, -27.483772037228032, 0.0 ], [ -70.291199295212209, -27.482855122439716, 0.0 ], [ -70.291480880033305, -27.482108095987005, 0.0 ], [ -70.292959124528537, -27.481477989656444, 0.0 ], [ -70.29524768532066, -27.480190985701167, 0.0 ], [ -70.295241162127127, -27.479933491929536, 0.0 ], [ -70.295210411750674, -27.479637491640997, 0.0 ], [ -70.295175071378651, -27.479372939478385, 0.0 ], [ -70.295163492558387, -27.47912063294023, 0.0 ], [ -70.295164624516644, -27.478929504650409, 0.0 ], [ -70.295170307723183, -27.478711233570358, 0.0 ] ] ] ] } },
{ "type": "Feature", "properties": { "Nom_Layer": "24-57", "HV2": "https://pucobre.sharepoint.com/:f:/s/PropiedadSuperficial/EnXBJQewZuFDgLU7BNA4ErkBKMajVySG9kj6Bw0XfqkJEg?e=1aWHxm", "datos_PS2026_csv_FID": "11", "datos_PS2026_csv_PROPIET": "SOC. PUNTA DEL COBRE S.A.", "datos_PS2026_csv_INMUEBLE": "PUNTA DEL COBRE", "datos_PS2026_csv_INSCRIP": "FJ. 1617 N 1100 AÑO 1982", "datos_PS2026_csv_Nom_Layer": null, "datos_PS2026_csv_SECTOR": "MINA RAMPA", "datos_PS2026_csv_SUPERF": "5,929313", "datos_PS2026_csv_DESTINO": "INSTALACIONES MINA", "datos_PS2026_csv_TIPO": "SIN CERCO O CIERRE", "datos_PS2026_csv_UNIDAD": "MPC", "datos_PS2026_csv_HV2": "https://pucobre.sharepoint.com/:f:/s/PropiedadSuperficial/EnXBJQewZuFDgLU7BNA4ErkBKMajVySG9kj6Bw0XfqkJEg?e=1aWHxm", "datos_PS2026_csv_area": "5,929313283", "datos_PS2026_csv_REGION": "ATACAMA" }, "geometry": { "type": "MultiPolygon", "coordinates": [ [ [ [ -70.25614715625035, -27.497353654179157, 0.0 ], [ -70.254638083377571, -27.497309338435517, 0.0 ], [ -70.25464420985486, -27.497128901690715, 0.0 ], [ -70.253531417691576, -27.497096212620555, 0.0 ], [ -70.252886523416493, -27.498241335623245, 0.0 ], [ -70.25228052635417, -27.498222137622573, 0.0 ], [ -70.252252979957902, -27.499124322318082, 0.0 ], [ -70.252868075479455, -27.499143015267993, 0.0 ], [ -70.252862238764195, -27.499244551117872, 0.0 ], [ -70.253428995430198, -27.499258985642289, 0.0 ], [ -70.253436112206543, -27.498988416416026, 0.0 ], [ -70.254558711897218, -27.498650739669401, 0.0 ], [ -70.256100607495966, -27.49870085091295, 0.0 ], [ -70.256147156256105, -27.497353654179289, 0.0 ], [ -70.25614715625035, -27.497353654179157, 0.0 ] ] ] ] } },
{ "type": "Feature", "properties": { "Nom_Layer": "7000-58", "HV2": "https://pucobre.sharepoint.com/:f:/s/PropiedadSuperficial/EhEFaGk7iHlNj3wGyGqoWFIBzoDRyAzoNiA7JguPbH1PXA?e=ux2Kfd", "datos_PS2026_csv_FID": "12", "datos_PS2026_csv_PROPIET": "SOC. PUNTA DEL COBRE S.A.", "datos_PS2026_csv_INMUEBLE": "PUNTA DEL COBRE", "datos_PS2026_csv_INSCRIP": "FJ. 3891 N 2644 AÑO 1994", "datos_PS2026_csv_Nom_Layer": null, "datos_PS2026_csv_SECTOR": "MINA RAMPA", "datos_PS2026_csv_SUPERF": "2,154887", "datos_PS2026_csv_DESTINO": "CHANCADOR PRIMARIO MINA", "datos_PS2026_csv_TIPO": "CON CERCO O CIERRE", "datos_PS2026_csv_UNIDAD": "MPC", "datos_PS2026_csv_HV2": "https://pucobre.sharepoint.com/:f:/s/PropiedadSuperficial/EhEFaGk7iHlNj3wGyGqoWFIBzoDRyAzoNiA7JguPbH1PXA?e=ux2Kfd", "datos_PS2026_csv_area": "2,154887382", "datos_PS2026_csv_REGION": "ATACAMA" }, "geometry": { "type": "MultiPolygon", "coordinates": [ [ [ [ -70.254558711897218, -27.498650739669401, 0.0 ], [ -70.253436112206543, -27.498988416416026, 0.0 ], [ -70.253410004279289, -27.499980999531243, 0.0 ], [ -70.25599044133233, -27.50003491665781, 0.0 ], [ -70.256002285145996, -27.499583741140995, 0.0 ], [ -70.254535002223065, -27.499553091028318, 0.0 ], [ -70.254558711897218, -27.498650739669401, 0.0 ] ] ] ] } },
{ "type": "Feature", "properties": { "Nom_Layer": "23-55", "HV2": "https://pucobre.sharepoint.com/:f:/s/PropiedadSuperficial/EuqHpD8Lk6VAtJeCKbQidTIBghFRTETu8WikWccOD1XhVg?e=0yKl6h", "datos_PS2026_csv_FID": "13", "datos_PS2026_csv_PROPIET": "SOC. PUNTA DEL COBRE S.A.", "datos_PS2026_csv_INMUEBLE": "LOTE 1 CANCHA SAN JOSE", "datos_PS2026_csv_INSCRIP": "FJ. 364 VTA. N 309 AÑO 1997", "datos_PS2026_csv_Nom_Layer": null, "datos_PS2026_csv_SECTOR": "FUNDO BELLAVISTA", "datos_PS2026_csv_SUPERF": "1,679059", "datos_PS2026_csv_DESTINO": "CANCHA DEPORTIVA", "datos_PS2026_csv_TIPO": "CON CERCO O CIERRE", "datos_PS2026_csv_UNIDAD": "PSJ", "datos_PS2026_csv_HV2": "https://pucobre.sharepoint.com/:f:/s/PropiedadSuperficial/EuqHpD8Lk6VAtJeCKbQidTIBghFRTETu8WikWccOD1XhVg?e=0yKl6h", "datos_PS2026_csv_area": "1,86662981", "datos_PS2026_csv_REGION": "ATACAMA" }, "geometry": { "type": "MultiPolygon", "coordinates": [ [ [ [ -70.275651155084589, -27.48647018731052, 0.0 ], [ -70.275507485470627, -27.486096573683426, 0.0 ], [ -70.275461110427131, -27.485970409169013, 0.0 ], [ -70.275393980524584, -27.485756475393373, 0.0 ], [ -70.275299589976669, -27.485312120910756, 0.0 ], [ -70.273990747696416, -27.485330289939544, 0.0 ], [ -70.274271704829204, -27.486487079027654, 0.0 ], [ -70.275651155084589, -27.48647018731052, 0.0 ] ] ] ] } },
{ "type": "Feature", "properties": { "Nom_Layer": "24-108", "HV2": "https://pucobre.sharepoint.com/:f:/s/PropiedadSuperficial/EigsIMsQje9AjurozTdKmS4BA8u9I3mmb4MXQmsCLyqMdg?e=v8kfIL", "datos_PS2026_csv_FID": "14", "datos_PS2026_csv_PROPIET": "SOC. PUNTA DEL COBRE S.A.", "datos_PS2026_csv_INMUEBLE": "LOTE F-1  FUNDO MORALES", "datos_PS2026_csv_INSCRIP": "FJ. 6552 N 2008 AÑO 2006", "datos_PS2026_csv_Nom_Layer": null, "datos_PS2026_csv_SECTOR": "TIERRA AMARILLA", "datos_PS2026_csv_SUPERF": "1,584714", "datos_PS2026_csv_DESTINO": "APOYO SAN JOSE", "datos_PS2026_csv_TIPO": "CON CERCO O CIERRE", "datos_PS2026_csv_UNIDAD": "PSJ", "datos_PS2026_csv_HV2": "https://pucobre.sharepoint.com/:f:/s/PropiedadSuperficial/EigsIMsQje9AjurozTdKmS4BA8u9I3mmb4MXQmsCLyqMdg?e=v8kfIL", "datos_PS2026_csv_area": "1,584713651", "datos_PS2026_csv_REGION": "ATACAMA" }, "geometry": { "type": "MultiPolygon", "coordinates": [ [ [ [ -70.275054453548506, -27.490331149873619, 0.0 ], [ -70.275465766822009, -27.489902834193224, 0.0 ], [ -70.275545918793611, -27.489740886433072, 0.0 ], [ -70.275609015567099, -27.489495336934663, 0.0 ], [ -70.273495561953723, -27.489251599953324, 0.0 ], [ -70.273406962605804, -27.489987496554519, 0.0 ], [ -70.274677251110106, -27.489954746757544, 0.0 ], [ -70.274680350124328, -27.490291448283802, 0.0 ], [ -70.275054453548478, -27.490331149873615, 0.0 ], [ -70.275054453548506, -27.490331149873619, 0.0 ] ] ] ] } },
{ "type": "Feature", "properties": { "Nom_Layer": "7000-59", "HV2": "https://pucobre.sharepoint.com/:f:/s/PropiedadSuperficial/EnrHIS0wVR5BiUQiAV_ma1oBU7Antq84Vg2JPvHGAhK3ww?e=zFrtPl", "datos_PS2026_csv_FID": "15", "datos_PS2026_csv_PROPIET": "SOC. PUNTA DEL COBRE S.A.", "datos_PS2026_csv_INMUEBLE": "TERRENO TRINIDAD", "datos_PS2026_csv_INSCRIP": "FJ. 5 VTA. N 5 AÑO 1993", "datos_PS2026_csv_Nom_Layer": null, "datos_PS2026_csv_SECTOR": "MINA TRINIDAD", "datos_PS2026_csv_SUPERF": "64,441973", "datos_PS2026_csv_DESTINO": "INSTALACIONES MINA", "datos_PS2026_csv_TIPO": "SIN CERCO O CIERRE", "datos_PS2026_csv_UNIDAD": "MPC", "datos_PS2026_csv_HV2": "https://pucobre.sharepoint.com/:f:/s/PropiedadSuperficial/EnrHIS0wVR5BiUQiAV_ma1oBU7Antq84Vg2JPvHGAhK3ww?e=zFrtPl", "datos_PS2026_csv_area": "64,44197326", "datos_PS2026_csv_REGION": "ATACAMA" }, "geometry": { "type": "MultiPolygon", "coordinates": [ [ [ [ -70.258765920430122, -27.492130632083157, 0.0 ], [ -70.258744398232295, -27.490238129391297, 0.0 ], [ -70.263663827583329, -27.486718377449471, 0.0 ], [ -70.26314751593624, -27.485820420884281, 0.0 ], [ -70.25505134429676, -27.485893655075788, 0.0 ], [ -70.255061576149501, -27.486796207386096, 0.0 ], [ -70.252936308716158, -27.486815354106092, 0.0 ], [ -70.253012932917144, -27.493584498059889, 0.0 ], [ -70.250988743039429, -27.493602708108828, 0.0 ], [ -70.251011188255291, -27.495588323906027, 0.0 ], [ -70.254191115488737, -27.495559701492397, 0.0 ], [ -70.254109984472365, -27.495391638296617, 0.0 ], [ -70.254106687653305, -27.49523469827794, 0.0 ], [ -70.253647832952339, -27.495022092630116, 0.0 ], [ -70.253635350807642, -27.49385394426989, 0.0 ], [ -70.255445757372399, -27.493837624312611, 0.0 ], [ -70.256154131317288, -27.493285387824614, 0.0 ], [ -70.25722965901879, -27.493125781372708, 0.0 ], [ -70.257746550724278, -27.492134495703635, 0.0 ], [ -70.258765926981681, -27.492130632023901, 0.0 ], [ -70.258765920430122, -27.492130632083157, 0.0 ] ] ] ] } },
{ "type": "Feature", "properties": { "Nom_Layer": "24-7", "HV2": "https://pucobre.sharepoint.com/:f:/s/PropiedadSuperficial/EndW9DAIRjdCpw77zAjiDjcBx1nEWE47By3RgAy4CDQB5Q?e=m35IVv", "datos_PS2026_csv_FID": "16", "datos_PS2026_csv_PROPIET": "SOC. PUNTA DEL COBRE S.A.", "datos_PS2026_csv_INMUEBLE": "LOTE A PJE. LAS FLORES", "datos_PS2026_csv_INSCRIP": "FJ. 1459 VTA. N 1435 AÑO 2007", "datos_PS2026_csv_Nom_Layer": null, "datos_PS2026_csv_SECTOR": "TIERRA AMARILLA", "datos_PS2026_csv_SUPERF": "1,611204", "datos_PS2026_csv_DESTINO": "APOYO SAN JOSE-MPC", "datos_PS2026_csv_TIPO": "CON CERCO O CIERRE", "datos_PS2026_csv_UNIDAD": "PSJ", "datos_PS2026_csv_HV2": "https://pucobre.sharepoint.com/:f:/s/PropiedadSuperficial/EndW9DAIRjdCpw77zAjiDjcBx1nEWE47By3RgAy4CDQB5Q?e=m35IVv", "datos_PS2026_csv_area": "1,531531818", "datos_PS2026_csv_REGION": "ATACAMA" }, "geometry": { "type": "MultiPolygon", "coordinates": [ [ [ [ -70.271258607953968, -27.490536749262002, 0.000000000000114 ], [ -70.271247343774192, -27.490717010604158, 0.000000000000114 ], [ -70.273189001707991, -27.490702464424015, 0.000000000000114 ], [ -70.27325417317806, -27.490273135857379, 0.000000000000114 ], [ -70.268748557098604, -27.490291926168826, 0.000000000000114 ], [ -70.268797437444064, -27.490532779922557, 0.000000000000114 ], [ -70.270316528939091, -27.490540014654059, 0.000000000000114 ], [ -70.271258607953968, -27.490536749262002, 0.000000000000114 ] ] ] ] } },
{ "type": "Feature", "properties": { "Nom_Layer": "25-32", "HV2": "https://pucobre.sharepoint.com/:f:/s/PropiedadSuperficial/EriHLldUGw5Lp1H3AgOHCokBCynht0Ptnerj6nUszgYEPg?e=GBGXTK", "datos_PS2026_csv_FID": "17", "datos_PS2026_csv_PROPIET": "SOC. PUNTA DEL COBRE S.A.", "datos_PS2026_csv_INMUEBLE": "POZO MPC N 1", "datos_PS2026_csv_INSCRIP": "FJ. 6653 N 2788 AÑO 1990", "datos_PS2026_csv_Nom_Layer": null, "datos_PS2026_csv_SECTOR": "IGNACIO C. PINTO N 254", "datos_PS2026_csv_SUPERF": "0,026349", "datos_PS2026_csv_DESTINO": "PROTEGER POZO MPC", "datos_PS2026_csv_TIPO": "CON CERCO O CIERRE", "datos_PS2026_csv_UNIDAD": "MPC", "datos_PS2026_csv_HV2": "https://pucobre.sharepoint.com/:f:/s/PropiedadSuperficial/EriHLldUGw5Lp1H3AgOHCokBCynht0Ptnerj6nUszgYEPg?e=GBGXTK", "datos_PS2026_csv_area": "0,02634854", "datos_PS2026_csv_REGION": "ATACAMA" }, "geometry": { "type": "MultiPolygon", "coordinates": [ [ [ [ -70.266375909231243, -27.499268698463975, 0.0 ], [ -70.266270102252889, -27.499266321581189, 0.0 ], [ -70.266270794483148, -27.499494863906293, 0.0 ], [ -70.266374899630463, -27.499498881024387, 0.0 ], [ -70.266375909231243, -27.499268698463975, 0.0 ] ] ] ] } },
{ "type": "Feature", "properties": { "Nom_Layer": "29-7", "HV2": "https://pucobre.sharepoint.com/:f:/s/PropiedadSuperficial/ElfLuULOcOJCudlVnack65UBBLxqDzyQ6hQI3OWhJX0sFA?e=ecWxRn", "datos_PS2026_csv_FID": "18", "datos_PS2026_csv_PROPIET": "SOC. PUNTA DEL COBRE S.A.", "datos_PS2026_csv_INMUEBLE": "P. AGUIRRE CERDA LOTE A1-B", "datos_PS2026_csv_INSCRIP": "FS. 1481 Nº 1458 AÑO 2007", "datos_PS2026_csv_Nom_Layer": null, "datos_PS2026_csv_SECTOR": "T.AMARILLA", "datos_PS2026_csv_SUPERF": "6,928945", "datos_PS2026_csv_DESTINO": "AMPARAR INSTALACIONES DE OPERACIONES MINA", "datos_PS2026_csv_TIPO": "SIN CERCO O CIERRE", "datos_PS2026_csv_UNIDAD": "MPC", "datos_PS2026_csv_HV2": "https://pucobre.sharepoint.com/:f:/s/PropiedadSuperficial/ElfLuULOcOJCudlVnack65UBBLxqDzyQ6hQI3OWhJX0sFA?e=ecWxRn", "datos_PS2026_csv_area": "6,928945026", "datos_PS2026_csv_REGION": "ATACAMA" }, "geometry": { "type": "MultiPolygon", "coordinates": [ [ [ [ -70.256002326041724, -27.499583776877557, 0.0 ], [ -70.256028138397767, -27.49956140660796, 0.0 ], [ -70.257284678197323, -27.499595651270937, 0.0 ], [ -70.257307699287495, -27.498847227014622, 0.0 ], [ -70.259076689405674, -27.498894279620231, 0.0 ], [ -70.259006012223296, -27.498106773258346, 0.0 ], [ -70.258870094379432, -27.498141769146095, 0.0 ], [ -70.25846834041829, -27.498178898074549, 0.0 ], [ -70.257707567694396, -27.49820695562266, 0.0 ], [ -70.257654862982022, -27.498144210137962, 0.0 ], [ -70.257700559863054, -27.497097273258355, 0.0 ], [ -70.257623636328248, -27.497097787940039, 0.0 ], [ -70.257588408743544, -27.496919473304629, 0.0 ], [ -70.257525643001387, -27.496758467456182, 0.0 ], [ -70.257467433867177, -27.496677755606651, 0.0 ], [ -70.257378652552518, -27.496623496610951, 0.0 ], [ -70.25740118480465, -27.496530862392937, 0.0 ], [ -70.257119531498589, -27.496508403828745, 0.0 ], [ -70.257062357124525, -27.496545477347613, 0.0 ], [ -70.256796719473058, -27.496578476260353, 0.0 ], [ -70.256677819069225, -27.496572303760761, 0.0 ], [ -70.256651571664975, -27.497332052374269, 0.0 ], [ -70.256145756480564, -27.497317202161462, 0.0 ], [ -70.256099207705773, -27.498664398901777, 0.0 ], [ -70.254561247723061, -27.498624874253224, 0.0 ], [ -70.25452685674702, -27.499526952137163, 0.0 ], [ -70.256002326041724, -27.499583776877557, 0.0 ] ] ] ] } },
{ "type": "Feature", "properties": { "Nom_Layer": "7000-132", "HV2": "https://pucobre.sharepoint.com/:f:/s/PropiedadSuperficial/Ep9oifRNBHtPq6PCxPdT0A8BjdMCKIq3v7Zv1bJjIYvLCA?e=QbgxpW", "datos_PS2026_csv_FID": "19", "datos_PS2026_csv_PROPIET": "SOC. PUNTA DEL COBRE S.A.", "datos_PS2026_csv_INMUEBLE": "TERRENO MINA PTA DEL COBRE", "datos_PS2026_csv_INSCRIP": "FS. 1098 VTA. Nº 873 AÑO 2008", "datos_PS2026_csv_Nom_Layer": null, "datos_PS2026_csv_SECTOR": "T.AMARILLA", "datos_PS2026_csv_SUPERF": "3,904413", "datos_PS2026_csv_DESTINO": "AMPARAR INSTALACIONES DE ACCESO A MINA PC", "datos_PS2026_csv_TIPO": "SIN CERCO O CIERRE", "datos_PS2026_csv_UNIDAD": "MPC", "datos_PS2026_csv_HV2": "https://pucobre.sharepoint.com/:f:/s/PropiedadSuperficial/Ep9oifRNBHtPq6PCxPdT0A8BjdMCKIq3v7Zv1bJjIYvLCA?e=QbgxpW", "datos_PS2026_csv_area": "3,904412872", "datos_PS2026_csv_REGION": "ATACAMA" }, "geometry": { "type": "MultiPolygon", "coordinates": [ [ [ [ -70.258705970184891, -27.498899661856321, 0.0 ], [ -70.257307544806636, -27.498851973858084, 0.0 ], [ -70.257284687682841, -27.499595651185217, 0.0 ], [ -70.2560022946315, -27.499583741055371, 0.0 ], [ -70.255976519363429, -27.500022417999332, 0.0 ], [ -70.255959067889791, -27.501230406969132, 0.0 ], [ -70.257067971049224, -27.501220393207145, 0.0 ], [ -70.258705970184891, -27.498899661856321, 0.0 ] ] ] ] } },
{ "type": "Feature", "properties": { "Nom_Layer": "7000-64", "HV2": "https://pucobre.sharepoint.com/:f:/s/PropiedadSuperficial/Es1WrkzHDLlIvP3OX7oE9wsBhmVXqZg1MprIcz2f3KCPWw?e=AEaczu", "datos_PS2026_csv_FID": "20", "datos_PS2026_csv_PROPIET": "SOC. PUNTA DEL COBRE S.A.", "datos_PS2026_csv_INMUEBLE": "SIERRA EL BUITRE III-2-443-CR", "datos_PS2026_csv_INSCRIP": "FS. 346 Nº 304 AÑO 1997", "datos_PS2026_csv_Nom_Layer": null, "datos_PS2026_csv_SECTOR": "T.AMARILLA", "datos_PS2026_csv_SUPERF": "19,257791", "datos_PS2026_csv_DESTINO": "AMPARAR INSTALACIONES PLANTA SAN JOSE Y TRANQUE", "datos_PS2026_csv_TIPO": "CON CERCO O CIERRE", "datos_PS2026_csv_UNIDAD": "PSJ", "datos_PS2026_csv_HV2": "https://pucobre.sharepoint.com/:f:/s/PropiedadSuperficial/Es1WrkzHDLlIvP3OX7oE9wsBhmVXqZg1MprIcz2f3KCPWw?e=AEaczu", "datos_PS2026_csv_area": "19,25779104", "datos_PS2026_csv_REGION": "ATACAMA" }, "geometry": { "type": "MultiPolygon", "coordinates": [ [ [ [ -70.286153208409246, -27.483123450853967, 0.0 ], [ -70.28550018687163, -27.483045679713658, 0.0 ], [ -70.282472005905205, -27.482684998935508, 0.0 ], [ -70.279678513190575, -27.482355346400514, 0.0 ], [ -70.276123321108258, -27.481929931314909, 0.0 ], [ -70.27589110463795, -27.483520369444896, 0.0 ], [ -70.27890378227373, -27.483853214275541, 0.0 ], [ -70.278886478751616, -27.484074808573002, 0.0 ], [ -70.283824487268276, -27.484662987682601, 0.0 ], [ -70.285921719172052, -27.484904283542317, 0.0 ], [ -70.286153208409246, -27.483123450853967, 0.0 ] ] ] ] } },
{ "type": "Feature", "properties": { "Nom_Layer": "7000-9", "HV2": "https://pucobre.sharepoint.com/:f:/s/PropiedadSuperficial/EgAgOdjR5MBHhfmprjIpVqgBlX1DA6oZ9yqtdPg-vcB6ow?e=JmrPF0", "datos_PS2026_csv_FID": "21", "datos_PS2026_csv_PROPIET": "SOC. PUNTA DEL COBRE S.A.", "datos_PS2026_csv_INMUEBLE": "LOTE D,  QDA. EL BUITRE", "datos_PS2026_csv_INSCRIP": "FS. 361 Nº 308 AÑO 1997", "datos_PS2026_csv_Nom_Layer": null, "datos_PS2026_csv_SECTOR": "T.AMARILLA", "datos_PS2026_csv_SUPERF": "4,209562", "datos_PS2026_csv_DESTINO": "AMPARAR INSTALACIONES PLANTA SAN JOSE Y TRANQUE", "datos_PS2026_csv_TIPO": "CON CERCO O CIERRE", "datos_PS2026_csv_UNIDAD": "PSJ", "datos_PS2026_csv_HV2": "https://pucobre.sharepoint.com/:f:/s/PropiedadSuperficial/EgAgOdjR5MBHhfmprjIpVqgBlX1DA6oZ9yqtdPg-vcB6ow?e=JmrPF0", "datos_PS2026_csv_area": "4,209561938", "datos_PS2026_csv_REGION": "ATACAMA" }, "geometry": { "type": "MultiPolygon", "coordinates": [ [ [ [ -70.284696103748445, -27.484763275022075, 0.0 ], [ -70.284534200561339, -27.484744647028528, 0.0 ], [ -70.284364852547682, -27.484799991846636, 0.0 ], [ -70.284148845905165, -27.484866490350626, 0.0 ], [ -70.283962547690194, -27.484934303740335, 0.0 ], [ -70.283578260519704, -27.485053511232405, 0.0 ], [ -70.28337246531396, -27.485107306996674, 0.0 ], [ -70.283180538652886, -27.48515577287451, 0.0 ], [ -70.282726376961861, -27.485250857211216, 0.0 ], [ -70.282501573674708, -27.485299043721355, 0.0 ], [ -70.282372894031667, -27.48530689136847, 0.0 ], [ -70.282235943323215, -27.485315243302555, 0.0 ], [ -70.282133278484338, -27.485319049189563, 0.0 ], [ -70.28182367263561, -27.485262175925211, 0.0 ], [ -70.281500446982605, -27.485182396962028, 0.0 ], [ -70.281352380603352, -27.485133283885855, 0.0 ], [ -70.281008285777034, -27.48501737923668, 0.0 ], [ -70.28051340264787, -27.484845476810374, 0.0 ], [ -70.280093959535918, -27.484691625226279, 0.0 ], [ -70.279686155399858, -27.484545627257457, 0.0 ], [ -70.27918245633083, -27.484367194100976, 0.0 ], [ -70.278987326691094, -27.484296141623545, 0.0 ], [ -70.278432813798489, -27.484067366229738, 0.0 ], [ -70.278392881531786, -27.484142885063378, 0.0 ], [ -70.278971843877784, -27.484498785198564, 0.0 ], [ -70.279587562607333, -27.484818860280654, 0.0 ], [ -70.280023957898607, -27.485013164743133, 0.0 ], [ -70.280348641849088, -27.485203689378267, 0.0 ], [ -70.280637989111796, -27.48546622218911, 0.0 ], [ -70.280906537953314, -27.485833213352336, 0.0 ], [ -70.281032269558651, -27.48607638090877, 0.0 ], [ -70.281162129566667, -27.486594524295423, 0.0 ], [ -70.28199241382147, -27.486586879672416, 0.0 ], [ -70.28222558501227, -27.486360687756122, 0.0 ], [ -70.282367938733202, -27.486218293458439, 0.0 ], [ -70.282507784632173, -27.486116905689542, 0.0 ], [ -70.282773897944296, -27.485923973619574, 0.0 ], [ -70.282854059525405, -27.485865856270358, 0.0 ], [ -70.282996943912423, -27.485691607935163, 0.0 ], [ -70.283206741050392, -27.485595626133954, 0.0 ], [ -70.283827922013202, -27.48538423503738, 0.0 ], [ -70.284324401478344, -27.485172425637803, 0.0 ], [ -70.284530281468534, -27.485117783526686, 0.0 ], [ -70.284697300426089, -27.485095537038987, 0.0 ], [ -70.284696103748445, -27.484763275022075, 0.0 ] ] ] ] } },
{ "type": "Feature", "properties": { "Nom_Layer": "7000-7", "HV2": "https://pucobre.sharepoint.com/:f:/s/PropiedadSuperficial/Eu301kORS6xJoVC-DLweCw0BgKsHVn1p7D_x3yAT62Bs2Q?e=YmwbYa", "datos_PS2026_csv_FID": "22", "datos_PS2026_csv_PROPIET": "SOC. PUNTA DEL COBRE S.A.", "datos_PS2026_csv_INMUEBLE": "LOTE B,  QDA. EL BUITRE III-2-2510-CR", "datos_PS2026_csv_INSCRIP": "FS. 349 VTA. Nº 305 AÑO 1997", "datos_PS2026_csv_Nom_Layer": null, "datos_PS2026_csv_SECTOR": "T.AMARILLA", "datos_PS2026_csv_SUPERF": "32,140515", "datos_PS2026_csv_DESTINO": "AMPARAR INSTALACIONES PLANTA SAN JOSE Y TRANQUE", "datos_PS2026_csv_TIPO": "CON CERCO O CIERRE", "datos_PS2026_csv_UNIDAD": "PSJ", "datos_PS2026_csv_HV2": "https://pucobre.sharepoint.com/:f:/s/PropiedadSuperficial/Eu301kORS6xJoVC-DLweCw0BgKsHVn1p7D_x3yAT62Bs2Q?e=YmwbYa", "datos_PS2026_csv_area": "32,14051538", "datos_PS2026_csv_REGION": "ATACAMA" }, "geometry": { "type": "MultiPolygon", "coordinates": [ [ [ [ -70.276123321108258, -27.481929931314909, 0.0 ], [ -70.279678513190575, -27.482355346400514, 0.0 ], [ -70.282472005905205, -27.482684998935508, 0.0 ], [ -70.28550018687163, -27.483045679713658, 0.0 ], [ -70.286153208409246, -27.483123450853967, 0.0 ], [ -70.286057567463104, -27.483859216742324, 0.0 ], [ -70.286201482220577, -27.483857430513918, 0.0 ], [ -70.286294706273324, -27.483674442560893, 0.0 ], [ -70.286371475994542, -27.483572542341754, 0.0 ], [ -70.286488323144141, -27.483460280426346, 0.0 ], [ -70.286705175709386, -27.48331760431509, 0.0 ], [ -70.286953496594137, -27.483200980271981, 0.0 ], [ -70.287380095554582, -27.482988119182213, 0.0 ], [ -70.287627662406251, -27.482853454662902, 0.0 ], [ -70.287954254034815, -27.482671006629413, 0.0 ], [ -70.288290205255549, -27.482470182924473, 0.0 ], [ -70.28850592447084, -27.482300445169813, 0.0 ], [ -70.288927623994567, -27.481970324038269, 0.0 ], [ -70.288929810924813, -27.481968306965626, 0.0 ], [ -70.289149975286819, -27.48178995066862, 0.0 ], [ -70.289337627177972, -27.481540439470535, 0.0 ], [ -70.289452872589109, -27.481361890431533, 0.0 ], [ -70.289517328990286, -27.481191486173365, 0.0 ], [ -70.289571075377808, -27.48104797857382, 0.0 ], [ -70.289647424289143, -27.48079653248158, 0.0 ], [ -70.289713457471265, -27.480553934681033, 0.0 ], [ -70.289895916822161, -27.480078642386204, 0.0 ], [ -70.290036522067624, -27.479665815835638, 0.0 ], [ -70.290131922513666, -27.479468866260738, 0.0 ], [ -70.290214683494298, -27.479302687913453, 0.0 ], [ -70.289989237675471, -27.479272662987832, 0.0 ], [ -70.2895970249279, -27.479171664573954, 0.0 ], [ -70.289569861568324, -27.479254110946592, 0.0 ], [ -70.289554699648448, -27.479353483230721, 0.0 ], [ -70.289544239368922, -27.479482660714865, 0.0 ], [ -70.289535086031108, -27.479710668929179, 0.0 ], [ -70.289514826991478, -27.479907576436979, 0.0 ], [ -70.289480396364056, -27.480173084741207, 0.0 ], [ -70.289428556668327, -27.480383121285119, 0.0 ], [ -70.289350300177958, -27.480691961854308, 0.0 ], [ -70.289207438841146, -27.481062279905156, 0.0 ], [ -70.2891828668199, -27.481096729439614, 0.0 ], [ -70.288992499763751, -27.481344242020025, 0.0 ], [ -70.288768490000635, -27.481574470221005, 0.0 ], [ -70.288538433605396, -27.481776325776437, 0.0 ], [ -70.288451824267852, -27.481865062572005, 0.0 ], [ -70.288305148330721, -27.482011078688227, 0.0 ], [ -70.288107487634164, -27.482150061792037, 0.0 ], [ -70.288199186141298, -27.48187759822553, 0.0 ], [ -70.288300741411675, -27.481569394838658, 0.0 ], [ -70.288391119379412, -27.481106656216721, 0.0 ], [ -70.288368399584073, -27.480867276667063, 0.0 ], [ -70.288301277439572, -27.48063354964356, 0.0 ], [ -70.288209043533726, -27.480543568398009, 0.0 ], [ -70.288111724443553, -27.480477538041011, 0.0 ], [ -70.288079599862755, -27.480482616046299, 0.0 ], [ -70.288037026561682, -27.48051169462169, 0.0 ], [ -70.287979085937167, -27.480603065465605, 0.0 ], [ -70.287937402084069, -27.48070862818447, 0.0 ], [ -70.287898728065585, -27.480880422183443, 0.0 ], [ -70.287808954282312, -27.481228329113623, 0.0 ], [ -70.287794674567422, -27.481327945892904, 0.0 ], [ -70.287748078005635, -27.481556073454072, 0.0 ], [ -70.28750208162505, -27.482246447030217, 0.0 ], [ -70.287399054711997, -27.482433833618888, 0.0 ], [ -70.283222160750441, -27.481326205996968, 0.0 ], [ -70.283460372857519, -27.479668165184528, 0.0 ], [ -70.276559135038454, -27.478883103558505, 0.0 ], [ -70.276123321108258, -27.481929931314909, 0.0 ] ] ] ] } },
{ "type": "Feature", "properties": { "Nom_Layer": "7000-8", "HV2": "https://pucobre.sharepoint.com/:f:/s/PropiedadSuperficial/EoAg32OQ5iRKi52thpnKP-MBBzQfCIsnkQr_5_XOkHuYTA?e=4NNgRX", "datos_PS2026_csv_FID": "23", "datos_PS2026_csv_PROPIET": "SOC. PUNTA DEL COBRE S.A.", "datos_PS2026_csv_INMUEBLE": "LOTE C,  QDA. EL BUITRE III-2-2510-CR", "datos_PS2026_csv_INSCRIP": "FS. 357 Nº 307 AÑO 1997\n", "datos_PS2026_csv_Nom_Layer": null, "datos_PS2026_csv_SECTOR": "T.AMARILLA", "datos_PS2026_csv_SUPERF": "3,525596", "datos_PS2026_csv_DESTINO": "AMPARAR INSTALACIONES PLANTA SAN JOSE Y TRANQUE", "datos_PS2026_csv_TIPO": "CON CERCO O CIERRE", "datos_PS2026_csv_UNIDAD": "PSJ", "datos_PS2026_csv_HV2": "https://pucobre.sharepoint.com/:f:/s/PropiedadSuperficial/EoAg32OQ5iRKi52thpnKP-MBBzQfCIsnkQr_5_XOkHuYTA?e=4NNgRX", "datos_PS2026_csv_area": "3,525595723", "datos_PS2026_csv_REGION": "ATACAMA" }, "geometry": { "type": "MultiPolygon", "coordinates": [ [ [ [ -70.278432813798489, -27.484067366229738, 0.0 ], [ -70.278987326691094, -27.484296141623545, 0.0 ], [ -70.27918245633083, -27.484367194100976, 0.0 ], [ -70.279686155399858, -27.484545627257457, 0.0 ], [ -70.280093959535918, -27.484691625226279, 0.0 ], [ -70.28051340264787, -27.484845476810374, 0.0 ], [ -70.281008285777034, -27.48501737923668, 0.0 ], [ -70.281352380603352, -27.485133283885855, 0.0 ], [ -70.281500446982605, -27.485182396962028, 0.0 ], [ -70.28182367263561, -27.485262175925211, 0.0 ], [ -70.282133278484338, -27.485319049189563, 0.0 ], [ -70.282235943323215, -27.485315243302555, 0.0 ], [ -70.282372894031667, -27.48530689136847, 0.0 ], [ -70.282501573674708, -27.485299043721355, 0.0 ], [ -70.282726376961861, -27.485250857211216, 0.0 ], [ -70.283180538652886, -27.48515577287451, 0.0 ], [ -70.28337246531396, -27.485107306996674, 0.0 ], [ -70.283578260519704, -27.485053511232405, 0.0 ], [ -70.283962547690194, -27.484934303740335, 0.0 ], [ -70.284148845905165, -27.484866490350626, 0.0 ], [ -70.284364852547682, -27.484799991846636, 0.0 ], [ -70.284534200561339, -27.484744647028528, 0.0 ], [ -70.278886478751616, -27.484074808573002, 0.0 ], [ -70.27890378227373, -27.483853214275541, 0.0 ], [ -70.277717803105205, -27.483722193703013, 0.0 ], [ -70.278305774732587, -27.483953484350682, 0.0 ], [ -70.278459265772867, -27.484014014257831, 0.0 ], [ -70.278432813798489, -27.484067366229738, 0.0 ] ] ] ] } },
{ "type": "Feature", "properties": { "Nom_Layer": "7000-6", "HV2": "https://pucobre.sharepoint.com/:f:/s/PropiedadSuperficial/Ep0WED7mLNZMlxmyDXlUxwMBxDPO9IuXYN9NQRCPl06IwA?e=FdWFJi", "datos_PS2026_csv_FID": "24", "datos_PS2026_csv_PROPIET": "SOC. PUNTA DEL COBRE S.A.", "datos_PS2026_csv_INMUEBLE": "LOTE A, QDA. EL BUITRE\n", "datos_PS2026_csv_INSCRIP": "FS. 353 VTA. Nº 306 AÑO 1997", "datos_PS2026_csv_Nom_Layer": null, "datos_PS2026_csv_SECTOR": "T.AMARILLA", "datos_PS2026_csv_SUPERF": "5,076145", "datos_PS2026_csv_DESTINO": "AMPARAR INSTALACIONES PLANTA SAN JOSE Y TRANQUE", "datos_PS2026_csv_TIPO": "CON CERCO O CIERRE", "datos_PS2026_csv_UNIDAD": "PSJ", "datos_PS2026_csv_HV2": "https://pucobre.sharepoint.com/:f:/s/PropiedadSuperficial/Ep0WED7mLNZMlxmyDXlUxwMBxDPO9IuXYN9NQRCPl06IwA?e=FdWFJi", "datos_PS2026_csv_area": "5,076145392", "datos_PS2026_csv_REGION": "ATACAMA" }, "geometry": { "type": "MultiPolygon", "coordinates": [ [ [ [ -70.290277124700367, -27.479308892446184, 0.0 ], [ -70.290182118913691, -27.47948779374499, 0.0 ], [ -70.290096639555443, -27.479693943361976, 0.0 ], [ -70.289946113466513, -27.480097569945801, 0.0 ], [ -70.289764048641985, -27.480554813933814, 0.0 ], [ -70.289631785055136, -27.481049033727704, 0.0 ], [ -70.289587959858551, -27.481201741389832, 0.0 ], [ -70.289450111903534, -27.481488228978019, 0.0 ], [ -70.289335457967894, -27.481639705470904, 0.0 ], [ -70.28902720120584, -27.481967968706705, 0.0 ], [ -70.288880821252135, -27.482062198914832, 0.0 ], [ -70.2885381461424, -27.482344536508108, 0.0 ], [ -70.288371111936755, -27.482467497880805, 0.0 ], [ -70.287975985946403, -27.482706414046405, 0.0 ], [ -70.287708569399896, -27.482850769994357, 0.0 ], [ -70.287381224315908, -27.483015178160212, 0.0 ], [ -70.28696511489018, -27.483236723384099, 0.0 ], [ -70.286756495231685, -27.483333966054911, 0.0 ], [ -70.286618669232226, -27.483428859877822, 0.0 ], [ -70.286481971547047, -27.483550812561678, 0.0 ], [ -70.28637486157885, -27.483653719317978, 0.0 ], [ -70.28629846797871, -27.48376463920388, 0.0 ], [ -70.286263272482287, -27.483846771332544, 0.0 ], [ -70.286261623645174, -27.483856557371336, 0.0 ], [ -70.287763509018504, -27.483834744337507, 0.0 ], [ -70.287798071377864, -27.483645909320451, 0.0 ], [ -70.287815218710264, -27.483430624208026, 0.0 ], [ -70.288063819242595, -27.483360104788311, 0.0 ], [ -70.288267205168481, -27.483244252013435, 0.0 ], [ -70.288413613756987, -27.483135584871242, 0.0 ], [ -70.288638588777545, -27.482887144430737, 0.0 ], [ -70.288939108904131, -27.482552133469518, 0.0 ], [ -70.289092878400766, -27.482356095557314, 0.0 ], [ -70.289228631702827, -27.482180539205974, 0.0 ], [ -70.289408231887805, -27.481979733967098, 0.0 ], [ -70.289526496963262, -27.481892054727464, 0.0 ], [ -70.289730511292902, -27.481801314705152, 0.0 ], [ -70.289793887967718, -27.48178739389051, 0.0 ], [ -70.290110791341107, -27.481710412520194, 0.0 ], [ -70.290333682571003, -27.481527243443303, 0.0 ], [ -70.290508734345323, -27.481311832571663, 0.0 ], [ -70.290783645834978, -27.481060722059482, 0.0 ], [ -70.291309468692589, -27.480581161193747, 0.0 ], [ -70.291424777468791, -27.480493768911618, 0.0 ], [ -70.291582186252228, -27.480376090125429, 0.0 ], [ -70.291615276517064, -27.480315098552392, 0.0 ], [ -70.291540339112075, -27.48025740257685, 0.0 ], [ -70.29143903616891, -27.48018149147757, 0.0 ], [ -70.291396249737218, -27.480121500909881, 0.0 ], [ -70.29131847922045, -27.480055842087637, 0.0 ], [ -70.291178929496198, -27.480174529435114, 0.0 ], [ -70.291110340942097, -27.480220507100945, 0.0 ], [ -70.291061541720623, -27.480255583304348, 0.0 ], [ -70.291007426076462, -27.480315195911505, 0.0 ], [ -70.29095825273636, -27.480321852604749, 0.0 ], [ -70.290893118280806, -27.480233146132978, 0.0 ], [ -70.29088935920052, -27.480172186338827, 0.0 ], [ -70.290950482972548, -27.479981036939805, 0.0 ], [ -70.291013991071779, -27.479702882943876, 0.0 ], [ -70.291109774898629, -27.479516196326809, 0.0 ], [ -70.290862786245896, -27.479466152189744, 0.0 ], [ -70.290777658206494, -27.479441215419634, 0.0 ], [ -70.290354706063027, -27.479321220968156, 0.0 ], [ -70.290292171471236, -27.479313007691321, 0.0 ], [ -70.290276077536049, -27.479310864319494, 0.0 ], [ -70.290277124700367, -27.479308892446184, 0.0 ] ] ] ] } },
{ "type": "Feature", "properties": { "Nom_Layer": "24-149", "HV2": "https://pucobre.sharepoint.com/:f:/s/PropiedadSuperficial/EiDF9K7ms9RNn4vfEF52ZjkB2doDeggnXWImiPwS76RfcQ?e=D3a5Zh", "datos_PS2026_csv_FID": "25", "datos_PS2026_csv_PROPIET": "SOC. PUNTA DEL COBRE S.A.", "datos_PS2026_csv_INMUEBLE": "PAÑO 2", "datos_PS2026_csv_INSCRIP": "FJ. 2463 N 2452 AÑO 2007", "datos_PS2026_csv_Nom_Layer": null, "datos_PS2026_csv_SECTOR": "PARCELA EL CASTILLO", "datos_PS2026_csv_SUPERF": "5,196804", "datos_PS2026_csv_DESTINO": "APOYO PLANTA SAN JOSE", "datos_PS2026_csv_TIPO": "CON CERCO O CIERRE", "datos_PS2026_csv_UNIDAD": "PSJ", "datos_PS2026_csv_HV2": "https://pucobre.sharepoint.com/:f:/s/PropiedadSuperficial/EiDF9K7ms9RNn4vfEF52ZjkB2doDeggnXWImiPwS76RfcQ?e=D3a5Zh", "datos_PS2026_csv_area": "5,196803633", "datos_PS2026_csv_REGION": "ATACAMA" }, "geometry": { "type": "MultiPolygon", "coordinates": [ [ [ [ -70.26869608174735, -27.492774682621697, 0.0 ], [ -70.267002150397673, -27.492776348971486, 0.0 ], [ -70.265545264393239, -27.492816683883643, 0.0 ], [ -70.265522026336058, -27.492997423525249, 0.0 ], [ -70.266108570483141, -27.49295146981521, 0.0 ], [ -70.266065670359566, -27.493006018583593, 0.0 ], [ -70.265994865098918, -27.493187191000757, 0.0 ], [ -70.265976378445998, -27.493340808225245, 0.0 ], [ -70.265992230818668, -27.493399335719001, 0.0 ], [ -70.266089979510454, -27.493538355917902, 0.0 ], [ -70.266167104781346, -27.49455457003199, 0.0 ], [ -70.268765253662664, -27.49453031141789, 0.0 ], [ -70.26869608174735, -27.492774682621697, 0.0 ] ] ] ] } },
{ "type": "Feature", "properties": { "Nom_Layer": "24-148", "HV2": "https://pucobre.sharepoint.com/:f:/s/PropiedadSuperficial/Emx2JHQ865ZEvqkTQhPTC_UBggzv380WMf27Gu12a-aAnw?e=mPbh4e", "datos_PS2026_csv_FID": "26", "datos_PS2026_csv_PROPIET": "SOC. PUNTA DEL COBRE S.A.", "datos_PS2026_csv_INMUEBLE": "PAÑO 1 B", "datos_PS2026_csv_INSCRIP": "FJ. 2461 VTA. N 2451 AÑO 2007", "datos_PS2026_csv_Nom_Layer": null, "datos_PS2026_csv_SECTOR": "PARCELA EL CASTILLO", "datos_PS2026_csv_SUPERF": "5,269975", "datos_PS2026_csv_DESTINO": "APOYO PLANTA SAN JOSE", "datos_PS2026_csv_TIPO": "CON CERCO O CIERRE", "datos_PS2026_csv_UNIDAD": "PSJ", "datos_PS2026_csv_HV2": "https://pucobre.sharepoint.com/:f:/s/PropiedadSuperficial/Emx2JHQ865ZEvqkTQhPTC_UBggzv380WMf27Gu12a-aAnw?e=mPbh4e", "datos_PS2026_csv_area": "5,269974673", "datos_PS2026_csv_REGION": "ATACAMA" }, "geometry": { "type": "MultiPolygon", "coordinates": [ [ [ [ -70.271874572674292, -27.492750734897012, 0.0 ], [ -70.269100920419106, -27.49277163238381, 0.0 ], [ -70.269170137010192, -27.494526096006702, 0.0 ], [ -70.271891179273055, -27.494500513787745, 0.0 ], [ -70.271874572674292, -27.492750734897012, 0.0 ] ] ] ] } },
{ "type": "Feature", "properties": { "Nom_Layer": "123-13", "HV2": "https://pucobre.sharepoint.com/:f:/s/PropiedadSuperficial/EvftXekRpmpJpPkZl3QdhXQB6r0TuETKTVcyCfpJo97p5Q?e=XpkTqD", "datos_PS2026_csv_FID": "27", "datos_PS2026_csv_PROPIET": "SOC. PUNTA DEL COBRE S.A.", "datos_PS2026_csv_INMUEBLE": "CHAÐARCILLO 131", "datos_PS2026_csv_INSCRIP": "FJ. 6014 N 3020 AÑO 2010", "datos_PS2026_csv_Nom_Layer": null, "datos_PS2026_csv_SECTOR": "OFICINAS COPIAPO", "datos_PS2026_csv_SUPERF": "0,04366", "datos_PS2026_csv_DESTINO": "OFICINAS COPIAPO", "datos_PS2026_csv_TIPO": "CON CERCO O CIERRE", "datos_PS2026_csv_UNIDAD": "OF. GENERALES", "datos_PS2026_csv_HV2": "https://pucobre.sharepoint.com/:f:/s/PropiedadSuperficial/EvftXekRpmpJpPkZl3QdhXQB6r0TuETKTVcyCfpJo97p5Q?e=XpkTqD", "datos_PS2026_csv_area": "0,04366048", "datos_PS2026_csv_REGION": "ATACAMA" }, "geometry": { "type": "MultiPolygon", "coordinates": [ [ [ [ -70.340388349677852, -27.364390657864959, 0.0 ], [ -70.340407823242828, -27.364377736518218, 0.0 ], [ -70.340381893390699, -27.364346585837751, 0.0 ], [ -70.340165421184011, -27.364230125609414, 0.0 ], [ -70.339911856000981, -27.364048259006012, 0.0 ], [ -70.339857103755122, -27.364084271085577, 0.0 ], [ -70.340148927436346, -27.364343466341698, 0.0 ], [ -70.340190992909143, -27.364305144725776, 0.0 ], [ -70.340266886404123, -27.364347350396748, 0.0 ], [ -70.340307899140115, -27.364320133433168, 0.0 ], [ -70.340388341565628, -27.364390650753634, 0.0 ], [ -70.340388349677852, -27.364390657864959, 0.0 ] ] ] ] } },
{ "type": "Feature", "properties": { "Nom_Layer": "123-12", "HV2": "https://pucobre.sharepoint.com/:f:/s/PropiedadSuperficial/EnLvthGH6ahJl3Zjvm7m7ycBhuGAKM_FW9PEa_F8cR3w1Q?e=x3rPbU", "datos_PS2026_csv_FID": "28", "datos_PS2026_csv_PROPIET": "SOC. PUNTA DEL COBRE S.A.", "datos_PS2026_csv_INMUEBLE": "CHAÑARCILLO 131-A", "datos_PS2026_csv_INSCRIP": "FS. 6291 Nº 2736 AÑO 2008", "datos_PS2026_csv_Nom_Layer": null, "datos_PS2026_csv_SECTOR": "COPIAPO", "datos_PS2026_csv_SUPERF": "0,023798", "datos_PS2026_csv_DESTINO": "AMPARAR INSTALACIONES DE OFICINAS Y AREAS DEPORTIVAS", "datos_PS2026_csv_TIPO": "CON CERCO O CIERRE", "datos_PS2026_csv_UNIDAD": "OF. GENERALES", "datos_PS2026_csv_HV2": "https://pucobre.sharepoint.com/:f:/s/PropiedadSuperficial/EnLvthGH6ahJl3Zjvm7m7ycBhuGAKM_FW9PEa_F8cR3w1Q?e=x3rPbU", "datos_PS2026_csv_area": "0,023798409", "datos_PS2026_csv_REGION": "ATACAMA" }, "geometry": { "type": "MultiPolygon", "coordinates": [ [ [ [ -70.340400410078203, -27.36440514655337, 0.0 ], [ -70.340388349677852, -27.364390657864959, 0.0 ], [ -70.340307899140115, -27.364320133433168, 0.0 ], [ -70.340266886404123, -27.364347350396748, 0.0 ], [ -70.340190992909143, -27.364305144725776, 0.0 ], [ -70.340148927436346, -27.364343466341698, 0.0 ], [ -70.340201874776284, -27.364390493507567, 0.0 ], [ -70.340280281688266, -27.364484778507162, 0.0 ], [ -70.340400410078203, -27.36440514655337, 0.0 ] ] ] ] } },
{ "type": "Feature", "properties": { "Nom_Layer": "123-028", "HV2": "https://pucobre.sharepoint.com/:f:/s/PropiedadSuperficial/EgSrDNmv_qNGsKCLh3V7u08BCHsXb5okY6vfNmvGSf0UnA?e=upNNoT", "datos_PS2026_csv_FID": "29", "datos_PS2026_csv_PROPIET": "SOC. PUNTA DEL COBRE S.A.", "datos_PS2026_csv_INMUEBLE": "CHAÐARCILLO 141 SITIO 3", "datos_PS2026_csv_INSCRIP": "FJ. 12241 N 2973 AÑO 2003", "datos_PS2026_csv_Nom_Layer": null, "datos_PS2026_csv_SECTOR": "OFICINAS COPIAPO", "datos_PS2026_csv_SUPERF": "0,030262", "datos_PS2026_csv_DESTINO": "OFICINAS COPIAPO", "datos_PS2026_csv_TIPO": "CON CERCO O CIERRE", "datos_PS2026_csv_UNIDAD": "OF. GENERALES", "datos_PS2026_csv_HV2": "https://pucobre.sharepoint.com/:f:/s/PropiedadSuperficial/EgSrDNmv_qNGsKCLh3V7u08BCHsXb5okY6vfNmvGSf0UnA?e=upNNoT", "datos_PS2026_csv_area": "0,030262389", "datos_PS2026_csv_REGION": "ATACAMA" }, "geometry": { "type": "MultiPolygon", "coordinates": [ [ [ [ -70.340048083919228, -27.364253898218802, 0.0 ], [ -70.339857103755122, -27.364084271085577, 0.0 ], [ -70.339777405293944, -27.364136690908268, 0.0 ], [ -70.339957397983255, -27.364331742211029, 0.0 ], [ -70.340048083919228, -27.364253898218802, 0.0 ] ] ] ] } },
{ "type": "Feature", "properties": { "Nom_Layer": "123-27", "HV2": "https://pucobre.sharepoint.com/:f:/s/PropiedadSuperficial/EqOqlwZNAklIs03TF__KfRwBpsCkChxw7Fkj2TOB5Qd1ww?e=eoIImx", "datos_PS2026_csv_FID": "30", "datos_PS2026_csv_PROPIET": "SOC. PUNTA DEL COBRE S.A.", "datos_PS2026_csv_INMUEBLE": "CHAÑARCILLO 141 ST 2", "datos_PS2026_csv_INSCRIP": "FS. 9233 Nº 3388 AÑO 2011", "datos_PS2026_csv_Nom_Layer": null, "datos_PS2026_csv_SECTOR": "COPIAPO", "datos_PS2026_csv_SUPERF": "0,02276", "datos_PS2026_csv_DESTINO": "AMPARAR INSTALACIONES DE OFICINAS Y AREAS DEPORTIVAS", "datos_PS2026_csv_TIPO": "CON CERCO O CIERRE", "datos_PS2026_csv_UNIDAD": "OF. GENERALES", "datos_PS2026_csv_HV2": "https://pucobre.sharepoint.com/:f:/s/PropiedadSuperficial/EqOqlwZNAklIs03TF__KfRwBpsCkChxw7Fkj2TOB5Qd1ww?e=eoIImx", "datos_PS2026_csv_area": "0,022760151", "datos_PS2026_csv_REGION": "ATACAMA" }, "geometry": { "type": "MultiPolygon", "coordinates": [ [ [ [ -70.340252716589234, -27.364503678718499, 0.0 ], [ -70.340280281688266, -27.364484778507162, 0.0 ], [ -70.340201874776284, -27.364390493507567, 0.0 ], [ -70.340148927436346, -27.364343466341698, 0.0 ], [ -70.340048083919228, -27.364253898218802, 0.0 ], [ -70.339985015103593, -27.364308035940578, 0.0 ], [ -70.340087768072593, -27.364429855801038, 0.0 ], [ -70.340152797275621, -27.364384117991367, 0.0 ], [ -70.340252716589234, -27.364503678718499, 0.0 ] ] ] ] } },
{ "type": "Feature", "properties": { "Nom_Layer": "123-14", "HV2": "https://pucobre.sharepoint.com/:f:/s/PropiedadSuperficial/EhMOzWAGz79EtOlvRmi7R5wBObBDBtzEIl2mNCiRmfTSbA?e=8emyPG", "datos_PS2026_csv_FID": "31", "datos_PS2026_csv_PROPIET": "SOC. PUNTA DEL COBRE S.A.", "datos_PS2026_csv_INMUEBLE": "CHAÑARCILLO 141 ST 1", "datos_PS2026_csv_INSCRIP": "FS. 10342 VTA Nº 4259 AÑO 2011", "datos_PS2026_csv_Nom_Layer": null, "datos_PS2026_csv_SECTOR": "COPIAPO", "datos_PS2026_csv_SUPERF": "0,025884", "datos_PS2026_csv_DESTINO": "AMPARAR INSTALACIONES DE OFICINAS Y AREAS DEPORTIVAS", "datos_PS2026_csv_TIPO": "CON CERCO O CIERRE", "datos_PS2026_csv_UNIDAD": "OF. GENERALES", "datos_PS2026_csv_HV2": "https://pucobre.sharepoint.com/:f:/s/PropiedadSuperficial/EhMOzWAGz79EtOlvRmi7R5wBObBDBtzEIl2mNCiRmfTSbA?e=8emyPG", "datos_PS2026_csv_area": "0,02588399", "datos_PS2026_csv_REGION": "ATACAMA" }, "geometry": { "type": "MultiPolygon", "coordinates": [ [ [ [ -70.340252716589234, -27.364503678718499, 0.0 ], [ -70.340152797275621, -27.364384117991367, 0.0 ], [ -70.340087768072593, -27.364429855801038, 0.0 ], [ -70.339985015103593, -27.364308035940578, 0.0 ], [ -70.339957397983255, -27.364331742211029, 0.0 ], [ -70.340157494440092, -27.364568968390468, 0.0 ], [ -70.340252716589234, -27.364503678718499, 0.0 ] ] ] ] } },
{ "type": "Feature", "properties": { "Nom_Layer": "123-11", "HV2": "https://pucobre.sharepoint.com/:f:/s/PropiedadSuperficial/EvLQgWseAg5GsmnJ_0VwBzkBUZyz7qpgXa-7nbr21dpQIw?e=5Tg1To", "datos_PS2026_csv_FID": "32", "datos_PS2026_csv_PROPIET": "SOC. PUNTA DEL COBRE S.A.", "datos_PS2026_csv_INMUEBLE": "CALLE RANCAGUA Nº 200", "datos_PS2026_csv_INSCRIP": "FS. 4103 VTA. Nº 2280 AÑO 1990", "datos_PS2026_csv_Nom_Layer": null, "datos_PS2026_csv_SECTOR": "COPIAPO", "datos_PS2026_csv_SUPERF": "0,553484", "datos_PS2026_csv_DESTINO": "AMPARAR INSTALACIONES DE OFICINAS Y AREAS DEPORTIVAS", "datos_PS2026_csv_TIPO": "CON CERCO O CIERRE", "datos_PS2026_csv_UNIDAD": "OF. GENERALES", "datos_PS2026_csv_HV2": "https://pucobre.sharepoint.com/:f:/s/PropiedadSuperficial/EvLQgWseAg5GsmnJ_0VwBzkBUZyz7qpgXa-7nbr21dpQIw?e=5Tg1To", "datos_PS2026_csv_area": "0,553484201", "datos_PS2026_csv_REGION": "ATACAMA" }, "geometry": { "type": "MultiPolygon", "coordinates": [ [ [ [ -70.340613728239035, -27.364241231043852, 0.0 ], [ -70.340619937322074, -27.364206509334167, 0.0 ], [ -70.339942355360023, -27.363329748071322, 0.0 ], [ -70.339598350061294, -27.363580789648353, 0.0 ], [ -70.339790433291697, -27.363774904942741, 0.0 ], [ -70.339580135745564, -27.363901648497158, 0.0 ], [ -70.339777381605302, -27.364136665237702, 0.0 ], [ -70.339911856000981, -27.364048259006012, 0.0 ], [ -70.340165421184011, -27.364230125609414, 0.0 ], [ -70.340381893390699, -27.364346585837751, 0.0 ], [ -70.340407815130604, -27.364377729406904, 0.0 ], [ -70.340613728239035, -27.364241231043852, 0.0 ] ] ] ] } },
{ "type": "Feature", "properties": { "Nom_Layer": "123-15", "HV2": "https://pucobre.sharepoint.com/:f:/s/PropiedadSuperficial/Eu1sxQ9PLRROqMSpv-HbsCIBUkf5tFl1qDUGHQJ6w_qI1Q?e=F0c6Lu", "datos_PS2026_csv_FID": "33", "datos_PS2026_csv_PROPIET": "SOC. PUNTA DEL COBRE S.A.", "datos_PS2026_csv_INMUEBLE": "CHAÑARCILLO 151", "datos_PS2026_csv_INSCRIP": "FS. 6604 Nº 1925 AÑO 2011", "datos_PS2026_csv_Nom_Layer": null, "datos_PS2026_csv_SECTOR": "COPIAPO", "datos_PS2026_csv_SUPERF": "0,092005", "datos_PS2026_csv_DESTINO": "AMPARAR INSTALACIONES DE OFICINAS Y AREAS DEPORTIVAS", "datos_PS2026_csv_TIPO": "CON CERCO O CIERRE", "datos_PS2026_csv_UNIDAD": "OF. GENERALES", "datos_PS2026_csv_HV2": "https://pucobre.sharepoint.com/:f:/s/PropiedadSuperficial/Eu1sxQ9PLRROqMSpv-HbsCIBUkf5tFl1qDUGHQJ6w_qI1Q?e=F0c6Lu", "datos_PS2026_csv_area": "0,092005128", "datos_PS2026_csv_REGION": "ATACAMA" }, "geometry": { "type": "MultiPolygon", "coordinates": [ [ [ [ -70.340157486327897, -27.364568961279154, 0.0 ], [ -70.339957397983255, -27.364331742211029, 0.0 ], [ -70.339777403912734, -27.364136691816743, 0.0 ], [ -70.339660166649637, -27.364215621930974, 0.0 ], [ -70.340037479390318, -27.364651726461698, 0.0 ], [ -70.340157486327897, -27.364568961279154, 0.0 ] ] ] ] } },
{ "type": "Feature", "properties": { "Nom_Layer": "23-78", "HV2": "https://pucobre.sharepoint.com/:f:/s/PropiedadSuperficial/Emtmni5TnXJEnQLfNjcRJAUBCxtSFbSS8ZLEOxy49sEzqQ?e=isM0w1", "datos_PS2026_csv_FID": "34", "datos_PS2026_csv_PROPIET": "SOC. PUNTA DEL COBRE S.A.", "datos_PS2026_csv_INMUEBLE": "FUNDO BUITRON LOTE J-2-A", "datos_PS2026_csv_INSCRIP": "FJ. 3579 VTA. N 2379 AÑO 2009", "datos_PS2026_csv_Nom_Layer": null, "datos_PS2026_csv_SECTOR": "TIERRA AMARILLA", "datos_PS2026_csv_SUPERF": "5,18981", "datos_PS2026_csv_DESTINO": "APOYO MINA MC", "datos_PS2026_csv_TIPO": "CON CERCO O CIERRE", "datos_PS2026_csv_UNIDAD": "MC", "datos_PS2026_csv_HV2": "https://pucobre.sharepoint.com/:f:/s/PropiedadSuperficial/Emtmni5TnXJEnQLfNjcRJAUBCxtSFbSS8ZLEOxy49sEzqQ?e=isM0w1", "datos_PS2026_csv_area": "5,189810365", "datos_PS2026_csv_REGION": "ATACAMA" }, "geometry": { "type": "MultiPolygon", "coordinates": [ [ [ [ -70.268795124615735, -27.464522825903693, 0.0 ], [ -70.269147817984845, -27.464511939195589, 0.0 ], [ -70.269454406754434, -27.459772248726274, 0.0 ], [ -70.268416586046598, -27.459781703709574, 0.0 ], [ -70.268027006873723, -27.461647870530456, 0.0 ], [ -70.26828466353183, -27.462457103672978, 0.0 ], [ -70.268543534320585, -27.463893847097609, 0.0 ], [ -70.268655974622732, -27.465188253030991, 0.0 ], [ -70.268795124615735, -27.464522825903693, 0.0 ] ] ] ] } },
{ "type": "Feature", "properties": { "Nom_Layer": "23-4", "HV2": "https://pucobre.sharepoint.com/:f:/s/PropiedadSuperficial/Egxw3YVmhtNKjVmiT-_ziHIBlpEw7B8nVgX-aF5vzAtRXw?e=5gjXXV", "datos_PS2026_csv_FID": "35", "datos_PS2026_csv_PROPIET": "SOC. PUNTA DEL COBRE S.A.", "datos_PS2026_csv_INMUEBLE": "FUNDO ALTO MELENDEZ", "datos_PS2026_csv_INSCRIP": "FJ. 337 N 243 AÑO 2010", "datos_PS2026_csv_Nom_Layer": null, "datos_PS2026_csv_SECTOR": "TIERRA AMARILLA", "datos_PS2026_csv_SUPERF": "4,336003", "datos_PS2026_csv_DESTINO": "APOYO MINA MC", "datos_PS2026_csv_TIPO": "CON CERCO O CIERRE", "datos_PS2026_csv_UNIDAD": "MC", "datos_PS2026_csv_HV2": "https://pucobre.sharepoint.com/:f:/s/PropiedadSuperficial/Egxw3YVmhtNKjVmiT-_ziHIBlpEw7B8nVgX-aF5vzAtRXw?e=5gjXXV", "datos_PS2026_csv_area": "4,336002767", "datos_PS2026_csv_REGION": "ATACAMA" }, "geometry": { "type": "MultiPolygon", "coordinates": [ [ [ [ -70.26873939983453, -27.465641360514478, 0.0 ], [ -70.266333214666048, -27.465731154961418, 0.0 ], [ -70.26598241012077, -27.467168728042697, 0.0 ], [ -70.268303783633485, -27.467317680828891, 0.0 ], [ -70.268363119732356, -27.467218212847119, 0.0 ], [ -70.268579002112702, -27.46691890423666, 0.0 ], [ -70.268668365658712, -27.466693323377637, 0.0 ], [ -70.26876260713081, -27.46644225330374, 0.0 ], [ -70.268841612840973, -27.466157922190796, 0.0 ], [ -70.268809001343584, -27.465758339908152, 0.0 ], [ -70.26873939983453, -27.465641360514478, 0.0 ] ] ] ] } },
{ "type": "Feature", "properties": { "Nom_Layer": "28-12_LT2B", "HV2": "https://pucobre.sharepoint.com/:f:/s/PropiedadSuperficial/Ek0KOYZazMZCkLTV1CAvCYMBXTDu2J2qVTBt-tSPfpOqnw?e=AlhGa9", "datos_PS2026_csv_FID": "36", "datos_PS2026_csv_PROPIET": "SOC. PUNTA DEL COBRE S.A.", "datos_PS2026_csv_INMUEBLE": "ESCORIAL LT2B", "datos_PS2026_csv_INSCRIP": "FS. 2840 Nº 2173 AÑO 1991", "datos_PS2026_csv_Nom_Layer": null, "datos_PS2026_csv_SECTOR": "T.AMARILLA", "datos_PS2026_csv_SUPERF": "0,095458", "datos_PS2026_csv_DESTINO": "OFICNAS TECNICAS", "datos_PS2026_csv_TIPO": "CON CERCO O CIERRE", "datos_PS2026_csv_UNIDAD": "MPC", "datos_PS2026_csv_HV2": "https://pucobre.sharepoint.com/:f:/s/PropiedadSuperficial/Ek0KOYZazMZCkLTV1CAvCYMBXTDu2J2qVTBt-tSPfpOqnw?e=AlhGa9", "datos_PS2026_csv_area": "0,09545837", "datos_PS2026_csv_REGION": "ATACAMA" }, "geometry": { "type": "MultiPolygon", "coordinates": [ [ [ [ -70.265957985087766, -27.498388674696848, 0.0 ], [ -70.264139602090154, -27.498451951105324, 0.0 ], [ -70.264139380384748, -27.49850389286588, 0.0 ], [ -70.265958975223256, -27.498432598871876, 0.0 ], [ -70.265957985087766, -27.498388674696848, 0.0 ] ] ] ] } },
{ "type": "Feature", "properties": { "Nom_Layer": "28-12_LT2A", "HV2": "https://pucobre.sharepoint.com/:f:/s/PropiedadSuperficial/Ek0KOYZazMZCkLTV1CAvCYMBXTDu2J2qVTBt-tSPfpOqnw?e=AlhGa9", "datos_PS2026_csv_FID": "37", "datos_PS2026_csv_PROPIET": "SOC. PUNTA DEL COBRE S.A.", "datos_PS2026_csv_INMUEBLE": "ESCORIAL LT2A", "datos_PS2026_csv_INSCRIP": "FS. 4103 Nº 2279 AÑO 1990", "datos_PS2026_csv_Nom_Layer": null, "datos_PS2026_csv_SECTOR": "T.AMARILLA", "datos_PS2026_csv_SUPERF": "1,270682", "datos_PS2026_csv_DESTINO": "OFICNAS TECNICAS", "datos_PS2026_csv_TIPO": "CON CERCO O CIERRE", "datos_PS2026_csv_UNIDAD": "MPC", "datos_PS2026_csv_HV2": "https://pucobre.sharepoint.com/:f:/s/PropiedadSuperficial/Ek0KOYZazMZCkLTV1CAvCYMBXTDu2J2qVTBt-tSPfpOqnw?e=AlhGa9", "datos_PS2026_csv_area": "1,270681988", "datos_PS2026_csv_REGION": "ATACAMA" }, "geometry": { "type": "MultiPolygon", "coordinates": [ [ [ [ -70.26414599907632, -27.498146876771735, 0.0 ], [ -70.262984670808251, -27.498026386377322, 0.0 ], [ -70.262961260097171, -27.499090453299477, 0.0 ], [ -70.263563729899673, -27.499199148123008, 0.0 ], [ -70.263661729907795, -27.499068043528755, 0.0 ], [ -70.263811095585012, -27.498971871079767, 0.0 ], [ -70.263892266756955, -27.498953103065787, 0.0 ], [ -70.263970100091001, -27.498958634826543, 0.0 ], [ -70.264006068433559, -27.499003007792929, 0.0 ], [ -70.264007004051393, -27.499044545330293, 0.0 ], [ -70.264111868400846, -27.499042667075905, 0.0 ], [ -70.264139380384748, -27.49850389286588, 0.0 ], [ -70.264139602090154, -27.498451951105324, 0.0 ], [ -70.26414599907632, -27.498146876771735, 0.0 ] ] ] ] } },
{ "type": "Feature", "properties": { "Nom_Layer": "28-12_LT1", "HV2": "https://pucobre.sharepoint.com/:f:/s/PropiedadSuperficial/Ek0KOYZazMZCkLTV1CAvCYMBXTDu2J2qVTBt-tSPfpOqnw?e=AlhGa9", "datos_PS2026_csv_FID": "38", "datos_PS2026_csv_PROPIET": "SOC. PUNTA DEL COBRE S.A.", "datos_PS2026_csv_INMUEBLE": "ESCORIAL LT 1", "datos_PS2026_csv_INSCRIP": "FS. 4102 VTA. Nº 2278 AÑO 1990", "datos_PS2026_csv_Nom_Layer": null, "datos_PS2026_csv_SECTOR": "T.AMARILLA", "datos_PS2026_csv_SUPERF": "0,952425", "datos_PS2026_csv_DESTINO": "OFICNAS TECNICAS", "datos_PS2026_csv_TIPO": "CON CERCO O CIERRE", "datos_PS2026_csv_UNIDAD": "MPC", "datos_PS2026_csv_HV2": "https://pucobre.sharepoint.com/:f:/s/PropiedadSuperficial/Ek0KOYZazMZCkLTV1CAvCYMBXTDu2J2qVTBt-tSPfpOqnw?e=AlhGa9", "datos_PS2026_csv_area": "0,952424724", "datos_PS2026_csv_REGION": "ATACAMA" }, "geometry": { "type": "MultiPolygon", "coordinates": [ [ [ [ -70.262984670808251, -27.498026386377322, 0.0 ], [ -70.261972911977026, -27.497921405991459, 0.0 ], [ -70.262130585228519, -27.49855418795056, 0.0 ], [ -70.262212867995629, -27.49874077040937, 0.0 ], [ -70.262368623725763, -27.498928440280171, 0.0 ], [ -70.262494621662526, -27.499002367997615, 0.0 ], [ -70.262961260097171, -27.499090453299477, 0.0 ], [ -70.262984670808251, -27.498026386377322, 0.0 ] ] ] ] } },
{ "type": "Feature", "properties": { "Nom_Layer": "554-135", "HV2": "https://pucobre.sharepoint.com/:f:/s/PropiedadSuperficial/El_b02Hd9BJOiUeUlYRl_4UBQbFMGKzJV8skVT4HD4jJzA?e=VnZ0Lw", "datos_PS2026_csv_FID": "39", "datos_PS2026_csv_PROPIET": "SOC. PUNTA DEL COBRE S.A.", "datos_PS2026_csv_INMUEBLE": "POZO PUNTA NEGRA", "datos_PS2026_csv_INSCRIP": "FJ. 1700 N 1065 AÑO 1992", "datos_PS2026_csv_Nom_Layer": null, "datos_PS2026_csv_SECTOR": " LOS CARRERA 5687", "datos_PS2026_csv_SUPERF": "0,040104", "datos_PS2026_csv_DESTINO": "AMPARAR POZO DE AGUA", "datos_PS2026_csv_TIPO": "CON CERCO O CIERRE", "datos_PS2026_csv_UNIDAD": "PBC", "datos_PS2026_csv_HV2": "https://pucobre.sharepoint.com/:f:/s/PropiedadSuperficial/El_b02Hd9BJOiUeUlYRl_4UBQbFMGKzJV8skVT4HD4jJzA?e=VnZ0Lw", "datos_PS2026_csv_area": "0,040104498", "datos_PS2026_csv_REGION": "ATACAMA" }, "geometry": { "type": "MultiPolygon", "coordinates": [ [ [ [ -70.282271982964758, -27.413055199652614, 0.0 ], [ -70.281994626555132, -27.413279397727084, 0.0 ], [ -70.282102718925699, -27.413386871796682, 0.0 ], [ -70.282230816531978, -27.413215876075149, 0.0 ], [ -70.282257080700148, -27.413146002325902, 0.0 ], [ -70.282312721965809, -27.413095337906039, 0.0 ], [ -70.282271982964758, -27.413055199652614, 0.0 ] ] ] ] } },
{ "type": "Feature", "properties": { "Nom_Layer": "6000-134", "HV2": "https://pucobre.sharepoint.com/:f:/s/PropiedadSuperficial/EjSGkXvBk25HizpbnA9iq3wBUTq5P0fe5VT33yzw4PvY2A?e=4MaxyJ", "datos_PS2026_csv_FID": "40", "datos_PS2026_csv_PROPIET": "SOC. PUNTA DEL COBRE S.A.", "datos_PS2026_csv_INMUEBLE": "SIERRA LADRILLO III-2-759-CR", "datos_PS2026_csv_INSCRIP": "FS. 616 VTA. N|508 AÑO 2015", "datos_PS2026_csv_Nom_Layer": null, "datos_PS2026_csv_SECTOR": "SIERRA LADRILLO", "datos_PS2026_csv_SUPERF": "8,420244", "datos_PS2026_csv_DESTINO": "AMPARAR FUTURAS INSTALACIONES", "datos_PS2026_csv_TIPO": "CON CERCO O CIERRE", "datos_PS2026_csv_UNIDAD": "PBC", "datos_PS2026_csv_HV2": "https://pucobre.sharepoint.com/:f:/s/PropiedadSuperficial/EjSGkXvBk25HizpbnA9iq3wBUTq5P0fe5VT33yzw4PvY2A?e=4MaxyJ", "datos_PS2026_csv_area": "8,420244055", "datos_PS2026_csv_REGION": "ATACAMA" }, "geometry": { "type": "MultiPolygon", "coordinates": [ [ [ [ -70.2480903598547, -27.389427464016755, 0.0 ], [ -70.246458510532818, -27.390116799825044, 0.0 ], [ -70.247652282792941, -27.394004342086337, 0.0 ], [ -70.249527326568924, -27.393144297010405, 0.0 ], [ -70.2480903598547, -27.389427464016755, 0.0 ] ] ] ] } },
{ "type": "Feature", "properties": { "Nom_Layer": null, "HV2": null, "datos_PS2026_csv_FID": null, "datos_PS2026_csv_PROPIET": null, "datos_PS2026_csv_INMUEBLE": null, "datos_PS2026_csv_INSCRIP": null, "datos_PS2026_csv_Nom_Layer": null, "datos_PS2026_csv_SECTOR": null, "datos_PS2026_csv_SUPERF": null, "datos_PS2026_csv_DESTINO": null, "datos_PS2026_csv_TIPO": null, "datos_PS2026_csv_UNIDAD": null, "datos_PS2026_csv_HV2": null, "datos_PS2026_csv_area": null, "datos_PS2026_csv_REGION": null }, "geometry": { "type": "MultiPolygon", "coordinates": [ [ [ [ -70.268758529184637, -27.465673511280411, 0.000000000000114 ], [ -70.267578441507581, -27.465684690566469, 0.000000000000114 ], [ -70.267742126116985, -27.467281645222229, 0.000000000000114 ], [ -70.26832836733098, -27.467276470007793, 0.000000000000114 ], [ -70.268579002112673, -27.466918904236639, 0.000000000000114 ], [ -70.268762607130796, -27.46644225330374, 0.000000000000114 ], [ -70.268841612840959, -27.466157922190785, 0.000000000000114 ], [ -70.26888886588975, -27.466047897960983, 0.000000000000114 ], [ -70.268844276697266, -27.465661395986448, 0.000000000000114 ], [ -70.268758529184637, -27.465673511280411, 0.000000000000114 ] ] ] ] } },
{ "type": "Feature", "properties": { "Nom_Layer": null, "HV2": null, "datos_PS2026_csv_FID": null, "datos_PS2026_csv_PROPIET": null, "datos_PS2026_csv_INMUEBLE": null, "datos_PS2026_csv_INSCRIP": null, "datos_PS2026_csv_Nom_Layer": null, "datos_PS2026_csv_SECTOR": null, "datos_PS2026_csv_SUPERF": null, "datos_PS2026_csv_DESTINO": null, "datos_PS2026_csv_TIPO": null, "datos_PS2026_csv_UNIDAD": null, "datos_PS2026_csv_HV2": null, "datos_PS2026_csv_area": null, "datos_PS2026_csv_REGION": null }, "geometry": { "type": "MultiPolygon", "coordinates": [ [ [ [ -70.267377787782877, -27.465692178513894, 0.000000000000114 ], [ -70.266503109539059, -27.465724816161458, 0.000000000000114 ], [ -70.266085539838812, -27.467105171452719, 0.000000000000114 ], [ -70.267367553105728, -27.467175905678445, 0.000000000000114 ], [ -70.267371553352419, -27.467257868240601, 0.000000000000114 ], [ -70.267532885950203, -27.467268219912675, 0.000000000000114 ], [ -70.267377787782877, -27.465692178513894, 0.000000000000114 ] ] ] ] } },
{ "type": "Feature", "properties": { "Nom_Layer": "7000-150", "HV2": null, "datos_PS2026_csv_FID": "43", "datos_PS2026_csv_PROPIET": " ", "datos_PS2026_csv_INMUEBLE": " ", "datos_PS2026_csv_INSCRIP": " ", "datos_PS2026_csv_Nom_Layer": null, "datos_PS2026_csv_SECTOR": " ", "datos_PS2026_csv_SUPERF": "0", "datos_PS2026_csv_DESTINO": " ", "datos_PS2026_csv_TIPO": " ", "datos_PS2026_csv_UNIDAD": " ", "datos_PS2026_csv_HV2": " ", "datos_PS2026_csv_area": "0", "datos_PS2026_csv_REGION": " " }, "geometry": { "type": "MultiPolygon", "coordinates": [ [ [ [ -70.245018662463096, -27.380961380321477, 0.0 ], [ -70.247779987825979, -27.379355743187087, 0.0 ], [ -70.241311948448569, -27.370288567321072, 0.0 ], [ -70.239962466250859, -27.371075579350318, 0.0 ], [ -70.240044861568762, -27.371171001648335, 0.0 ], [ -70.240097158692379, -27.371306231107418, 0.0 ], [ -70.240116502725343, -27.371469778210905, 0.0 ], [ -70.240119798172046, -27.371610539129861, 0.0 ], [ -70.239989605591177, -27.371793036429505, 0.0 ], [ -70.239915358616102, -27.371935244180467, 0.0 ], [ -70.239786507676598, -27.372064619287116, 0.0 ], [ -70.239626207331426, -27.372176112496881, 0.0 ], [ -70.23933957787392, -27.372303813540636, 0.0 ], [ -70.239062314707724, -27.372389785145391, 0.0 ], [ -70.238744234946637, -27.372499603081788, 0.0 ], [ -70.238505634202951, -27.372580235402818, 0.0 ], [ -70.238215391846964, -27.372664138814944, 0.0 ], [ -70.238014374198073, -27.372693281099387, 0.0 ], [ -70.237663602047135, -27.372732140634621, 0.0 ], [ -70.237423326895367, -27.372741236833694, 0.0 ], [ -70.237248102543205, -27.372767588649694, 0.0 ], [ -70.237059743831153, -27.372895761889104, 0.0 ], [ -70.237112092234042, -27.373033300086441, 0.0 ], [ -70.237209407294372, -27.373213862855064, 0.0 ], [ -70.237343767382384, -27.373319860968987, 0.0 ], [ -70.237553308182683, -27.373544502824529, 0.0 ], [ -70.237854066895224, -27.373688952548928, 0.0 ], [ -70.237981267606258, -27.373820477706868, 0.0 ], [ -70.238016927641226, -27.37401834933727, 0.0 ], [ -70.23795226016874, -27.374128057553467, 0.0 ], [ -70.237730297675441, -27.374256858220292, 0.0 ], [ -70.237559053204237, -27.374232347849532, 0.0 ], [ -70.237351615858643, -27.374097700836572, 0.0 ], [ -70.237122216551583, -27.374129679472244, 0.0 ], [ -70.236882537156873, -27.374274968970472, 0.0 ], [ -70.236531769430201, -27.374535447820275, 0.0 ], [ -70.236250515599892, -27.374672276700135, 0.0 ], [ -70.235983475330357, -27.374753434670424, 0.0 ], [ -70.235642553712339, -27.374882139708912, 0.0 ], [ -70.235574165948535, -27.374943436299745, 0.0 ], [ -70.235560544725203, -27.375024489784661, 0.0 ], [ -70.23566533986083, -27.375082560347956, 0.0 ], [ -70.235791888217435, -27.375075585786572, 0.0 ], [ -70.23703168984072, -27.375124049293831, 0.0 ], [ -70.238234730775048, -27.375480226178841, 0.0 ], [ -70.238367157712375, -27.375613962027845, 0.0 ], [ -70.238401152199714, -27.375851110128846, 0.0 ], [ -70.238104393983377, -27.376983222601424, 0.0 ], [ -70.238067037940127, -27.377265563823986, 0.0 ], [ -70.238001518044427, -27.377559972970069, 0.0 ], [ -70.238026144796962, -27.377838849898282, 0.0 ], [ -70.238078456262187, -27.378195701736264, 0.0 ], [ -70.237936738721842, -27.378549245648415, 0.0 ], [ -70.237624572146146, -27.378802081846192, 0.0 ], [ -70.237305507105788, -27.378981171943376, 0.0 ], [ -70.237200125318026, -27.379119341472553, 0.0 ], [ -70.237072456197907, -27.379410291469462, 0.0 ], [ -70.237006926979916, -27.379593889291733, 0.0 ], [ -70.236814304313697, -27.379761387292245, 0.0 ], [ -70.236590392065281, -27.379917925319283, 0.0 ], [ -70.236307138522164, -27.380190996871825, 0.0 ], [ -70.236245860264987, -27.380335269568224, 0.0 ], [ -70.236259113639761, -27.380459684993578, 0.0 ], [ -70.236591988502909, -27.380649709874458, 0.0 ], [ -70.237046567451017, -27.380735888825875, 0.0 ], [ -70.237654859585888, -27.381091610963615, 0.0 ], [ -70.237918160611315, -27.381292163916562, 0.0 ], [ -70.23820752824173, -27.381501464529808, 0.0 ], [ -70.238341096632013, -27.381683658698176, 0.0 ], [ -70.238408057264948, -27.382003300021676, 0.0 ], [ -70.238310173216007, -27.382351409614298, 0.0 ], [ -70.238071132962958, -27.382635202992066, 0.0 ], [ -70.237682208998166, -27.382813288054962, 0.0 ], [ -70.237275728535963, -27.38301478492966, 0.0 ], [ -70.236906078673215, -27.383132485970457, 0.0 ], [ -70.236096225750345, -27.383336879870779, 0.0 ], [ -70.235867130754926, -27.38338270238517, 0.0 ], [ -70.235747900967169, -27.383481883270761, 0.0 ], [ -70.235823788226298, -27.383630525986298, 0.0 ], [ -70.235913729100204, -27.383716575656756, 0.0 ], [ -70.237124939929544, -27.384086459556006, 0.0 ], [ -70.238960070213693, -27.384483941696313, 0.0 ], [ -70.245018662463096, -27.380961380321477, 0.0 ] ] ] ] } }
]
}
