{
"type": "FeatureCollection",
"name": "predios_2026",
"crs": { "type": "name", "properties": { "name": "urn:ogc:def:crs:EPSG::32719" } },
"features": [
{ "type": "Feature", "properties": { "PROPIET": "SOC. PUNTA DEL COBRE S.A.", "INMUEBLE": "T ERRENO LAS CRUCES", "INSCRIP": "FJ. 3802 N 2058 AÑO 1998", "Nom_Layer": "7000-17", "SECTOR": "QUEBRADA LAS CRUCES", "SUPERF": 305.794256, "DESTINO": "TRANQUE LAS CRUCES", "TIPO": "SIN CERCO O CIERRE", "UNIDAD": "PSJ", "HV2": "https://pucobre.sharepoint.com/:f:/s/PropiedadSuperficial/EpE3EG7d2NxMgxHYHzY3Pu8BUT6hzmW_PrIQ_aX7HUWaOw?e=UEArfv", "area": 305.79425611300002, "REGION": "ATACAMA" }, "geometry": { "type": "MultiPolygon", "coordinates": [ [ [ [ 369313.959519240423106, 6964143.744016073644161, 0.0 ], [ 369943.941634104121476, 6963518.763564735651016, 0.0 ], [ 369943.942992983851582, 6962518.793476574122906, 0.0 ], [ 370813.917106828885153, 6962518.794656046666205, 0.0 ], [ 370813.917511758336332, 6962218.803631633520126, 0.0 ], [ 367814.006783794495277, 6962218.799531051889062, 0.0 ], [ 367814.006162293953821, 6962668.786067979410291, 0.0 ], [ 369313.959519240423106, 6964143.744016073644161, 0.0 ] ] ] ] } },
{ "type": "Feature", "properties": { "PROPIET": "SOC. PUNTA DEL COBRE S.A.", "INMUEBLE": "TERRENO PIMASA", "INSCRIP": "FJ. 68 VTA. N 65 AÑO 2007", "Nom_Layer": "8000-88", "SECTOR": "COLINDANTE A PLANTA BIOCOBRE", "SUPERF": 5.108503, "DESTINO": "APOYO BIOCOBRE", "TIPO": "CON CERCO O CIERRE", "UNIDAD": "PBC", "HV2": "https://pucobre.sharepoint.com/:f:/s/PropiedadSuperficial/Et1DPh9DrQFHi56t2EZCOssBoPQfwj9Lmr0TQiIzP8aAzg?e=FdIkEv", "area": 5.1085031440900002, "REGION": "ATACAMA" }, "geometry": { "type": "MultiPolygon", "coordinates": [ [ [ [ 376957.27177457138896, 6970091.151411300525069, 0.0 ], [ 377043.721800377243198, 6970253.571777120232582, 0.0 ], [ 377337.117443812370766, 6970125.849759126082063, 0.0 ], [ 377264.593926259025466, 6970032.771779867820442, 0.0 ], [ 377247.232278654817492, 6970043.509915331378579, 0.0 ], [ 377225.854188361903653, 6970045.63813217356801, 0.0 ], [ 377211.009981174953282, 6970049.589691087603569, 0.0 ], [ 377200.348357766692061, 6970051.189167927019298, 0.0 ], [ 377165.040669031790458, 6970054.004657533019781, 0.0 ], [ 377140.937479837273713, 6970044.462961822748184, 0.0 ], [ 377132.749484196770936, 6970030.915697735734284, 0.0 ], [ 377119.628883963334374, 6970026.198177598416805, 0.0 ], [ 377104.414953632629476, 6970022.656215018592775, 0.0 ], [ 377077.62680061039282, 6970023.977916268631816, 0.0 ], [ 377059.411017310922034, 6970024.876665186136961, 0.0 ], [ 377042.002165264857467, 6970020.369555123150349, 0.0 ], [ 377033.746742154937238, 6970027.216358153149486, 0.0 ], [ 377029.830280429625418, 6970034.921355785802007, 0.0 ], [ 377029.074116238218267, 6970041.396984666585922, 0.0 ], [ 377023.226845389988739, 6970053.48984953854233, 0.0 ], [ 377005.380785223795101, 6970061.882119904272258, 0.0 ], [ 376988.658545428304933, 6970071.291216792538762, 0.0 ], [ 376976.116937442857306, 6970078.34949597530067, 0.0 ], [ 376957.27177457138896, 6970091.151411300525069, 0.0 ] ] ] ] } },
{ "type": "Feature", "properties": { "PROPIET": "SOC. PUNTA DEL COBRE S.A.", "INMUEBLE": "TERRENO BIOCOBRE NORTE", "INSCRIP": "FJ. 36 VTA. N 32 AÑO 2008", "Nom_Layer": "7180-3", "SECTOR": "ANTIGUOS RIPIOS BIOCOBRE", "SUPERF": 16.604741, "DESTINO": "AREA DEPOSITO DE RIPIOS", "TIPO": "CON CERCO O CIERRE", "UNIDAD": "PBC", "HV2": "https://pucobre.sharepoint.com/:f:/s/PropiedadSuperficial/Env6E5D5Yz1Fp5jUiRqheeUBZ2IS83AXUCRpPdSuO2G8sA?e=hB3pc4", "area": 16.6047405176, "REGION": "ATACAMA" }, "geometry": { "type": "MultiPolygon", "coordinates": [ [ [ [ 377334.662354684318416, 6972085.964445577003062, 0.0 ], [ 377932.618505233200267, 6971750.623078708536923, 0.0 ], [ 377932.618859125475865, 6971473.218394357711077, 0.0 ], [ 377813.697394504095428, 6971473.218242432922125, 0.0 ], [ 377813.697145096724853, 6971668.530557220801711, 0.0 ], [ 377653.70189045870211, 6971668.530352588742971, 0.0 ], [ 377630.663111009285785, 6971671.523841757327318, 0.0 ], [ 377606.890037552511785, 6971672.295495681464672, 0.0 ], [ 377552.24349486263236, 6971679.286545252427459, 0.0 ], [ 377523.446289076877292, 6971688.296081330627203, 0.0 ], [ 377468.181026802572887, 6971708.846810553222895, 0.0 ], [ 377440.665042930108029, 6971718.098037405870855, 0.0 ], [ 377412.176698208611924, 6971731.962781962938607, 0.0 ], [ 377396.200108003162313, 6971744.15627970919013, 0.0 ], [ 377383.314123492571525, 6971758.361669080331922, 0.0 ], [ 377375.814308865810744, 6971774.042392050847411, 0.0 ], [ 377362.737011208955664, 6971794.13132581859827, 0.0 ], [ 377364.640555428923108, 6971827.864899544045329, 0.0 ], [ 377369.663690370623954, 6971842.897114096209407, 0.0 ], [ 377377.707461997459177, 6971853.549105454236269, 0.0 ], [ 377243.373881179490127, 6971939.405565176159143, 0.0 ], [ 377334.662354684318416, 6972085.964445577003062, 0.0 ] ] ] ] } },
{ "type": "Feature", "properties": { "PROPIET": "SOC. PUNTA DEL COBRE S.A.", "INMUEBLE": "LOTES A", "INSCRIP": "FJ. 1326 N 1315 AÑO 1997", "Nom_Layer": "6000-125", "SECTOR": "QDA. PAIPOTE KM 14", "SUPERF": 3.305631, "DESTINO": "PLANTA BIOCOBRE", "TIPO": "CON CERCO O CIERRE", "UNIDAD": "PBC", "HV2": "https://pucobre.sharepoint.com/:f:/s/PropiedadSuperficial/EmmlIIAT-gdFjNoczQV--8ABmnB6IHVT1mxU2m3DDU-VrQ?e=iEJH5T", "area": 3.30563123607, "REGION": "ATACAMA" }, "geometry": { "type": "MultiPolygon", "coordinates": [ [ [ [ 377653.70189045870211, 6971668.530352588742971, 0.0 ], [ 377813.697145096724853, 6971668.530557220801711, 0.0 ], [ 377813.697451559710316, 6971428.537714548408985, 0.0 ], [ 377745.335179902613163, 6971459.959856966510415, 0.0 ], [ 377727.830084159679245, 6971486.195882095955312, 0.0 ], [ 377714.699133513960987, 6971490.57103144004941, 0.0 ], [ 377710.316400438721757, 6971508.061724184080958, 0.0 ], [ 377688.437221042695455, 6971508.061696194112301, 0.0 ], [ 377679.6804043330485, 6971499.316335813142359, 0.0 ], [ 377670.923582039715257, 6971494.941158467903733, 0.0 ], [ 377662.175353288650513, 6971490.570964237675071, 0.0 ], [ 377653.418525402667001, 6971490.570953032001853, 0.0 ], [ 377649.044408234127332, 6971490.570947433821857, 0.0 ], [ 377640.287569164298475, 6971499.316285400651395, 0.0 ], [ 377603.703578047337942, 6971508.535060072317719, 0.0 ], [ 377605.268812012625858, 6971529.922471135854721, 0.0 ], [ 377605.268789640394971, 6971547.413169492967427, 0.0 ], [ 377618.399717923777644, 6971560.533701628446579, 0.0 ], [ 377644.661596869700588, 6971569.279084427282214, 0.0 ], [ 377653.418413580744527, 6971578.024444816634059, 0.0 ], [ 377662.175230293418281, 6971586.769805205985904, 0.0 ], [ 377670.923447866283823, 6971599.890331728383899, 0.0 ], [ 377670.92343109799549, 6971613.005863955244422, 0.0 ], [ 377679.680236637592316, 6971630.496573533862829, 0.0 ], [ 377679.680214277934283, 6971647.987271908670664, 0.0 ], [ 377666.549269200477283, 6971647.987255105748773, 0.0 ], [ 377657.792430119647179, 6971656.732593089342117, 0.0 ], [ 377653.70189045870211, 6971668.530352588742971, 0.0 ] ] ] ] } },
{ "type": "Feature", "properties": { "PROPIET": "SOC. PUNTA DEL COBRE S.A.", "INMUEBLE": "LOTES B", "INSCRIP": "FJ. 1326 N 1315 AÑO 1997", "Nom_Layer": "6000-125", "SECTOR": "QDA. PAIPOTE KM 14", "SUPERF": 16.141177, "DESTINO": "PLANTA BIOCOBRE", "TIPO": "CON CERCO O CIERRE", "UNIDAD": "PBC", "HV2": "https://pucobre.sharepoint.com/:f:/s/PropiedadSuperficial/EmmlIIAT-gdFjNoczQV--8ABmnB6IHVT1mxU2m3DDU-VrQ?e=iEJH5T", "area": 16.141177265100001, "REGION": "ATACAMA" }, "geometry": { "type": "MultiPolygon", "coordinates": [ [ [ [ 377813.697451559710316, 6971428.537714548408985, 0.0 ], [ 377813.69861354859313, 6970518.564858231693506, 0.0 ], [ 377736.940441654413007, 6970551.710058907978237, 0.0 ], [ 377690.638368747371715, 6970570.212268152274191, 0.0 ], [ 377621.193835163721815, 6970611.836054474115372, 0.0 ], [ 377616.561876024585217, 6970639.591942822560668, 0.0 ], [ 377563.705839257338084, 6970668.560063552111387, 0.0 ], [ 377561.004501975257881, 6970695.093694057315588, 0.0 ], [ 377574.900243313401006, 6970718.220301700755954, 0.0 ], [ 377588.787402949878015, 6970732.093283534049988, 0.0 ], [ 377635.080846909841057, 6970741.346968607977033, 0.0 ], [ 377783.699075797107071, 6970853.55482641980052, 0.0 ], [ 377797.129266592557542, 6970866.228767963126302, 0.0 ], [ 377797.129242963390425, 6970884.731036495417356, 0.0 ], [ 377773.978200532554183, 6970898.603970972821116, 0.0 ], [ 377695.26983125298284, 6970930.984086031094193, 0.0 ], [ 377681.382612453773618, 6970963.359300890937448, 0.0 ], [ 377681.382594713708386, 6970977.23724807985127, 0.0 ], [ 377672.118723752908409, 6970995.734521675854921, 0.0 ], [ 377644.344357077556197, 6971004.988111963495612, 0.0 ], [ 377593.418977495050058, 6971004.988046769052744, 0.0 ], [ 377588.787053836567793, 6971004.988040838390589, 0.0 ], [ 377574.899829073518049, 6971041.987577075138688, 0.0 ], [ 377574.899787646019831, 6971074.367792844772339, 0.0 ], [ 377584.155005911597982, 6971102.11871600523591, 0.0 ], [ 377593.418788154551294, 6971152.996229140087962, 0.0 ], [ 377593.418776323902421, 6971162.244871880859137, 0.0 ], [ 377584.154863900330383, 6971213.122361321933568, 0.0 ], [ 377568.70478248829022, 6971378.538892284035683, 0.0 ], [ 377588.786539049353451, 6971407.383729974739254, 0.0 ], [ 377598.041781016334426, 6971416.637367696501315, 0.0 ], [ 377625.824729529675096, 6971416.637403265573084, 0.0 ], [ 377644.343824778159615, 6971421.261748353950679, 0.0 ], [ 377672.118179743352812, 6971421.26178389787674, 0.0 ], [ 377690.637274993001483, 6971425.886128978803754, 0.0 ], [ 377709.156376155442558, 6971425.886152670718729, 0.0 ], [ 377736.939324673323426, 6971425.886188208125532, 0.0 ], [ 377755.458425837103277, 6971425.886211890727282, 0.0 ], [ 377778.6094506761292, 6971425.886241493746638, 0.0 ], [ 377813.697451559710316, 6971428.537714548408985, 0.0 ] ] ] ] } },
{ "type": "Feature", "properties": { "PROPIET": "SOC. PUNTA DEL COBRE S.A.", "INMUEBLE": "LOTE A", "INSCRIP": "FJ. 1627 N 1585 AÑO 1997", "Nom_Layer": "6000-124", "SECTOR": "QDA. PAIPOTE KM 14", "SUPERF": 22.17848, "DESTINO": "PLANTA BIOCOBRE", "TIPO": "CON CERCO O CIERRE", "UNIDAD": "PBC", "HV2": "https://pucobre.sharepoint.com/:f:/s/PropiedadSuperficial/El13gu3hzBZEmKsiwihZfqgBCFEEqzQIm8HBp9Yc0QwDzA?e=uLbUVk", "area": 22.178480233599998, "REGION": "ATACAMA" }, "geometry": { "type": "MultiPolygon", "coordinates": [ [ [ [ 376666.732135266822297, 6970914.551572322845459, 0.0 ], [ 376878.726020975736901, 6970778.555902415886521, 0.0 ], [ 376678.732702020904981, 6970198.572947965934873, 0.0 ], [ 376267.744807478738949, 6970268.570328384637833, 0.0 ], [ 376666.732135266822297, 6970914.551572322845459, 0.0 ] ] ] ] } },
{ "type": "Feature", "properties": { "PROPIET": "SOC. PUNTA DEL COBRE S.A.", "INMUEBLE": "LOTE B", "INSCRIP": "FJ. 1627 N 1585 AÑO 1997", "Nom_Layer": "6000-124", "SECTOR": "QDA. PAIPOTE KM 14", "SUPERF": 34.999167, "DESTINO": "PLANTA BIOCOBRE", "TIPO": "CON CERCO O CIERRE", "UNIDAD": "PBC", "HV2": "https://pucobre.sharepoint.com/:f:/s/PropiedadSuperficial/El13gu3hzBZEmKsiwihZfqgBCFEEqzQIm8HBp9Yc0QwDzA?e=uLbUVk", "area": 34.999167204099997, "REGION": "ATACAMA" }, "geometry": { "type": "MultiPolygon", "coordinates": [ [ [ [ 376893.725588820176199, 6970768.556220036000013, 0.0 ], [ 377493.708293757226784, 6970373.56877460423857, 0.0 ], [ 377843.697793643805198, 6970463.566537400707603, 0.0 ], [ 377393.711670969671104, 6970053.578193994238973, 0.0 ], [ 377288.714774064545054, 6970063.577760899439454, 0.0 ], [ 377333.713361762987915, 6970123.57602840103209, 0.0 ], [ 377043.721800377243198, 6970253.571777120232582, 0.0 ], [ 376983.723722188500687, 6970143.57498193345964, 0.0 ], [ 376698.732114985003136, 6970193.573122945614159, 0.0 ], [ 376893.725588820176199, 6970768.556220036000013, 0.0 ] ] ] ] } },
{ "type": "Feature", "properties": { "PROPIET": "SOC. PUNTA DEL COBRE S.A.", "INMUEBLE": "LOTE B", "INSCRIP": "FJ. 6180 VTA. N 1736 AÑO 2011", "Nom_Layer": "6000-133 LTB", "SECTOR": "SIERRA LADRILLOS", "SUPERF": 23.7983, "DESTINO": "PLANTA BIOCOBRE", "TIPO": "CON CERCO O CIERRE", "UNIDAD": "PBC", "HV2": "https://pucobre.sharepoint.com/:f:/s/PropiedadSuperficial/EprSy421TQZDg-cxgFNOLVYBHFW9fleOz0rPxlPKKzzCcg?e=VsbpUN", "area": 23.798300105500001, "REGION": "ATACAMA" }, "geometry": { "type": "MultiPolygon", "coordinates": [ [ [ [ 376490.715017593582161, 6969625.202671088278294, 0.0 ], [ 376522.756504944467451, 6969599.405139101669192, 0.0 ], [ 376455.442901638452895, 6969397.80915376637131, 0.0 ], [ 376641.799288587179035, 6969304.395067147910595, 0.0 ], [ 376681.563145916792564, 6969455.384246541187167, 0.0 ], [ 376781.242464176844805, 6969381.379376547411084, 0.0 ], [ 376898.658177956996951, 6969230.088410642929375, 0.0 ], [ 376864.597447543754242, 6969064.743213655427098, 0.0 ], [ 376730.467443324159831, 6968787.239217209629714, 0.0 ], [ 376337.231051439477596, 6969007.747170914895833, 0.0 ], [ 376490.715017593582161, 6969625.202671088278294, 0.0 ] ] ] ] } },
{ "type": "Feature", "properties": { "PROPIET": "SOC. PUNTA DEL COBRE S.A.", "INMUEBLE": "LOTE A", "INSCRIP": "FJ. 6179 VTA. N 1735 AÑO 2011", "Nom_Layer": "6000-133 LTA", "SECTOR": "SIERRA LADRILLOS", "SUPERF": 48.92706, "DESTINO": "PLANTA BIOCOBRE", "TIPO": "CON CERCO O CIERRE", "UNIDAD": "PBC", "HV2": "https://pucobre.sharepoint.com/:f:/s/PropiedadSuperficial/EprSy421TQZDg-cxgFNOLVYBHFW9fleOz0rPxlPKKzzCcg?e=VsbpUN", "area": 48.927060250899999, "REGION": "ATACAMA" }, "geometry": { "type": "MultiPolygon", "coordinates": [ [ [ [ 376050.8457458690973, 6970026.297502260655165, 0.0 ], [ 376471.065568715566769, 6969641.023013010621071, 0.0 ], [ 376270.549870150571223, 6969045.13875281624496, 0.0 ], [ 375541.491547333658673, 6969454.706742104142904, 0.0 ], [ 375624.762354749953374, 6969576.143496634438634, 0.0 ], [ 375814.844630456762388, 6969808.673951851204038, 0.0 ], [ 375935.313414971809834, 6969910.348676335066557, 0.0 ], [ 376050.8457458690973, 6970026.297502260655165, 0.0 ] ] ] ] } },
{ "type": "Feature", "properties": { "PROPIET": "CLUB DEPORTIVO PUCOBRE", "INMUEBLE": "LOTE A", "INSCRIP": "FS. 6014 Nº 3020 AÑO 2010\r\n", "Nom_Layer": "3215-1", "SECTOR": "FUNDO LA FLORIDA", "SUPERF": 5.081702, "DESTINO": "CANCHAS DEPORTIVAS", "TIPO": "CON CERCO O CIERRE", "UNIDAD": "OTROS", "HV2": "https://pucobre.sharepoint.com/:f:/s/PropiedadSuperficial/Et1Anwp3mo1Kp2hcRDofLrgBfTFM4L8nXoEslvuETzWcDg?e=sqmyMj", "area": 5.0817017949499999, "REGION": "ATACAMA" }, "geometry": { "type": "MultiPolygon", "coordinates": [ [ [ [ 374455.478678115876392, 6966013.719869816675782, 0.0 ], [ 374619.093656913726591, 6966174.732280114665627, 0.0 ], [ 374627.939340412267484, 6966175.998082743026316, 0.0 ], [ 374773.2140456927591, 6966140.008627320639789, 0.0 ], [ 374806.632636774505954, 6966097.333603957667947, 0.0 ], [ 374506.648542484967038, 6965871.703557496890426, 0.0 ], [ 374486.050396966806147, 6965928.869876876473427, 0.0 ], [ 374505.335491771111265, 6965935.818358777090907, 0.0 ], [ 374494.633943864901084, 6965965.519870478659868, 0.0 ], [ 374475.374849006999284, 6965958.499227249994874, 0.0 ], [ 374455.478678115876392, 6966013.719869816675782, 0.0 ] ] ] ] } },
{ "type": "Feature", "properties": { "PROPIET": "SOC. PUNTA DEL COBRE S.A.", "INMUEBLE": "LOTE B", "INSCRIP": "FJ. 368 VTA. N 310 AÑO 1997", "Nom_Layer": "7000-23", "SECTOR": "QUEBRADA EL BUITRE", "SUPERF": 42.688383, "DESTINO": "PLANTA SAN JOSE", "TIPO": "CON CERCO O CIERRE", "UNIDAD": "PSJ", "HV2": "https://pucobre.sharepoint.com/:f:/s/PropiedadSuperficial/EvfR0HVCK8dMmBvzO6TkWWAB-gpmCZq8--jA5mxRCglZrw?e=uWHN6G", "area": 42.688383259799998, "REGION": "ATACAMA" }, "geometry": { "type": "MultiPolygon", "coordinates": [ [ [ [ 372041.737607908551581, 6959873.875474311411381, 0.0 ], [ 372967.241165125276893, 6959873.876708379946649, 0.0 ], [ 373880.82890386309009, 6959873.881048820912838, 0.0 ], [ 373199.846277048462071, 6959779.87942948564887, 0.0 ], [ 373225.281482951657381, 6959596.440216617658734, 0.0 ], [ 372813.861650590144563, 6959469.46104792598635, 0.0 ], [ 372803.467004714068025, 6959490.11472419463098, 0.0 ], [ 372778.368472730682697, 6959566.344273577444255, 0.0 ], [ 372773.502398532407824, 6959591.569169483147562, 0.0 ], [ 372771.977026686363388, 6959602.590378383174539, 0.0 ], [ 372762.707184388069436, 6959641.040531196631491, 0.0 ], [ 372758.688584305229597, 6959660.032741529867053, 0.0 ], [ 372754.448712066980079, 6959671.684566162526608, 0.0 ], [ 372748.61890322342515, 6959681.747505996376276, 0.0 ], [ 372744.379047752998304, 6959684.925273697823286, 0.0 ], [ 372741.199158613337204, 6959685.454897028394043, 0.0 ], [ 372731.659503167495131, 6959678.040082519873977, 0.0 ], [ 372722.649832651019096, 6959667.977122936397791, 0.0 ], [ 372716.286592852149624, 6959642.015317200683057, 0.0 ], [ 372714.317008334270213, 6959615.472834467887878, 0.0 ], [ 372723.778705179342069, 6959564.301930950954556, 0.0 ], [ 372734.167032237397507, 6959530.262358974665403, 0.0 ], [ 372743.540345376357436, 6959500.172038602642715, 0.0 ], [ 372723.851089158677496, 6959515.366344111040235, 0.0 ], [ 372709.191156154905912, 6959531.392043451778591, 0.0 ], [ 372700.531833710148931, 6959541.133753508329391, 0.0 ], [ 372677.569341417984106, 6959563.259964906610548, 0.0 ], [ 372655.171559253300074, 6959588.535546688362956, 0.0 ], [ 372636.077832621755078, 6959615.760425884276628, 0.0 ], [ 372633.610386647749692, 6959619.551637072116137, 0.0 ], [ 372619.069032070692629, 6959660.429997157305479, 0.0 ], [ 372610.981585372239351, 6959694.56398162804544, 0.0 ], [ 372605.617898953671101, 6959717.779263780452311, 0.0 ], [ 372601.910465398337692, 6959747.15773949958384, 0.0 ], [ 372599.682185424724594, 6959768.950955105945468, 0.0 ], [ 372598.515414679772221, 6959794.200997764244676, 0.0 ], [ 372597.33323530270718, 6959808.500932788476348, 0.0 ], [ 372595.720803338859696, 6959819.494132488965988, 0.0 ], [ 372592.942036056716461, 6959828.599911112338305, 0.0 ], [ 372554.305449801555369, 6959817.008398582227528, 0.0 ], [ 372524.420348112122156, 6959812.227846328169107, 0.0 ], [ 372518.251039660884999, 6959811.253736723214388, 0.0 ], [ 372476.599227341590449, 6959797.525967418216169, 0.0 ], [ 372468.216836812498514, 6959794.67594263330102, 0.0 ], [ 372443.870670793461613, 6959788.878131969831884, 0.0 ], [ 372453.549698841350619, 6959768.294838259927928, 0.0 ], [ 372460.145060211769305, 6959737.545341460965574, 0.0 ], [ 372466.404585676034912, 6959716.432026606053114, 0.0 ], [ 372466.103392943798099, 6959709.674852313473821, 0.0 ], [ 372459.769989696098492, 6959699.780757584609091, 0.0 ], [ 372454.903764893184416, 6959700.467682350426912, 0.0 ], [ 372449.488206084119156, 6959707.016145067289472, 0.0 ], [ 372444.626199029851705, 6959710.851850645616651, 0.0 ], [ 372437.79634713899577, 6959715.874915992841125, 0.0 ], [ 372423.871396417496726, 6959728.880052038468421, 0.0 ], [ 372416.262951295822859, 6959721.526236920617521, 0.0 ], [ 372412.104578804748598, 6959714.836321437731385, 0.0 ], [ 372402.182849992183037, 6959706.322530513629317, 0.0 ], [ 372394.845178780029528, 6959699.853761702775955, 0.0 ], [ 372398.184949276503175, 6959693.130943153053522, 0.0 ], [ 372413.87328402150888, 6959680.255923816002905, 0.0 ], [ 372425.367018513323274, 6959670.692850416526198, 0.0 ], [ 372477.873048042471055, 6959618.105926169082522, 0.0 ], [ 372505.32459470879985, 6959590.569529563188553, 0.0 ], [ 372522.868416128214449, 6959566.885440479964018, 0.0 ], [ 372545.101751381822396, 6959546.822295778430998, 0.0 ], [ 372576.501493760792073, 6959538.619424093514681, 0.0 ], [ 372582.779343354166485, 6959537.142292084172368, 0.0 ], [ 372603.041060132090934, 6959527.299241991713643, 0.0 ], [ 372614.826924242137466, 6959517.707244558259845, 0.0 ], [ 372632.803022941865493, 6959495.645732450298965, 0.0 ], [ 372646.417816609842703, 6959476.336357621476054, 0.0 ], [ 372661.836176185985096, 6959454.776442131027579, 0.0 ], [ 372691.913629824470263, 6959417.971177447587252, 0.0 ], [ 372714.427353337756358, 6959390.678920555859804, 0.0 ], [ 372729.017766528355423, 6959378.790577350184321, 0.0 ], [ 372749.245880915201269, 6959366.164587145671248, 0.0 ], [ 372773.889134056749754, 6959358.60707822535187, 0.0 ], [ 372775.830751791188959, 6959334.774717953056097, 0.0 ], [ 372779.462595585733652, 6959313.890429101884365, 0.0 ], [ 372947.676613838877529, 6959312.89530370850116, 0.0 ], [ 372957.140915257157758, 6959236.350179594941437, 0.0 ], [ 372869.906226663966663, 6959237.631746031343937, 0.0 ], [ 372741.085459834896028, 6959190.977799948304892, 0.0 ], [ 372655.35357151646167, 6959319.549894754774868, 0.0 ], [ 372438.872887754871044, 6959418.889630876481533, 0.0 ], [ 372410.190632191312034, 6959501.35812268126756, 0.0 ], [ 372263.40842997567961, 6959569.642901679500937, 0.0 ], [ 372035.802527821273543, 6959709.864106129854918, 0.0 ], [ 372036.149433652753942, 6959738.396805053576827, 0.0 ], [ 372038.845615199534222, 6959771.220350408926606, 0.0 ], [ 372042.031679659266956, 6959800.564702056348324, 0.0 ], [ 372042.884135607047938, 6959828.527949955314398, 0.0 ], [ 372042.551401560776867, 6959849.700576255097985, 0.0 ], [ 372041.737607908551581, 6959873.875474311411381, 0.0 ] ] ] ] } },
{ "type": "Feature", "properties": { "PROPIET": "SOC. PUNTA DEL COBRE S.A.", "INMUEBLE": "PUNTA DEL COBRE", "INSCRIP": "FJ. 1617 N 1100 AÑO 1982", "Nom_Layer": "24-57", "SECTOR": "MINA RAMPA", "SUPERF": 5.929313, "DESTINO": "INSTALACIONES MINA", "TIPO": "SIN CERCO O CIERRE", "UNIDAD": "MPC", "HV2": "https://pucobre.sharepoint.com/:f:/s/PropiedadSuperficial/EnXBJQewZuFDgLU7BNA4ErkBKMajVySG9kj6Bw0XfqkJEg?e=1aWHxm", "area": 5.92931328326, "REGION": "ATACAMA" }, "geometry": { "type": "MultiPolygon", "coordinates": [ [ [ [ 375918.352467484888621, 6957848.242332227528095, 0.0 ], [ 376067.382134299841709, 6957854.660120753571391, 0.0 ], [ 376066.574778332666028, 6957874.64321871381253, 0.0 ], [ 376176.469647554855328, 6957879.375712744891644, 0.0 ], [ 376241.459029806777835, 6957753.159738536924124, 0.0 ], [ 376301.302692986093462, 6957755.890915721654892, 0.0 ], [ 376305.032711096690036, 6957655.97221690043807, 0.0 ], [ 376244.290162232995499, 6957653.28791378159076, 0.0 ], [ 376244.980342569702771, 6957642.045351270586252, 0.0 ], [ 376189.00834278750699, 6957639.880750457756221, 0.0 ], [ 376188.002473254629876, 6957669.84795927722007, 0.0 ], [ 376076.725742954062298, 6957706.13572764582932, 0.0 ], [ 375924.46191171137616, 6957699.043117491528392, 0.0 ], [ 375918.352466914453544, 6957848.242332207038999, 0.0 ], [ 375918.352467484888621, 6957848.242332227528095, 0.0 ] ] ] ] } },
{ "type": "Feature", "properties": { "PROPIET": "SOC. PUNTA DEL COBRE S.A.", "INMUEBLE": "PUNTA DEL COBRE", "INSCRIP": "FJ. 3891 N 2644 AÑO 1994", "Nom_Layer": "7000-58", "SECTOR": "MINA RAMPA", "SUPERF": 2.154887, "DESTINO": "CHANCADOR PRIMARIO MINA", "TIPO": "CON CERCO O CIERRE", "UNIDAD": "MPC", "HV2": "https://pucobre.sharepoint.com/:f:/s/PropiedadSuperficial/EhEFaGk7iHlNj3wGyGqoWFIBzoDRyAzoNiA7JguPbH1PXA?e=ux2Kfd", "area": 2.1548873820400001, "REGION": "ATACAMA" }, "geometry": { "type": "MultiPolygon", "coordinates": [ [ [ [ 376076.725742954062298, 6957706.13572764582932, 0.0 ], [ 376188.002473254629876, 6957669.84795927722007, 0.0 ], [ 376191.692505470302422, 6957559.913258703425527, 0.0 ], [ 375936.841112871654332, 6957551.3621846716851, 0.0 ], [ 375935.165098057419527, 6957601.332684900611639, 0.0 ], [ 376080.078772403881885, 6957606.194727094843984, 0.0 ], [ 376076.725742954062298, 6957706.13572764582932, 0.0 ] ] ] ] } },
{ "type": "Feature", "properties": { "PROPIET": "SOC. PUNTA DEL COBRE S.A.", "INMUEBLE": "LOTE 1 CANCHA SAN JOSE", "INSCRIP": "FJ. 364 VTA. N 309 AÑO 1997", "Nom_Layer": "23-55", "SECTOR": "FUNDO BELLAVISTA", "SUPERF": 1.679059, "DESTINO": "CANCHA DEPORTIVA", "TIPO": "CON CERCO O CIERRE", "UNIDAD": "PSJ", "HV2": "https://pucobre.sharepoint.com/:f:/s/PropiedadSuperficial/EuqHpD8Lk6VAtJeCKbQidTIBghFRTETu8WikWccOD1XhVg?e=0yKl6h", "area": 1.8666298101000001, "REGION": "ATACAMA" }, "geometry": { "type": "MultiPolygon", "coordinates": [ [ [ [ 373979.179815008305013, 6959034.285472994670272, 0.0 ], [ 373992.948868840932846, 6959075.821298173628747, 0.0 ], [ 373997.387060195207596, 6959089.845234110951424, 0.0 ], [ 374003.775920389220119, 6959113.613558422774076, 0.0 ], [ 374012.595880150794983, 6959162.936188723891973, 0.0 ], [ 374141.929966669529676, 6959162.251302444376051, 0.0 ], [ 374115.487094826065004, 6959033.814115139655769, 0.0 ], [ 373979.179815008305013, 6959034.285472994670272, 0.0 ] ] ] ] } },
{ "type": "Feature", "properties": { "PROPIET": "SOC. PUNTA DEL COBRE S.A.", "INMUEBLE": "LOTE F-1  FUNDO MORALES", "INSCRIP": "FJ. 6552 N 2008 AÑO 2006", "Nom_Layer": "24-108", "SECTOR": "TIERRA AMARILLA", "SUPERF": 1.584714, "DESTINO": "APOYO SAN JOSE", "TIPO": "CON CERCO O CIERRE", "UNIDAD": "PSJ", "HV2": "https://pucobre.sharepoint.com/:f:/s/PropiedadSuperficial/EigsIMsQje9AjurozTdKmS4BA8u9I3mmb4MXQmsCLyqMdg?e=v8kfIL", "area": 1.58471365126, "REGION": "ATACAMA" }, "geometry": { "type": "MultiPolygon", "coordinates": [ [ [ [ 374042.527466893079691, 6958607.163052333518863, 0.0 ], [ 374001.403953617671505, 6958654.195506919175386, 0.0 ], [ 373993.300881834758911, 6958672.055151058360934, 0.0 ], [ 373986.787580428645015, 6958699.193745044991374, 0.0 ], [ 374195.311518921982497, 6958728.339935933239758, 0.0 ], [ 374204.901296885276679, 6958646.905094921588898, 0.0 ], [ 374079.365034224349074, 6958649.244859591126442, 0.0 ], [ 374079.441981008043513, 6958611.940977263264358, 0.0 ], [ 374042.527466895640828, 6958607.163052334450185, 0.0 ], [ 374042.527466893079691, 6958607.163052333518863, 0.0 ] ] ] ] } },
{ "type": "Feature", "properties": { "PROPIET": "SOC. PUNTA DEL COBRE S.A.", "INMUEBLE": "TERRENO TRINIDAD", "INSCRIP": "FJ. 5 VTA. N 5 AÑO 1993", "Nom_Layer": "7000-59", "SECTOR": "MINA TRINIDAD", "SUPERF": 64.441973, "DESTINO": "INSTALACIONES MINA", "TIPO": "SIN CERCO O CIERRE", "UNIDAD": "MPC", "HV2": "https://pucobre.sharepoint.com/:f:/s/PropiedadSuperficial/EnrHIS0wVR5BiUQiAV_ma1oBU7Antq84Vg2JPvHGAhK3ww?e=zFrtPl", "area": 64.441973255799994, "REGION": "ATACAMA" }, "geometry": { "type": "MultiPolygon", "coordinates": [ [ [ [ 375653.778416131390259, 6958424.239780237898231, 0.0 ], [ 375653.778143741015811, 6958633.917379142716527, 0.0 ], [ 375163.792241053190082, 6959018.905207818374038, 0.0 ], [ 375213.790621149353683, 6959118.902277775108814, 0.0 ], [ 376013.766789402812719, 6959118.903318388387561, 0.0 ], [ 376013.766918932204135, 6959018.906313691288233, 0.0 ], [ 376223.760662881890312, 6959018.906585740856826, 0.0 ], [ 376223.761632716807071, 6958268.929053843952715, 0.0 ], [ 376423.75567300588591, 6958268.929312502965331, 0.0 ], [ 376423.755957029061392, 6958048.935904264450073, 0.0 ], [ 376109.578286006813869, 6958048.935497740283608, 0.0 ], [ 376117.405062614823692, 6958067.634947559796274, 0.0 ], [ 376117.555035638215486, 6958085.024426691234112, 0.0 ], [ 376162.647577650670428, 6958109.035448780283332, 0.0 ], [ 376162.573287283303216, 6958238.45812298450619, 0.0 ], [ 375983.701702654536348, 6958238.457891173660755, 0.0 ], [ 375913.100851344643161, 6958298.927752384915948, 0.0 ], [ 375806.667815807566512, 6958315.533298226073384, 0.0 ], [ 375754.489757260424085, 6958424.832857990637422, 0.0 ], [ 375653.777768812491558, 6958424.239780236966908, 0.0 ], [ 375653.778416131390259, 6958424.239780237898231, 0.0 ] ] ] ] } },
{ "type": "Feature", "properties": { "PROPIET": "SOC. PUNTA DEL COBRE S.A.", "INMUEBLE": "LOTE A PJE. LAS FLORES", "INSCRIP": "FJ. 1459 VTA. N 1435 AÑO 2007", "Nom_Layer": "24-7", "SECTOR": "TIERRA AMARILLA", "SUPERF": 1.611204, "DESTINO": "APOYO SAN JOSE-MPC", "TIPO": "CON CERCO O CIERRE", "UNIDAD": "PSJ", "HV2": "https://pucobre.sharepoint.com/:f:/s/PropiedadSuperficial/EndW9DAIRjdCpw77zAjiDjcBx1nEWE47By3RgAy4CDQB5Q?e=m35IVv", "area": 1.5315318175599999, "REGION": "ATACAMA" }, "geometry": { "type": "MultiPolygon", "coordinates": [ [ [ [ 374417.772635641507804, 6958588.233362637460232, 0.000000000000114 ], [ 374419.090042786672711, 6958568.274919958785176, 0.000000000000114 ], [ 374227.247465727850795, 6958567.919907530769706, 0.000000000000114 ], [ 374220.320878831669688, 6958615.416058575734496, 0.000000000000114 ], [ 374665.476047715172172, 6958617.89321362413466, 0.000000000000114 ], [ 374660.919693112373352, 6958591.161424064077437, 0.000000000000114 ], [ 374510.849131980910897, 6958588.824657739140093, 0.000000000000114 ], [ 374417.772635641507804, 6958588.233362637460232, 0.000000000000114 ] ] ] ] } },
{ "type": "Feature", "properties": { "PROPIET": "SOC. PUNTA DEL COBRE S.A.", "INMUEBLE": "POZO MPC N 1", "INSCRIP": "FJ. 6653 N 2788 AÑO 1990", "Nom_Layer": "25-32", "SECTOR": "IGNACIO C. PINTO N 254", "SUPERF": 0.026349, "DESTINO": "PROTEGER POZO MPC", "TIPO": "CON CERCO O CIERRE", "UNIDAD": "MPC", "HV2": "https://pucobre.sharepoint.com/:f:/s/PropiedadSuperficial/EriHLldUGw5Lp1H3AgOHCokBCynht0Ptnerj6nUszgYEPg?e=GBGXTK", "area": 0.02634853998, "REGION": "ATACAMA" }, "geometry": { "type": "MultiPolygon", "coordinates": [ [ [ [ 374910.031621626694687, 6957625.816615596413612, 0.0 ], [ 374920.481309678638354, 6957626.186618177220225, 0.0 ], [ 374920.671337100851815, 6957600.867377223446965, 0.0 ], [ 374910.391644220682792, 6957600.317380259744823, 0.0 ], [ 374910.031621626694687, 6957625.816615596413612, 0.0 ] ] ] ] } },
{ "type": "Feature", "properties": { "PROPIET": "SOC. PUNTA DEL COBRE S.A.", "INMUEBLE": "P. AGUIRRE CERDA LOTE A1-B", "INSCRIP": "FS. 1481 Nº 1458 AÑO 2007", "Nom_Layer": "29-7", "SECTOR": "T.AMARILLA", "SUPERF": 6.928945, "DESTINO": "AMPARAR INSTALACIONES DE OPERACIONES MINA", "TIPO": "SIN CERCO O CIERRE", "UNIDAD": "MPC", "HV2": "https://pucobre.sharepoint.com/:f:/s/PropiedadSuperficial/ElfLuULOcOJCudlVnack65UBBLxqDzyQ6hQI3OWhJX0sFA?e=ecWxRn", "area": 6.9289450264400001, "REGION": "ATACAMA" }, "geometry": { "type": "MultiPolygon", "coordinates": [ [ [ [ 375935.161098183307331, 6957601.32868501637131, 0.0 ], [ 375932.586091481905896, 6957603.781104238703847, 0.0 ], [ 375808.495078347797971, 6957598.730095569044352, 0.0 ], [ 375805.380661471688654, 6957681.619365334510803, 0.0 ], [ 375630.679621800140012, 6957674.63456560857594, 0.0 ], [ 375636.776346301485319, 6957761.94737303070724, 0.0 ], [ 375650.242745638941415, 6957758.206682212650776, 0.0 ], [ 375689.972954021999612, 6957754.49607284925878, 0.0 ], [ 375765.159676128765568, 6957752.149861633777618, 0.0 ], [ 375770.295807387446985, 6957759.15374119579792, 0.0 ], [ 375764.605826495797373, 6957875.090259528718889, 0.0 ], [ 375772.205599969311152, 6957875.110268803313375, 0.0 ], [ 375775.485476531204768, 6957894.899680046364665, 0.0 ], [ 375781.505273893708363, 6957912.799151489511132, 0.0 ], [ 375787.165093533520121, 6957921.79888915643096, 0.0 ], [ 375795.874826041341294, 6957927.898717682808638, 0.0 ], [ 375793.544882191927172, 6957938.138407815247774, 0.0 ], [ 375821.344050103740301, 6957940.908360917121172, 0.0 ], [ 375827.033885783108417, 6957936.858489664271474, 0.0 ], [ 375853.313106982677709, 6957933.46862536482513, 0.0 ], [ 375865.052280586329289, 6957934.271401208825409, 0.0 ], [ 375868.49768805137137, 6957850.130843859165907, 0.0 ], [ 375918.449865490663797, 6957852.281976077705622, 0.0 ], [ 375924.559309717034921, 6957703.082761337049305, 0.0 ], [ 376076.446260582539253, 6957708.998628297820687, 0.0 ], [ 376080.854156120214611, 6957609.098593973554671, 0.0 ], [ 375935.161098183307331, 6957601.32868501637131, 0.0 ] ] ] ] } },
{ "type": "Feature", "properties": { "PROPIET": "SOC. PUNTA DEL COBRE S.A.", "INMUEBLE": "TERRENO MINA PTA DEL COBRE", "INSCRIP": "FS. 1098 VTA. Nº 873 AÑO 2008", "Nom_Layer": "7000-132", "SECTOR": "T.AMARILLA", "SUPERF": 3.904413, "DESTINO": "AMPARAR INSTALACIONES DE ACCESO A MINA PC", "TIPO": "SIN CERCO O CIERRE", "UNIDAD": "MPC", "HV2": "https://pucobre.sharepoint.com/:f:/s/PropiedadSuperficial/Ep9oifRNBHtPq6PCxPdT0A8BjdMCKIq3v7Zv1bJjIYvLCA?e=QbgxpW", "area": 3.9044128718, "REGION": "ATACAMA" }, "geometry": { "type": "MultiPolygon", "coordinates": [ [ [ [ 375667.308049830084201, 6957674.409905035048723, 0.0 ], [ 375805.401251337432768, 6957681.093652786687016, 0.0 ], [ 375808.494141208124347, 6957598.730095569044352, 0.0 ], [ 375935.164160921820439, 6957601.332684899680316, 0.0 ], [ 375938.202395091182552, 6957552.760740231722593, 0.0 ], [ 375941.281152140698396, 6957418.954158768057823, 0.0 ], [ 375831.726650791824795, 6957418.954016577452421, 0.0 ], [ 375667.308049830084201, 6957674.409905035048723, 0.0 ] ] ] ] } },
{ "type": "Feature", "properties": { "PROPIET": "SOC. PUNTA DEL COBRE S.A.", "INMUEBLE": "SIERRA EL BUITRE III-2-443-CR", "INSCRIP": "FS. 346 Nº 304 AÑO 1997", "Nom_Layer": "7000-64", "SECTOR": "T.AMARILLA", "SUPERF": 19.257791, "DESTINO": "AMPARAR INSTALACIONES PLANTA SAN JOSE Y TRANQUE", "TIPO": "CON CERCO O CIERRE", "UNIDAD": "PSJ", "HV2": "https://pucobre.sharepoint.com/:f:/s/PropiedadSuperficial/Es1WrkzHDLlIvP3OX7oE9wsBhmVXqZg1MprIcz2f3KCPWw?e=AEaczu", "area": 19.257791043800001, "REGION": "ATACAMA" }, "geometry": { "type": "MultiPolygon", "coordinates": [ [ [ [ 372937.746176353015471, 6959394.339159710332751, 0.0 ], [ 373002.176826146198437, 6959403.623200869187713, 0.0 ], [ 373300.954614879796281, 6959446.675153009593487, 0.0 ], [ 373576.581772346282378, 6959486.043337658047676, 0.0 ], [ 373927.35940180363832, 6959536.787966865114868, 0.0 ], [ 373952.114013693819288, 6959360.830743543803692, 0.0 ], [ 373654.836796645075083, 6959320.894180411472917, 0.0 ], [ 373656.799327585962601, 6959296.362955003976822, 0.0 ], [ 373169.592542708502151, 6959226.166489746421576, 0.0 ], [ 372962.66157316789031, 6959197.290146196261048, 0.0 ], [ 372937.746176353015471, 6959394.339159710332751, 0.0 ] ] ] ] } },
{ "type": "Feature", "properties": { "PROPIET": "SOC. PUNTA DEL COBRE S.A.", "INMUEBLE": "LOTE D,  QDA. EL BUITRE", "INSCRIP": "FS. 361 Nº 308 AÑO 1997", "Nom_Layer": "7000-9", "SECTOR": "T.AMARILLA", "SUPERF": 4.209562, "DESTINO": "AMPARAR INSTALACIONES PLANTA SAN JOSE Y TRANQUE", "TIPO": "CON CERCO O CIERRE", "UNIDAD": "PSJ", "HV2": "https://pucobre.sharepoint.com/:f:/s/PropiedadSuperficial/EgAgOdjR5MBHhfmprjIpVqgBlX1DA6oZ9yqtdPg-vcB6ow?e=JmrPF0", "area": 4.2095619384400003, "REGION": "ATACAMA" }, "geometry": { "type": "MultiPolygon", "coordinates": [ [ [ [ 373083.591257331660017, 6959214.1653733542189, 0.0 ], [ 373099.566028054628987, 6959216.394585190340877, 0.0 ], [ 373116.36115148384124, 6959210.436459881253541, 0.0 ], [ 373137.778935636568349, 6959203.290366379544139, 0.0 ], [ 373156.262995502271224, 6959195.968207973986864, 0.0 ], [ 373194.367284080595709, 6959183.154731309041381, 0.0 ], [ 373214.761527272698004, 6959177.405320536345243, 0.0 ], [ 373233.779431091854349, 6959172.23217208404094, 0.0 ], [ 373278.759544746018946, 6959162.162238945253193, 0.0 ], [ 373301.025285736774094, 6959157.053504444658756, 0.0 ], [ 373313.747821523284074, 6959156.315473821014166, 0.0 ], [ 373327.288113691669423, 6959155.530005386099219, 0.0 ], [ 373337.435756971943192, 6959155.213156551122665, 0.0 ], [ 373367.959752912283875, 6959161.82967090792954, 0.0 ], [ 373399.80321790126618, 6959170.997560428455472, 0.0 ], [ 373414.376027521968354, 6959176.589473713189363, 0.0 ], [ 373448.240136617387179, 6959189.78062660805881, 0.0 ], [ 373496.938254938693717, 6959209.328976599499583, 0.0 ], [ 373538.20362870930694, 6959226.800539032556117, 0.0 ], [ 373578.328145924955606, 6959243.390056811273098, 0.0 ], [ 373627.890230303513817, 6959263.670341860502958, 0.0 ], [ 373647.088089675176889, 6959271.740396056324244, 0.0 ], [ 373701.613409394631162, 6959297.6491555320099, 0.0 ], [ 373705.644921406055801, 6959289.323600774630904, 0.0 ], [ 373648.849115234159399, 6959249.30673105083406, 0.0 ], [ 373588.381216795183718, 6959213.220947245135903, 0.0 ], [ 373545.487161005206872, 6959191.250797195360065, 0.0 ], [ 373513.626023581018671, 6959169.813083237037063, 0.0 ], [ 373485.338562187389471, 6959140.43403001036495, 0.0 ], [ 373459.225534897879697, 6959099.503913020715117, 0.0 ], [ 373447.081340362434275, 6959072.436907209455967, 0.0 ], [ 373434.843754529487342, 6959014.903054807335138, 0.0 ], [ 373352.803866222151555, 6959014.902946183457971, 0.0 ], [ 373329.507947900448926, 6959039.723185081034899, 0.0 ], [ 373315.280549816088751, 6959055.352742241695523, 0.0 ], [ 373301.347826671320945, 6959066.442020550370216, 0.0 ], [ 373274.835121834883466, 6959087.543908493593335, 0.0 ], [ 373266.848654783447273, 6959093.900465989485383, 0.0 ], [ 373252.532208605203778, 6959113.058296820148826, 0.0 ], [ 373231.694386068207677, 6959123.477171869948506, 0.0 ], [ 373170.07961074821651, 6959146.261069750413299, 0.0 ], [ 373120.784646933549084, 6959169.218494066037238, 0.0 ], [ 373100.381018439598847, 6959175.061423934996128, 0.0 ], [ 373083.85399568954017, 6959177.355176279321313, 0.0 ], [ 373083.591257331660017, 6959214.1653733542189, 0.0 ] ] ] ] } },
{ "type": "Feature", "properties": { "PROPIET": "SOC. PUNTA DEL COBRE S.A.", "INMUEBLE": "LOTE B,  QDA. EL BUITRE III-2-2510-CR", "INSCRIP": "FS. 349 VTA. Nº 305 AÑO 1997", "Nom_Layer": "7000-7", "SECTOR": "T.AMARILLA", "SUPERF": 32.140515, "DESTINO": "AMPARAR INSTALACIONES PLANTA SAN JOSE Y TRANQUE", "TIPO": "CON CERCO O CIERRE", "UNIDAD": "PSJ", "HV2": "https://pucobre.sharepoint.com/:f:/s/PropiedadSuperficial/Eu301kORS6xJoVC-DLweCw0BgKsHVn1p7D_x3yAT62Bs2Q?e=YmwbYa", "area": 32.140515376300002, "REGION": "ATACAMA" }, "geometry": { "type": "MultiPolygon", "coordinates": [ [ [ [ 373927.35940180363832, 6959536.787966865114868, 0.0 ], [ 373576.581772346282378, 6959486.043337658047676, 0.0 ], [ 373300.954614879796281, 6959446.675153009593487, 0.0 ], [ 373002.176826146198437, 6959403.623200869187713, 0.0 ], [ 372937.746176353015471, 6959394.339159710332751, 0.0 ], [ 372948.040179527539294, 6959312.926722864620388, 0.0 ], [ 372933.819148404931184, 6959312.977282117120922, 0.0 ], [ 372924.398413971764967, 6959333.153793746605515, 0.0 ], [ 372916.696458639693446, 6959344.364004347473383, 0.0 ], [ 372905.022872349130921, 6959356.68107283115387, 0.0 ], [ 372883.433614578505512, 6959372.265091293491423, 0.0 ], [ 372858.76508917438332, 6959384.930713647045195, 0.0 ], [ 372816.371689569612499, 6959408.075054416432977, 0.0 ], [ 372791.756787830672693, 6959422.739897834137082, 0.0 ], [ 372759.279059681110084, 6959442.617288619279861, 0.0 ], [ 372725.855344497307669, 6959464.520712306722999, 0.0 ], [ 372704.34652219369309, 6959483.103562361560762, 0.0 ], [ 372662.301676424860489, 6959519.242840091697872, 0.0 ], [ 372662.083280646649655, 6959519.464053999632597, 0.0 ], [ 372640.12515446433099, 6959538.997025695629418, 0.0 ], [ 372621.297432153252885, 6959566.44608074054122, 0.0 ], [ 372609.705318055348471, 6959586.10801677685231, 0.0 ], [ 372603.140691767912358, 6959604.919766227714717, 0.0 ], [ 372597.665191949345171, 6959620.762811422348022, 0.0 ], [ 372589.832234384608455, 6959648.540408581495285, 0.0 ], [ 372583.028668352635577, 6959675.348349301144481, 0.0 ], [ 372564.45378338888986, 6959727.815369539894164, 0.0 ], [ 372550.086066963849589, 6959773.405192296952009, 0.0 ], [ 372540.433266032719985, 6959795.125911114737391, 0.0 ], [ 372532.064709863683674, 6959813.450672044418752, 0.0 ], [ 372554.305449801555369, 6959817.008398582227528, 0.0 ], [ 372592.942036056716461, 6959828.599911112338305, 0.0 ], [ 372595.720803338859696, 6959819.494132488965988, 0.0 ], [ 372597.33323530270718, 6959808.500932788476348, 0.0 ], [ 372598.515414679772221, 6959794.200997764244676, 0.0 ], [ 372599.682185424724594, 6959768.950955105945468, 0.0 ], [ 372601.910465398337692, 6959747.15773949958384, 0.0 ], [ 372605.617898953671101, 6959717.779263780452311, 0.0 ], [ 372610.981585372239351, 6959694.56398162804544, 0.0 ], [ 372619.069032070692629, 6959660.429997157305479, 0.0 ], [ 372633.610386647749692, 6959619.551637072116137, 0.0 ], [ 372636.077832621755078, 6959615.760425884276628, 0.0 ], [ 372655.171559253300074, 6959588.535546688362956, 0.0 ], [ 372677.569341417984106, 6959563.259964906610548, 0.0 ], [ 372700.531833710148931, 6959541.133753508329391, 0.0 ], [ 372709.191156154905912, 6959531.392043451778591, 0.0 ], [ 372723.851089158677496, 6959515.366344111040235, 0.0 ], [ 372743.540345376357436, 6959500.172038602642715, 0.0 ], [ 372734.167032237397507, 6959530.262358974665403, 0.0 ], [ 372723.778705179342069, 6959564.301930950954556, 0.0 ], [ 372714.317008334270213, 6959615.472834467887878, 0.0 ], [ 372716.286592852149624, 6959642.015317200683057, 0.0 ], [ 372722.649832651019096, 6959667.977122936397791, 0.0 ], [ 372731.659503167495131, 6959678.040082519873977, 0.0 ], [ 372741.199158613337204, 6959685.454897028394043, 0.0 ], [ 372744.379047752998304, 6959684.925273697823286, 0.0 ], [ 372748.61890322342515, 6959681.747505996376276, 0.0 ], [ 372754.448712066980079, 6959671.684566162526608, 0.0 ], [ 372758.688584305229597, 6959660.032741529867053, 0.0 ], [ 372762.707184388069436, 6959641.040531196631491, 0.0 ], [ 372771.977026686363388, 6959602.590378383174539, 0.0 ], [ 372773.502398532407824, 6959591.569169483147562, 0.0 ], [ 372778.368472730682697, 6959566.344273577444255, 0.0 ], [ 372803.467004714068025, 6959490.11472419463098, 0.0 ], [ 372813.861650590144563, 6959469.46104792598635, 0.0 ], [ 373225.281482951657381, 6959596.440216617658734, 0.0 ], [ 373199.846277048462071, 6959779.87942948564887, 0.0 ], [ 373880.82890386309009, 6959873.881048820912838, 0.0 ], [ 373927.35940180363832, 6959536.787966865114868, 0.0 ] ] ] ] } },
{ "type": "Feature", "properties": { "PROPIET": "SOC. PUNTA DEL COBRE S.A.", "INMUEBLE": "LOTE C,  QDA. EL BUITRE III-2-2510-CR", "INSCRIP": "FS. 357 Nº 307 AÑO 1997\r\n", "Nom_Layer": "7000-8", "SECTOR": "T.AMARILLA", "SUPERF": 3.525596, "DESTINO": "AMPARAR INSTALACIONES PLANTA SAN JOSE Y TRANQUE", "TIPO": "CON CERCO O CIERRE", "UNIDAD": "PSJ", "HV2": "https://pucobre.sharepoint.com/:f:/s/PropiedadSuperficial/EoAg32OQ5iRKi52thpnKP-MBBzQfCIsnkQr_5_XOkHuYTA?e=4NNgRX", "area": 3.5255957230399999, "REGION": "ATACAMA" }, "geometry": { "type": "MultiPolygon", "coordinates": [ [ [ [ 373701.613409394631162, 6959297.6491555320099, 0.0 ], [ 373647.088089675176889, 6959271.740396056324244, 0.0 ], [ 373627.890230303513817, 6959263.670341860502958, 0.0 ], [ 373578.328145924955606, 6959243.390056811273098, 0.0 ], [ 373538.20362870930694, 6959226.800539032556117, 0.0 ], [ 373496.938254938693717, 6959209.328976599499583, 0.0 ], [ 373448.240136617387179, 6959189.78062660805881, 0.0 ], [ 373414.376027521968354, 6959176.589473713189363, 0.0 ], [ 373399.80321790126618, 6959170.997560428455472, 0.0 ], [ 373367.959752912283875, 6959161.82967090792954, 0.0 ], [ 373337.435756971943192, 6959155.213156551122665, 0.0 ], [ 373327.288113691669423, 6959155.530005386099219, 0.0 ], [ 373313.747821523284074, 6959156.315473821014166, 0.0 ], [ 373301.025285736774094, 6959157.053504444658756, 0.0 ], [ 373278.759544746018946, 6959162.162238945253193, 0.0 ], [ 373233.779431091854349, 6959172.23217208404094, 0.0 ], [ 373214.761527272698004, 6959177.405320536345243, 0.0 ], [ 373194.367284080595709, 6959183.154731309041381, 0.0 ], [ 373156.262995502271224, 6959195.968207973986864, 0.0 ], [ 373137.778935636568349, 6959203.290366379544139, 0.0 ], [ 373116.36115148384124, 6959210.436459881253541, 0.0 ], [ 373099.566028054628987, 6959216.394585190340877, 0.0 ], [ 373656.799327585962601, 6959296.362955003976822, 0.0 ], [ 373654.836796645075083, 6959320.894180411472917, 0.0 ], [ 373771.863602723460644, 6959336.615696202963591, 0.0 ], [ 373714.035079791734461, 6959310.394573092460632, 0.0 ], [ 373698.939052333356813, 6959303.532719494774938, 0.0 ], [ 373701.613409394631162, 6959297.6491555320099, 0.0 ] ] ] ] } },
{ "type": "Feature", "properties": { "PROPIET": "SOC. PUNTA DEL COBRE S.A.", "INMUEBLE": "LOTE A, QDA. EL BUITRE\r\n", "INSCRIP": "FS. 353 VTA. Nº 306 AÑO 1997", "Nom_Layer": "7000-6", "SECTOR": "T.AMARILLA", "SUPERF": 5.076145, "DESTINO": "AMPARAR INSTALACIONES PLANTA SAN JOSE Y TRANQUE", "TIPO": "CON CERCO O CIERRE", "UNIDAD": "PSJ", "HV2": "https://pucobre.sharepoint.com/:f:/s/PropiedadSuperficial/Ep0WED7mLNZMlxmyDXlUxwMBxDPO9IuXYN9NQRCPl06IwA?e=FdWFJi", "area": 5.0761453915799999, "REGION": "ATACAMA" }, "geometry": { "type": "MultiPolygon", "coordinates": [ [ [ [ 372525.902314610022586, 6959812.699196978472173, 0.0 ], [ 372535.495380611158907, 6959792.977525975555182, 0.0 ], [ 372544.178524937538896, 6959770.227415787056088, 0.0 ], [ 372559.515897969016805, 6959725.666984404437244, 0.0 ], [ 372578.031048001837917, 6959675.199011983349919, 0.0 ], [ 372591.66804752999451, 6959620.583606641739607, 0.0 ], [ 372596.173890746256802, 6959603.711170076392591, 0.0 ], [ 372610.123462590505369, 6959572.114682083949447, 0.0 ], [ 372621.625974286114797, 6959555.451317768543959, 0.0 ], [ 372652.460423941549379, 6959519.401613282039762, 0.0 ], [ 372667.031611535290722, 6959509.112675531767309, 0.0 ], [ 372701.213630889542401, 6959478.185945171862841, 0.0 ], [ 372717.85845888737822, 6959464.735206983983517, 0.0 ], [ 372757.172590917150956, 6959438.672470135614276, 0.0 ], [ 372783.75990222429391, 6959422.954392516985536, 0.0 ], [ 372816.291254045383539, 6959405.07622280344367, 0.0 ], [ 372857.658231105422601, 6959380.959083334542811, 0.0 ], [ 372878.38193739374401, 6959370.399929400533438, 0.0 ], [ 372892.108368774759583, 6959360.028458317741752, 0.0 ], [ 372905.754364624677692, 6959346.658155623823404, 0.0 ], [ 372916.455152058275416, 6959335.367509514093399, 0.0 ], [ 372924.130295546492562, 6959323.157688377425075, 0.0 ], [ 372927.70194703550078, 6959314.094878847710788, 0.0 ], [ 372927.876088398799766, 6959313.012440249323845, 0.0 ], [ 372779.462595585733652, 6959313.890429101884365, 0.0 ], [ 372775.830751791188959, 6959334.774717953056097, 0.0 ], [ 372773.889134056749754, 6959358.60707822535187, 0.0 ], [ 372749.245880915201269, 6959366.164587145671248, 0.0 ], [ 372729.017766528355423, 6959378.790577350184321, 0.0 ], [ 372714.427353337756358, 6959390.678920555859804, 0.0 ], [ 372691.913629824470263, 6959417.971177447587252, 0.0 ], [ 372661.836176185985096, 6959454.776442131027579, 0.0 ], [ 372646.417816609842703, 6959476.336357621476054, 0.0 ], [ 372632.803022941865493, 6959495.645732450298965, 0.0 ], [ 372614.826924242137466, 6959517.707244558259845, 0.0 ], [ 372603.041060132090934, 6959527.299241991713643, 0.0 ], [ 372582.779343354166485, 6959537.142292084172368, 0.0 ], [ 372576.501493760792073, 6959538.619424093514681, 0.0 ], [ 372545.101751381822396, 6959546.822295778430998, 0.0 ], [ 372522.868416128214449, 6959566.885440479964018, 0.0 ], [ 372505.32459470879985, 6959590.569529563188553, 0.0 ], [ 372477.873048042471055, 6959618.105926169082522, 0.0 ], [ 372425.367018513323274, 6959670.692850416526198, 0.0 ], [ 372413.87328402150888, 6959680.255923816002905, 0.0 ], [ 372398.184949276503175, 6959693.130943153053522, 0.0 ], [ 372394.845178780029528, 6959699.853761702775955, 0.0 ], [ 372402.182849992183037, 6959706.322530513629317, 0.0 ], [ 372412.104578804748598, 6959714.836321437731385, 0.0 ], [ 372416.262951295822859, 6959721.526236920617521, 0.0 ], [ 372423.871396417496726, 6959728.880052038468421, 0.0 ], [ 372437.79634713899577, 6959715.874915992841125, 0.0 ], [ 372444.626199029851705, 6959710.851850645616651, 0.0 ], [ 372449.488206084119156, 6959707.016145067289472, 0.0 ], [ 372454.903764893184416, 6959700.467682350426912, 0.0 ], [ 372459.769989696098492, 6959699.780757584609091, 0.0 ], [ 372466.103392943798099, 6959709.674852313473821, 0.0 ], [ 372466.404585676034912, 6959716.432026606053114, 0.0 ], [ 372460.145060211769305, 6959737.545341460965574, 0.0 ], [ 372453.549698841350619, 6959768.294838259927928, 0.0 ], [ 372443.870670793461613, 6959788.878131969831884, 0.0 ], [ 372468.216836812498514, 6959794.67594263330102, 0.0 ], [ 372476.599227341590449, 6959797.525967418216169, 0.0 ], [ 372518.251039660884999, 6959811.253736723214388, 0.0 ], [ 372524.420348112122156, 6959812.227846328169107, 0.0 ], [ 372526.00805061153369, 6959812.481822200119495, 0.0 ], [ 372525.902314610022586, 6959812.699196978472173, 0.0 ] ] ] ] } },
{ "type": "Feature", "properties": { "PROPIET": "SOC. PUNTA DEL COBRE S.A.", "INMUEBLE": "PAÑO 2", "INSCRIP": "FJ. 2463 N 2452 AÑO 2007", "Nom_Layer": "24-149", "SECTOR": "PARCELA EL CASTILLO", "SUPERF": 5.196804, "DESTINO": "APOYO PLANTA SAN JOSE", "TIPO": "CON CERCO O CIERRE", "UNIDAD": "PSJ", "HV2": "https://pucobre.sharepoint.com/:f:/s/PropiedadSuperficial/EiDF9K7ms9RNn4vfEF52ZjkB2doDeggnXWImiPwS76RfcQ?e=D3a5Zh", "area": 5.1968036334400001, "REGION": "ATACAMA" }, "geometry": { "type": "MultiPolygon", "coordinates": [ [ [ [ 374673.47223363420926, 6958342.899818209931254, 0.0 ], [ 374840.822744814155158, 6958344.424991708248854, 0.0 ], [ 374984.798458447272424, 6958341.425269927829504, 0.0 ], [ 374987.298410074552521, 6958321.425872412510216, 0.0 ], [ 374929.300132480333559, 6958325.925661747343838, 0.0 ], [ 374933.600012186565436, 6958319.925847137346864, 0.0 ], [ 374940.799823772103991, 6958299.926455773413181, 0.0 ], [ 374942.799786385206971, 6958282.926967729814351, 0.0 ], [ 374941.29983957496006, 6958276.427160516381264, 0.0 ], [ 374931.800142912950832, 6958260.927612494677305, 0.0 ], [ 374925.329482948814984, 6958148.270979562774301, 0.0 ], [ 374668.627132777124643, 6958148.336641477420926, 0.0 ], [ 374673.47223363420926, 6958342.899818209931254, 0.0 ] ] ] ] } },
{ "type": "Feature", "properties": { "PROPIET": "SOC. PUNTA DEL COBRE S.A.", "INMUEBLE": "PAÑO 1 B", "INSCRIP": "FJ. 2461 VTA. N 2451 AÑO 2007", "Nom_Layer": "24-148", "SECTOR": "PARCELA EL CASTILLO", "SUPERF": 5.269975, "DESTINO": "APOYO PLANTA SAN JOSE", "TIPO": "CON CERCO O CIERRE", "UNIDAD": "PSJ", "HV2": "https://pucobre.sharepoint.com/:f:/s/PropiedadSuperficial/Emx2JHQ865ZEvqkTQhPTC_UBggzv380WMf27Gu12a-aAnw?e=mPbh4e", "area": 5.2699746725300001, "REGION": "ATACAMA" }, "geometry": { "type": "MultiPolygon", "coordinates": [ [ [ [ 374359.432092354865745, 6958342.338422911241651, 0.0 ], [ 374633.473525637818966, 6958342.828767905011773, 0.0 ], [ 374628.623324842832517, 6958148.394587298855186, 0.0 ], [ 374359.778336510527879, 6958148.47623198106885, 0.0 ], [ 374359.432092354865745, 6958342.338422911241651, 0.0 ] ] ] ] } },
{ "type": "Feature", "properties": { "PROPIET": "SOC. PUNTA DEL COBRE S.A.", "INMUEBLE": "CHAÐARCILLO 131", "INSCRIP": "FJ. 6014 N 3020 AÑO 2010", "Nom_Layer": "123-13", "SECTOR": "OFICINAS COPIAPO", "SUPERF": 0.04366, "DESTINO": "OFICINAS COPIAPO", "TIPO": "CON CERCO O CIERRE", "UNIDAD": "OF. GENERALES", "HV2": "https://pucobre.sharepoint.com/:f:/s/PropiedadSuperficial/EvftXekRpmpJpPkZl3QdhXQB6r0TuETKTVcyCfpJo97p5Q?e=XpkTqD", "area": 0.04366048035, "REGION": "ATACAMA" }, "geometry": { "type": "MultiPolygon", "coordinates": [ [ [ [ 367437.417356585967354, 6972491.27933167014271, 0.0 ], [ 367435.475847488967702, 6972492.690076227299869, 0.0 ], [ 367438.003431903605815, 6972496.168612799607217, 0.0 ], [ 367459.275781938340515, 6972509.30063499417156, 0.0 ], [ 367484.139117559825536, 6972529.717949502170086, 0.0 ], [ 367489.597520710318349, 6972525.786660580895841, 0.0 ], [ 367461.042184538324364, 6972496.761999049223959, 0.0 ], [ 367456.835871161485557, 6972500.962625643238425, 0.0 ], [ 367449.379588312818669, 6972496.206248606555164, 0.0 ], [ 367445.290626386296935, 6972499.177789120003581, 0.0 ], [ 367437.418150485726073, 6972491.280128110200167, 0.0 ], [ 367437.417356585967354, 6972491.27933167014271, 0.0 ] ] ] ] } },
{ "type": "Feature", "properties": { "PROPIET": "SOC. PUNTA DEL COBRE S.A.", "INMUEBLE": "CHAÑARCILLO 131-A", "INSCRIP": "FS. 6291 Nº 2736 AÑO 2008", "Nom_Layer": "123-12", "SECTOR": "COPIAPO", "SUPERF": 0.023798, "DESTINO": "AMPARAR INSTALACIONES DE OFICINAS Y AREAS DEPORTIVAS", "TIPO": "CON CERCO O CIERRE", "UNIDAD": "OF. GENERALES", "HV2": "https://pucobre.sharepoint.com/:f:/s/PropiedadSuperficial/EnLvthGH6ahJl3Zjvm7m7ycBhuGAKM_FW9PEa_F8cR3w1Q?e=x3rPbU", "area": 0.02379840921, "REGION": "ATACAMA" }, "geometry": { "type": "MultiPolygon", "coordinates": [ [ [ [ 367436.241735928517301, 6972489.661407683975995, 0.0 ], [ 367437.417356585967354, 6972491.27933167014271, 0.0 ], [ 367445.290626386296935, 6972499.177789120003581, 0.0 ], [ 367449.379588312818669, 6972496.206248606555164, 0.0 ], [ 367456.835871161485557, 6972500.962625643238425, 0.0 ], [ 367461.042184538324364, 6972496.761999049223959, 0.0 ], [ 367455.861231012735516, 6972491.495893209241331, 0.0 ], [ 367448.21840103645809, 6972480.967359195463359, 0.0 ], [ 367436.241735928517301, 6972489.661407683975995, 0.0 ] ] ] ] } },
{ "type": "Feature", "properties": { "PROPIET": "SOC. PUNTA DEL COBRE S.A.", "INMUEBLE": "CHAÐARCILLO 141 SITIO 3", "INSCRIP": "FJ. 12241 N 2973 AÑO 2003", "Nom_Layer": "123-028", "SECTOR": "OFICINAS COPIAPO", "SUPERF": 0.030262, "DESTINO": "OFICINAS COPIAPO", "TIPO": "CON CERCO O CIERRE", "UNIDAD": "OF. GENERALES", "HV2": "https://pucobre.sharepoint.com/:f:/s/PropiedadSuperficial/EgSrDNmv_qNGsKCLh3V7u08BCHsXb5okY6vfNmvGSf0UnA?e=upNNoT", "area": 0.03026238877, "REGION": "ATACAMA" }, "geometry": { "type": "MultiPolygon", "coordinates": [ [ [ [ 367470.909842056920752, 6972506.791837882250547, 0.0 ], [ 367489.597520710318349, 6972525.786660580895841, 0.0 ], [ 367497.542874815699179, 6972520.064202619716525, 0.0 ], [ 367479.972238517715596, 6972498.264521512202919, 0.0 ], [ 367470.909842056920752, 6972506.791837882250547, 0.0 ] ] ] ] } },
{ "type": "Feature", "properties": { "PROPIET": "SOC. PUNTA DEL COBRE S.A.", "INMUEBLE": "CHAÑARCILLO 141 ST 2", "INSCRIP": "FS. 9233 Nº 3388 AÑO 2011", "Nom_Layer": "123-27", "SECTOR": "COPIAPO", "SUPERF": 0.02276, "DESTINO": "AMPARAR INSTALACIONES DE OFICINAS Y AREAS DEPORTIVAS", "TIPO": "CON CERCO O CIERRE", "UNIDAD": "OF. GENERALES", "HV2": "https://pucobre.sharepoint.com/:f:/s/PropiedadSuperficial/EqOqlwZNAklIs03TF__KfRwBpsCkChxw7Fkj2TOB5Qd1ww?e=eoIImx", "area": 0.02276015121, "REGION": "ATACAMA" }, "geometry": { "type": "MultiPolygon", "coordinates": [ [ [ [ 367450.967355600441806, 6972478.902865427546203, 0.0 ], [ 367448.21840103645809, 6972480.967359195463359, 0.0 ], [ 367455.861231012735516, 6972491.495893209241331, 0.0 ], [ 367461.042184538324364, 6972496.761999049223959, 0.0 ], [ 367470.909842056920752, 6972506.791837882250547, 0.0 ], [ 367477.212415078945924, 6972500.861393950879574, 0.0 ], [ 367467.194314089720137, 6972487.25659869518131, 0.0 ], [ 367460.707848829042632, 6972492.254388551227748, 0.0 ], [ 367450.967355600441806, 6972478.902865427546203, 0.0 ] ] ] ] } },
{ "type": "Feature", "properties": { "PROPIET": "SOC. PUNTA DEL COBRE S.A.", "INMUEBLE": "CHAÑARCILLO 141 ST 1", "INSCRIP": "FS. 10342 VTA Nº 4259 AÑO 2011", "Nom_Layer": "123-14", "SECTOR": "COPIAPO", "SUPERF": 0.025884, "DESTINO": "AMPARAR INSTALACIONES DE OFICINAS Y AREAS DEPORTIVAS", "TIPO": "CON CERCO O CIERRE", "UNIDAD": "OF. GENERALES", "HV2": "https://pucobre.sharepoint.com/:f:/s/PropiedadSuperficial/EhMOzWAGz79EtOlvRmi7R5wBObBDBtzEIl2mNCiRmfTSbA?e=8emyPG", "area": 0.02588398974, "REGION": "ATACAMA" }, "geometry": { "type": "MultiPolygon", "coordinates": [ [ [ [ 367450.967355600441806, 6972478.902865427546203, 0.0 ], [ 367460.707848829042632, 6972492.254388551227748, 0.0 ], [ 367467.194314089720137, 6972487.25659869518131, 0.0 ], [ 367477.212415078945924, 6972500.861393950879574, 0.0 ], [ 367479.972238517715596, 6972498.264521512202919, 0.0 ], [ 367460.46346373425331, 6972471.77118840906769, 0.0 ], [ 367450.967355600441806, 6972478.902865427546203, 0.0 ] ] ] ] } },
{ "type": "Feature", "properties": { "PROPIET": "SOC. PUNTA DEL COBRE S.A.", "INMUEBLE": "CALLE RANCAGUA Nº 200", "INSCRIP": "FS. 4103 VTA. Nº 2280 AÑO 1990", "Nom_Layer": "123-11", "SECTOR": "COPIAPO", "SUPERF": 0.553484, "DESTINO": "AMPARAR INSTALACIONES DE OFICINAS Y AREAS DEPORTIVAS", "TIPO": "CON CERCO O CIERRE", "UNIDAD": "OF. GENERALES", "HV2": "https://pucobre.sharepoint.com/:f:/s/PropiedadSuperficial/EvLQgWseAg5GsmnJ_0VwBzkBUZyz7qpgXa-7nbr21dpQIw?e=5Tg1To", "area": 0.55348420085000005, "REGION": "ATACAMA" }, "geometry": { "type": "MultiPolygon", "coordinates": [ [ [ [ 367414.947290280018933, 6972507.593449657782912, 0.0 ], [ 367414.29177742858883, 6972511.433404386974871, 0.0 ], [ 367480.266660816036165, 6972609.283999644219875, 0.0 ], [ 367514.591169883555267, 6972581.838739313185215, 0.0 ], [ 367495.823423827532679, 6972560.129926756955683, 0.0 ], [ 367516.774801142862998, 6972546.312540357001126, 0.0 ], [ 367497.545187272306066, 6972520.067071658559144, 0.0 ], [ 367484.139117559825536, 6972529.717949502170086, 0.0 ], [ 367459.275781938340515, 6972509.30063499417156, 0.0 ], [ 367438.003431903605815, 6972496.168612799607217, 0.0 ], [ 367435.476641388726421, 6972492.690872666426003, 0.0 ], [ 367414.947290280018933, 6972507.593449657782912, 0.0 ] ] ] ] } },
{ "type": "Feature", "properties": { "PROPIET": "SOC. PUNTA DEL COBRE S.A.", "INMUEBLE": "CHAÑARCILLO 151", "INSCRIP": "FS. 6604 Nº 1925 AÑO 2011", "Nom_Layer": "123-15", "SECTOR": "COPIAPO", "SUPERF": 0.092005, "DESTINO": "AMPARAR INSTALACIONES DE OFICINAS Y AREAS DEPORTIVAS", "TIPO": "CON CERCO O CIERRE", "UNIDAD": "OF. GENERALES", "HV2": "https://pucobre.sharepoint.com/:f:/s/PropiedadSuperficial/Eu1sxQ9PLRROqMSpv-HbsCIBUkf5tFl1qDUGHQJ6w_qI1Q?e=F0c6Lu", "area": 0.09200512757, "REGION": "ATACAMA" }, "geometry": { "type": "MultiPolygon", "coordinates": [ [ [ [ 367460.464257632847875, 6972471.771984847262502, 0.0 ], [ 367479.972238517715596, 6972498.264521512202919, 0.0 ], [ 367497.543012512498535, 6972520.064103445969522, 0.0 ], [ 367509.232864547579084, 6972511.444674062542617, 0.0 ], [ 367472.432607369788457, 6972462.730677682906389, 0.0 ], [ 367460.464257632847875, 6972471.771984847262502, 0.0 ] ] ] ] } },
{ "type": "Feature", "properties": { "PROPIET": "SOC. PUNTA DEL COBRE S.A.", "INMUEBLE": "FUNDO BUITRON LOTE J-2-A", "INSCRIP": "FJ. 3579 VTA. N 2379 AÑO 2009", "Nom_Layer": "23-78", "SECTOR": "TIERRA AMARILLA", "SUPERF": 5.18981, "DESTINO": "APOYO MINA MC", "TIPO": "CON CERCO O CIERRE", "UNIDAD": "MC", "HV2": "https://pucobre.sharepoint.com/:f:/s/PropiedadSuperficial/Emtmni5TnXJEnQLfNjcRJAUBCxtSFbSS8ZLEOxy49sEzqQ?e=isM0w1", "area": 5.1898103649899996, "REGION": "ATACAMA" }, "geometry": { "type": "MultiPolygon", "coordinates": [ [ [ [ 374631.701966798864305, 6961472.61052531003952, 0.0 ], [ 374596.837088539788965, 6961473.460518606938422, 0.0 ], [ 374561.174631316098385, 6961998.22447919100523, 0.0 ], [ 374663.745391114149243, 6961998.224613701924682, 0.0 ], [ 374704.35481688613072, 6961791.879588309675455, 0.0 ], [ 374679.808267874584999, 6961701.971016328781843, 0.0 ], [ 374655.852072964014951, 6961542.544147852808237, 0.0 ], [ 374646.205465017701499, 6961399.033450618386269, 0.0 ], [ 374631.701966798864305, 6961472.61052531003952, 0.0 ] ] ] ] } },
{ "type": "Feature", "properties": { "PROPIET": "SOC. PUNTA DEL COBRE S.A.", "INMUEBLE": "FUNDO ALTO MELENDEZ", "INSCRIP": "FJ. 337 N 243 AÑO 2010", "Nom_Layer": "23-4", "SECTOR": "TIERRA AMARILLA", "SUPERF": 4.336003, "DESTINO": "APOYO MINA MC", "TIPO": "CON CERCO O CIERRE", "UNIDAD": "MC", "HV2": "https://pucobre.sharepoint.com/:f:/s/PropiedadSuperficial/Egxw3YVmhtNKjVmiT-_ziHIBlpEw7B8nVgX-aF5vzAtRXw?e=5gjXXV", "area": 4.3360027669400001, "REGION": "ATACAMA" }, "geometry": { "type": "MultiPolygon", "coordinates": [ [ [ [ 374638.474315605999436, 6961348.752966383472085, 0.0 ], [ 374876.348358201503288, 6961341.23181574139744, 0.0 ], [ 374912.63714274513768, 6961182.327649246901274, 0.0 ], [ 374683.417067411530297, 6961163.486005801707506, 0.0 ], [ 374677.441192720842082, 6961174.44542065821588, 0.0 ], [ 374655.769912809832022, 6961207.385644586756825, 0.0 ], [ 374646.684086518129334, 6961232.285813027061522, 0.0 ], [ 374637.087361007928848, 6961260.004805129021406, 0.0 ], [ 374628.958502422552556, 6961291.423904909752309, 0.0 ], [ 374631.728865983663127, 6961335.72346486710012, 0.0 ], [ 374638.474315605999436, 6961348.752966383472085, 0.0 ] ] ] ] } },
{ "type": "Feature", "properties": { "PROPIET": "SOC. PUNTA DEL COBRE S.A.", "INMUEBLE": "ESCORIAL LT2B", "INSCRIP": "FS. 2840 Nº 2173 AÑO 1991", "Nom_Layer": "28-12_LT2B", "SECTOR": "T.AMARILLA", "SUPERF": 0.095458, "DESTINO": "OFICNAS TECNICAS", "TIPO": "CON CERCO O CIERRE", "UNIDAD": "MPC", "HV2": "https://pucobre.sharepoint.com/:f:/s/PropiedadSuperficial/Ek0KOYZazMZCkLTV1CAvCYMBXTDu2J2qVTBt-tSPfpOqnw?e=AlhGa9", "area": 0.09545836952, "REGION": "ATACAMA" }, "geometry": { "type": "MultiPolygon", "coordinates": [ [ [ [ 374950.322406686900649, 6957723.729378355666995, 0.0 ], [ 375130.028180999681354, 6957718.551036598160863, 0.0 ], [ 375130.108712229295634, 6957712.797013088129461, 0.0 ], [ 374950.274244042113423, 6957718.862341213971376, 0.0 ], [ 374950.322406686900649, 6957723.729378355666995, 0.0 ] ] ] ] } },
{ "type": "Feature", "properties": { "PROPIET": "SOC. PUNTA DEL COBRE S.A.", "INMUEBLE": "ESCORIAL LT2A", "INSCRIP": "FS. 4103 Nº 2279 AÑO 1990", "Nom_Layer": "28-12_LT2A", "SECTOR": "T.AMARILLA", "SUPERF": 1.270682, "DESTINO": "OFICNAS TECNICAS", "TIPO": "CON CERCO O CIERRE", "UNIDAD": "MPC", "HV2": "https://pucobre.sharepoint.com/:f:/s/PropiedadSuperficial/Ek0KOYZazMZCkLTV1CAvCYMBXTDu2J2qVTBt-tSPfpOqnw?e=AlhGa9", "area": 1.27068198763, "REGION": "ATACAMA" }, "geometry": { "type": "MultiPolygon", "coordinates": [ [ [ [ 375129.051882941741496, 6957752.341544725000858, 0.0 ], [ 375243.641471306502353, 6957766.858169486746192, 0.0 ], [ 375247.154126274166629, 6957649.001571355387568, 0.0 ], [ 375187.760400012135506, 6957636.354071867652237, 0.0 ], [ 375177.931320936069824, 6957650.77958651073277, 0.0 ], [ 375163.067356301588006, 6957661.283530097454786, 0.0 ], [ 375155.027485405676998, 6957663.28101637493819, 0.0 ], [ 375147.344773354998324, 6957662.589862851426005, 0.0 ], [ 375143.841634926036932, 6957657.637907544150949, 0.0 ], [ 375143.796089253039099, 6957653.035326595418155, 0.0 ], [ 375133.434697504620999, 6957653.137859768234193, 0.0 ], [ 375130.108712229295634, 6957712.797013088129461, 0.0 ], [ 375130.028180999681354, 6957718.551036598160863, 0.0 ], [ 375129.051882941741496, 6957752.341544725000858, 0.0 ] ] ] ] } },
{ "type": "Feature", "properties": { "PROPIET": "SOC. PUNTA DEL COBRE S.A.", "INMUEBLE": "ESCORIAL LT 1", "INSCRIP": "FS. 4102 VTA. Nº 2278 AÑO 1990", "Nom_Layer": "28-12_LT1", "SECTOR": "T.AMARILLA", "SUPERF": 0.952425, "DESTINO": "OFICNAS TECNICAS", "TIPO": "CON CERCO O CIERRE", "UNIDAD": "MPC", "HV2": "https://pucobre.sharepoint.com/:f:/s/PropiedadSuperficial/Ek0KOYZazMZCkLTV1CAvCYMBXTDu2J2qVTBt-tSPfpOqnw?e=AlhGa9", "area": 0.95242472448000004, "REGION": "ATACAMA" }, "geometry": { "type": "MultiPolygon", "coordinates": [ [ [ [ 375243.641471306502353, 6957766.858169486746192, 0.0 ], [ 375343.473043210222386, 6957779.505195187404752, 0.0 ], [ 375328.609881661308464, 6957709.245517015457153, 0.0 ], [ 375320.691637703683227, 6957688.492731338366866, 0.0 ], [ 375305.51644351525465, 6957667.545624195598066, 0.0 ], [ 375293.152770964952651, 6957659.229065245017409, 0.0 ], [ 375247.154126274166629, 6957649.001571355387568, 0.0 ], [ 375243.641471306502353, 6957766.858169486746192, 0.0 ] ] ] ] } },
{ "type": "Feature", "properties": { "PROPIET": "SOC. PUNTA DEL COBRE S.A.", "INMUEBLE": "POZO PUNTA NEGRA", "INSCRIP": "FJ. 1700 N 1065 AÑO 1992", "Nom_Layer": "554-135", "SECTOR": "LOS CARRERA 5687", "SUPERF": 0.040104, "DESTINO": "AMPARAR POZO DE AGUA", "TIPO": "CON CERCO O CIERRE", "UNIDAD": "PBC", "HV2": "https://pucobre.sharepoint.com/:f:/s/PropiedadSuperficial/El_b02Hd9BJOiUeUlYRl_4UBQbFMGKzJV8skVT4HD4jJzA?e=VnZ0Lw", "area": 0.04010449762, "REGION": "ATACAMA" }, "geometry": { "type": "MultiPolygon", "coordinates": [ [ [ [ 373241.130317807546817, 6967160.632113782688975, 0.0 ], [ 373268.806916803063359, 6967136.077596137300134, 0.0 ], [ 373258.243127038353123, 6967124.061311773955822, 0.0 ], [ 373245.383648054907098, 6967142.874028131365776, 0.0 ], [ 373242.707287119003013, 6967150.588010985404253, 0.0 ], [ 373237.14850348077016, 6967156.144017371349037, 0.0 ], [ 373241.130317807546817, 6967160.632113782688975, 0.0 ] ] ] ] } },
{ "type": "Feature", "properties": { "PROPIET": "SOC. PUNTA DEL COBRE S.A.", "INMUEBLE": "SIERRA LADRILLO III-2-759-CR", "INSCRIP": "FS. 616 VTA. N|508 AÑO 2015", "Nom_Layer": "6000-134", "SECTOR": "SIERRA LADRILLO", "SUPERF": 8.420244, "DESTINO": "AMPARAR FUTURAS INSTALACIONES", "TIPO": "CON CERCO O CIERRE", "UNIDAD": "PBC", "HV2": "https://pucobre.sharepoint.com/:f:/s/PropiedadSuperficial/EjSGkXvBk25HizpbnA9iq3wBUTq5P0fe5VT33yzw4PvY2A?e=4MaxyJ", "area": 8.4202440546100004, "REGION": "ATACAMA" }, "geometry": { "type": "MultiPolygon", "coordinates": [ [ [ [ 376594.220782041084021, 6969812.492883645929396, 0.0 ], [ 376756.350176048930734, 6969737.744114751927555, 0.0 ], [ 376642.620337807806209, 6969305.897482816129923, 0.0 ], [ 376456.258539644710254, 6969399.314598141238093, 0.0 ], [ 376594.220782041084021, 6969812.492883645929396, 0.0 ] ] ] ] } },
{ "type": "Feature", "properties": { "PROPIET": null, "INMUEBLE": null, "INSCRIP": null, "Nom_Layer": null, "SECTOR": null, "SUPERF": 1.829737, "DESTINO": null, "TIPO": null, "UNIDAD": null, "HV2": null, "area": 0.0, "REGION": null }, "geometry": { "type": "MultiPolygon", "coordinates": [ [ [ [ 374636.620387859642506, 6961345.171922011300921, 0.000000000000114 ], [ 374753.246039099991322, 6961345.124090309254825, 0.000000000000114 ], [ 374738.876940940506756, 6961168.044747707433999, 0.000000000000114 ], [ 374680.941188086755574, 6961168.02662789542228, 0.000000000000114 ], [ 374655.769912811927497, 6961207.385644588619471, 0.000000000000114 ], [ 374637.087361008860171, 6961260.004805129021406, 0.000000000000114 ], [ 374628.95850242394954, 6961291.423904910683632, 0.000000000000114 ], [ 374624.164584884420037, 6961303.564939138479531, 0.000000000000114 ], [ 374628.133342823013663, 6961346.427524863742292, 0.000000000000114 ], [ 374636.620387859642506, 6961345.171922011300921, 0.000000000000114 ] ] ] ] } },
{ "type": "Feature", "properties": { "PROPIET": null, "INMUEBLE": null, "INSCRIP": null, "Nom_Layer": null, "SECTOR": null, "SUPERF": 1.837146, "DESTINO": null, "TIPO": null, "UNIDAD": null, "HV2": null, "area": 0.0, "REGION": null }, "geometry": { "type": "MultiPolygon", "coordinates": [ [ [ [ 374773.082546512596309, 6961344.496895518153906, 0.000000000000114 ], [ 374859.552669922821224, 6961341.762865286320448, 0.000000000000114 ], [ 374902.374516304582357, 6961189.264710539020598, 0.000000000000114 ], [ 374775.771138098090887, 6961180.13656728155911, 0.000000000000114 ], [ 374775.468504729680717, 6961171.052534860558808, 0.000000000000114 ], [ 374759.537996243685484, 6961169.743064211681485, 0.000000000000114 ], [ 374773.082546512596309, 6961344.496895518153906, 0.000000000000114 ] ] ] ] } },
{ "type": "Feature", "properties": { "PROPIET": null, "INMUEBLE": null, "INSCRIP": null, "Nom_Layer": "7000-150", "SECTOR": null, "SUPERF": 0.0, "DESTINO": null, "TIPO": null, "UNIDAD": null, "HV2": null, "area": 0.0, "REGION": null }, "geometry": { "type": "MultiPolygon", "coordinates": [ [ [ [ 376888.589165035111364, 6970753.410293407738209, 0.0 ], [ 376613.733689533662982, 6970928.551086328923702, 0.0 ], [ 377243.373881178209558, 6971939.405565174296498, 0.0 ], [ 377377.707461997517385, 6971853.549105448648334, 0.0 ], [ 377369.663690370623954, 6971842.897114096209407, 0.0 ], [ 377364.640555428981315, 6971827.864899541251361, 0.0 ], [ 377362.90773561183596, 6971809.728085992857814, 0.0 ], [ 377362.737011208955664, 6971794.13132581859827, 0.0 ], [ 377375.814308865810744, 6971774.042392047122121, 0.0 ], [ 377383.314123491349164, 6971758.361669076606631, 0.0 ], [ 377396.200108004384674, 6971744.156279710121453, 0.0 ], [ 377412.176698208670132, 6971731.962781958281994, 0.0 ], [ 377440.665042930108029, 6971718.098037404939532, 0.0 ], [ 377468.181026802572887, 6971708.846810556948185, 0.0 ], [ 377499.759977206587791, 6971696.993957607075572, 0.0 ], [ 377523.446289076819085, 6971688.296081336215138, 0.0 ], [ 377552.24349486263236, 6971679.286545254290104, 0.0 ], [ 377572.156109959527384, 6971676.255711416713893, 0.0 ], [ 377606.890037552511785, 6971672.295495683327317, 0.0 ], [ 377630.663111009285785, 6971671.523841755464673, 0.0 ], [ 377648.021678517747205, 6971668.776680102571845, 0.0 ], [ 377666.791208326991182, 6971654.762603804469109, 0.0 ], [ 377661.765274588949978, 6971639.474704703316092, 0.0 ], [ 377652.339525601419155, 6971619.376377277076244, 0.0 ], [ 377639.168067476770375, 6971607.501938227564096, 0.0 ], [ 377618.69190401036758, 6971582.410265664570034, 0.0 ], [ 377589.10625161929056, 6971566.112624628469348, 0.0 ], [ 377576.671061037224717, 6971551.417258776724339, 0.0 ], [ 377573.362151961307973, 6971529.461968962103128, 0.0 ], [ 377579.878410657809582, 6971517.372025351971388, 0.0 ], [ 377601.971840685408097, 6971503.321565202437341, 0.0 ], [ 377618.88061164872488, 6971506.205062108114362, 0.0 ], [ 377639.247623402567115, 6971521.325035551562905, 0.0 ], [ 377661.969970673671924, 6971518.007730739191175, 0.0 ], [ 377685.833601791993715, 6971502.147887097671628, 0.0 ], [ 377720.810217464400921, 6971473.636352960020304, 0.0 ], [ 377748.775997747085057, 6971458.754467505961657, 0.0 ], [ 377775.274840506433975, 6971450.025804819539189, 0.0 ], [ 377809.132562391692773, 6971436.102286213077605, 0.0 ], [ 377815.963279688265175, 6971429.378920270130038, 0.0 ], [ 377817.399430822231807, 6971420.413166985847056, 0.0 ], [ 377807.099277672590688, 6971413.877318037673831, 0.0 ], [ 377794.576328154886141, 6971414.525826517492533, 0.0 ], [ 377672.016627095639706, 6971407.940210658125579, 0.0 ], [ 377553.431329582410399, 6971367.300964992493391, 0.0 ], [ 377540.481971002183855, 6971352.355512093752623, 0.0 ], [ 377537.381167634739541, 6971326.050785504281521, 0.0 ], [ 377567.975951300235465, 6971200.926859758794308, 0.0 ], [ 377571.981141186843161, 6971169.685760682448745, 0.0 ], [ 377578.784868223476224, 6971137.135452297516167, 0.0 ], [ 377576.656425679218955, 6971106.217208084650338, 0.0 ], [ 377571.875978927477263, 6971066.633675392717123, 0.0 ], [ 377586.280275899043772, 6971027.607289449311793, 0.0 ], [ 377617.4300182259758, 6970999.904790669679642, 0.0 ], [ 377649.180690165492706, 6970980.378601275384426, 0.0 ], [ 377659.754317795508541, 6970965.175662467256188, 0.0 ], [ 377672.700073484913446, 6970933.069553066045046, 0.0 ], [ 377679.382456391642336, 6970912.794903861358762, 0.0 ], [ 377698.615776363818441, 6970894.42859210819006, 0.0 ], [ 377720.931305719830561, 6970877.307118175551295, 0.0 ], [ 377749.243328151176684, 6970847.334244451485574, 0.0 ], [ 377755.461920722213108, 6970831.411830818280578, 0.0 ], [ 377754.288049061840866, 6970817.616057980805635, 0.0 ], [ 377721.578206067264546, 6970796.238310443237424, 0.0 ], [ 377676.718646270514, 6970786.245025385171175, 0.0 ], [ 377616.954808626149315, 6970746.240488021634519, 0.0 ], [ 377591.137255696696229, 6970723.764435552060604, 0.0 ], [ 377562.751661419286393, 6970700.293632328510284, 0.0 ], [ 377549.743528943741694, 6970679.978803150355816, 0.0 ], [ 377543.473754614940844, 6970644.503016632050276, 0.0 ], [ 377553.5370103236055, 6970606.03557897452265, 0.0 ], [ 377577.488400187110528, 6970574.831861367449164, 0.0 ], [ 377616.145355798129458, 6970555.485790124163032, 0.0 ], [ 377656.564116196939722, 6970533.563281648792326, 0.0 ], [ 377693.2483625272871, 6970520.887399799190462, 0.0 ], [ 377773.559522862487938, 6970499.039653764106333, 0.0 ], [ 377796.265077314921655, 6970494.188241416588426, 0.0 ], [ 377808.164706974348519, 6970483.317946884781122, 0.0 ], [ 377800.823617784655653, 6970466.776813880540431, 0.0 ], [ 377792.02398738078773, 6970457.155957360751927, 0.0 ], [ 377672.654844533011783, 6970414.991000996902585, 0.0 ], [ 377491.618126843124628, 6970369.153907734900713, 0.0 ], [ 376888.589165035111364, 6970753.410293407738209, 0.0 ] ] ] ] } }
]
}
